{"type":"FeatureCollection","features":[{"type":"Feature","geometry":{"type":"Polygon","coordinates":[[[11.0945364,36.8369575],[11.0948529,36.8363607],[11.0937908,36.8359399],[11.0933563,36.836511],[11.0941025,36.8367933],[11.0945364,36.8369575]]]},"properties":{}},{"type":"Feature","geometry":{"type":"Polygon","coordinates":[[[11.0925615,36.8361806],[11.0929217,36.8363349],[11.0931202,36.8360601],[11.0931685,36.836073],[11.0932812,36.8358712],[11.0928144,36.8357381],[11.0925615,36.8361806]]]},"properties":{}},{"type":"Feature","geometry":{"type":"Polygon","coordinates":[[[11.0932168,36.8364466],[11.093603,36.8358669],[11.0933294,36.8357897],[11.0932812,36.8358712],[11.0931685,36.836073],[11.0931202,36.8360601],[11.0929217,36.8363349],[11.0932168,36.8364466]]]},"properties":{}},{"type":"Feature","geometry":{"type":"Polygon","coordinates":[[[11.0937905,36.8373482],[11.0941025,36.8367933],[11.0933563,36.836511],[11.0930129,36.8369961],[11.093249,36.8371077],[11.0933294,36.8369704],[11.0935869,36.8370734],[11.0935065,36.8372194],[11.0937905,36.8373482]]]},"properties":{}},{"type":"Feature","geometry":{"type":"Polygon","coordinates":[[[11.0916083,36.8355289],[11.0915431,36.835794],[11.0924872,36.836146],[11.0927707,36.8356594],[11.0921485,36.8355879],[11.0916083,36.8355289]]]},"properties":{}},{"type":"Feature","geometry":{"type":"Polygon","coordinates":[[[11.0923799,36.8353818],[11.0925945,36.8350641],[11.0923317,36.8349224],[11.0925999,36.8345531],[11.0929532,36.8341169],[11.0932348,36.8337709],[11.0917173,36.8329579],[11.0916879,36.8329473],[11.0918649,36.8327498],[11.0914787,36.8325395],[11.0908135,36.8332908],[11.0907331,36.8332565],[11.0906419,36.8332908],[11.0903575,36.8335356],[11.090674,36.8337159],[11.0898801,36.8347635],[11.090658,36.8350555],[11.0909852,36.8351413],[11.0913446,36.8352272],[11.0917791,36.8353174],[11.0918113,36.8352873],[11.0920312,36.8353346],[11.0923799,36.8353818]]]},"properties":{}},{"type":"Feature","geometry":{"type":"Polygon","coordinates":[[[11.0999611,36.8482676],[11.1005163,36.8484844],[11.1006611,36.8482612],[11.1000925,36.8480745],[11.0999611,36.8482676]]]},"properties":{}},{"type":"Feature","geometry":{"type":"Polygon","coordinates":[[[11.1027291,36.8481603],[11.1032414,36.848126],[11.1032548,36.8479671],[11.1033702,36.8477503],[11.1031395,36.8476688],[11.1030939,36.8477418],[11.1029705,36.8476795],[11.1029303,36.8477117],[11.1027962,36.8479779],[11.1027291,36.8481603]]]},"properties":{}},{"type":"Feature","geometry":{"type":"Polygon","coordinates":[[[11.1012378,36.8484629],[11.1006611,36.8482612],[11.1005163,36.8484844],[11.1003902,36.8486604],[11.1009937,36.8488471],[11.1012378,36.8484629]]]},"properties":{}},{"type":"Feature","geometry":{"type":"Polygon","coordinates":[[[11.0935077,36.8393854],[11.0927218,36.8390333],[11.0916489,36.8404565],[11.0924455,36.8408944],[11.0927272,36.8407828],[11.0930785,36.8404136],[11.0928103,36.8402483],[11.0933468,36.8396065],[11.0935077,36.8393854]]]},"properties":{}},{"type":"Feature","geometry":{"type":"Polygon","coordinates":[[[11.0736328,36.843455],[11.0747052,36.8437658],[11.0750378,36.8432936],[11.0756486,36.8425583],[11.0750732,36.842245],[11.0752333,36.8420555],[11.0749635,36.8418923],[11.0751274,36.8416386],[11.0744981,36.8413737],[11.074366,36.8415588],[11.0740787,36.841398],[11.074217,36.8412158],[11.0731286,36.8407031],[11.0728169,36.840516],[11.0723829,36.8408319],[11.0723395,36.8409023],[11.0710257,36.842034],[11.070382,36.8425792],[11.0712961,36.8429112],[11.0722429,36.843255],[11.0727859,36.8433346],[11.0731661,36.8426479],[11.073382,36.8427078],[11.0730315,36.8433666],[11.07337,36.8434035],[11.0738635,36.8427681],[11.0740083,36.8428411],[11.0740673,36.8428798],[11.0736328,36.843455]]]},"properties":{}},{"type":"Feature","geometry":{"type":"Polygon","coordinates":[[[11.0841685,36.8575262],[11.0845113,36.8572103],[11.084013,36.8568352],[11.0839373,36.8568798],[11.083666,36.8571645],[11.0841685,36.8575262]]]},"properties":{}},{"type":"Feature","geometry":{"type":"Polygon","coordinates":[[[11.079995,36.8480699],[11.0802954,36.8482416],[11.0805207,36.8483317],[11.0806704,36.8481789],[11.0806549,36.8481085],[11.0806919,36.8480373],[11.0802901,36.8478381],[11.080215,36.8479368],[11.080113,36.8479282],[11.079995,36.8480699]]]},"properties":{}},{"type":"Feature","geometry":{"type":"Polygon","coordinates":[[[11.0772914,36.8487181],[11.0775054,36.848913],[11.0783798,36.8479686],[11.0783214,36.8479131],[11.0788465,36.8473762],[11.0793025,36.8468868],[11.0792333,36.8468507],[11.0788363,36.846928],[11.0778224,36.8481128],[11.0772914,36.8487181]]]},"properties":{}},{"type":"Feature","geometry":{"type":"Polygon","coordinates":[[[11.0827684,36.8566764],[11.0836101,36.8572232],[11.083666,36.8571645],[11.0839373,36.8568798],[11.0832888,36.8563545],[11.0827684,36.8566764]]]},"properties":{}},{"type":"Feature","geometry":{"type":"Polygon","coordinates":[[[11.0857885,36.8566374],[11.0868078,36.8572135],[11.0873,36.8565237],[11.0863786,36.8558236],[11.0858588,36.8563073],[11.0857885,36.8566374]]]},"properties":{}},{"type":"Feature","geometry":{"type":"Polygon","coordinates":[[[11.0890489,36.8542162],[11.0892742,36.8539544],[11.088904,36.8537526],[11.0887002,36.8537977],[11.0885795,36.8539715],[11.0890489,36.8542162]]]},"properties":{}},{"type":"Feature","geometry":{"type":"Polygon","coordinates":[[[11.0842936,36.855634],[11.0838647,36.8553247],[11.0828812,36.8561059],[11.0831386,36.8562602],[11.083526,36.8560536],[11.0837824,36.8559169],[11.0842936,36.855634]]]},"properties":{}},{"type":"Feature","geometry":{"type":"Polygon","coordinates":[[[11.0840613,36.8567837],[11.0842735,36.8566138],[11.0836697,36.8561572],[11.0834766,36.8562645],[11.0840613,36.8567837]]]},"properties":{}},{"type":"Feature","geometry":{"type":"Polygon","coordinates":[[[11.0825378,36.8563761],[11.0828812,36.8561059],[11.0838647,36.8553247],[11.0834951,36.8550455],[11.0832419,36.8549092],[11.0825786,36.8554549],[11.0820067,36.8559254],[11.0825378,36.8563761]]]},"properties":{}},{"type":"Feature","geometry":{"type":"Polygon","coordinates":[[[11.1038137,36.8464154],[11.1035087,36.8467361],[11.1036765,36.8468581],[11.1037244,36.8469976],[11.1039705,36.8471753],[11.1043342,36.846757],[11.1038137,36.8464154]]]},"properties":{}},{"type":"Feature","geometry":{"type":"Polygon","coordinates":[[[11.0896456,36.8597738],[11.0888589,36.860741],[11.0884433,36.8613273],[11.0886208,36.8613941],[11.0885339,36.8615181],[11.0888703,36.8616814],[11.0886902,36.8619125],[11.0888826,36.8619959],[11.0893543,36.8622072],[11.0895997,36.8615544],[11.0888098,36.8611976],[11.0891078,36.8608534],[11.0893805,36.8605384],[11.0899134,36.8599124],[11.0896456,36.8597738]]]},"properties":{}},{"type":"Feature","geometry":{"type":"Polygon","coordinates":[[[11.083638,36.8396845],[11.0840765,36.8399325],[11.0842276,36.8397571],[11.0845376,36.8399506],[11.0839177,36.8406857],[11.084375,36.8409065],[11.0841974,36.8411364],[11.0840576,36.8410607],[11.0829955,36.842437],[11.0832147,36.8425338],[11.0835246,36.842074],[11.0839971,36.8422918],[11.084273,36.8419349],[11.0847152,36.8422011],[11.0850138,36.8418684],[11.0853691,36.8421073],[11.0860532,36.8414721],[11.0856828,36.841209],[11.086125,36.8408278],[11.0859738,36.8404921],[11.0850969,36.8396845],[11.0842721,36.8388681],[11.0837627,36.8384745],[11.0830539,36.8393038],[11.083638,36.8396845]]]},"properties":{}},{"type":"Feature","geometry":{"type":"Polygon","coordinates":[[[11.0835899,36.8405396],[11.0831783,36.8402765],[11.0828977,36.8406123],[11.0833307,36.8408733],[11.0835899,36.8405396]]]},"properties":{}},{"type":"Feature","geometry":{"type":"Polygon","coordinates":[[[11.0902838,36.856483],[11.0900004,36.8563288],[11.0898076,36.8562441],[11.0893641,36.8567121],[11.0888703,36.857233],[11.0892634,36.8574689],[11.0902838,36.856483]]]},"properties":{}},{"type":"Feature","geometry":{"type":"Polygon","coordinates":[[[11.0862775,36.8581403],[11.0868331,36.8584517],[11.0872186,36.85798],[11.0870334,36.8578741],[11.0870977,36.8577683],[11.0866706,36.8575294],[11.0865912,36.8577864],[11.0865005,36.8579286],[11.0862775,36.8581403]]]},"properties":{}},{"type":"Feature","geometry":{"type":"Polygon","coordinates":[[[11.1101131,36.8418913],[11.1106525,36.8422552],[11.1110548,36.8418946],[11.1100624,36.8410593],[11.1106364,36.8406515],[11.1102448,36.8403166],[11.1097834,36.8396555],[11.1091504,36.83978],[11.1085121,36.8399603],[11.1081688,36.8401492],[11.1093436,36.8412334],[11.1096279,36.8410336],[11.1099068,36.8413279],[11.1103306,36.8417057],[11.1101131,36.8418913]]]},"properties":{}},{"type":"Feature","geometry":{"type":"Polygon","coordinates":[[[11.1186127,36.8403636],[11.1191484,36.8405008],[11.1194609,36.8399669],[11.1193108,36.8397543],[11.1195144,36.8395783],[11.1193321,36.8394107],[11.119257,36.8393678],[11.1191819,36.839385],[11.1188869,36.8399517],[11.1187688,36.8399946],[11.1186127,36.8403636]]]},"properties":{}},{"type":"Feature","geometry":{"type":"Polygon","coordinates":[[[11.1184953,36.8406],[11.1184738,36.8406858],[11.1184416,36.8408275],[11.1184523,36.8411194],[11.1184899,36.8414009],[11.1185757,36.8416003],[11.1187581,36.8418879],[11.1192785,36.8424889],[11.1193965,36.8423687],[11.1196432,36.8424932],[11.1201019,36.8428667],[11.1202709,36.8427723],[11.1197585,36.8423019],[11.1194886,36.8419939],[11.1189969,36.8413608],[11.1189539,36.8412717],[11.1189595,36.8410251],[11.1189942,36.8408796],[11.1190347,36.8407226],[11.1184953,36.8406]]]},"properties":{}},{"type":"Feature","geometry":{"type":"Polygon","coordinates":[[[11.1195842,36.8415425],[11.120126,36.8413665],[11.1199919,36.841096],[11.119434,36.8412592],[11.1195842,36.8415425]]]},"properties":{}},{"type":"Feature","geometry":{"type":"Polygon","coordinates":[[[11.1129919,36.8407663],[11.1134344,36.8410367],[11.1136007,36.8408779],[11.1132064,36.8405602],[11.1129919,36.8407663]]]},"properties":{}},{"type":"Feature","geometry":{"type":"Polygon","coordinates":[[[11.0944585,36.8578482],[11.0934665,36.8572478],[11.0932955,36.8574556],[11.0943164,36.8580405],[11.0944585,36.8578482]]]},"properties":{}},{"type":"Feature","geometry":{"type":"Polygon","coordinates":[[[11.0910081,36.8581573],[11.0923624,36.8587706],[11.0927754,36.8582813],[11.0923302,36.8580109],[11.092022,36.8581616],[11.0918074,36.8581701],[11.0916918,36.8580882],[11.0918021,36.8579684],[11.0915331,36.8577642],[11.091212,36.857448],[11.0910081,36.8581573]]]},"properties":{}},{"type":"Feature","geometry":{"type":"Polygon","coordinates":[[[11.0966976,36.8624288],[11.097039,36.8620155],[11.0970809,36.8619649],[11.0967029,36.8617679],[11.0965605,36.8619219],[11.0963151,36.8622419],[11.0966976,36.8624288]]]},"properties":{}},{"type":"Feature","geometry":{"type":"Polygon","coordinates":[[[11.0933846,36.8581487],[11.0936557,36.8578901],[11.0929148,36.8575046],[11.0928159,36.8576164],[11.0926604,36.8577753],[11.0932904,36.8581311],[11.0933562,36.8581946],[11.0933846,36.8581487]]]},"properties":{}},{"type":"Feature","geometry":{"type":"Polygon","coordinates":[[[11.0945862,36.858462],[11.0941863,36.8581955],[11.0936557,36.8578901],[11.0933846,36.8581487],[11.0933562,36.8581946],[11.093784,36.8586075],[11.0941517,36.8588612],[11.0943824,36.8586938],[11.0945487,36.8585436],[11.0945862,36.858462]]]},"properties":{}},{"type":"Feature","geometry":{"type":"Polygon","coordinates":[[[11.0928159,36.8576164],[11.0929148,36.8575046],[11.092107,36.8570842],[11.0916291,36.8574005],[11.0918371,36.8575724],[11.0915331,36.8577642],[11.0918021,36.8579684],[11.0916918,36.8580882],[11.0918074,36.8581701],[11.092022,36.8581616],[11.0923302,36.8580109],[11.0926604,36.8577753],[11.0928159,36.8576164]]]},"properties":{}},{"type":"Feature","geometry":{"type":"Polygon","coordinates":[[[11.0932987,36.8592947],[11.0934514,36.8592685],[11.0941517,36.8588612],[11.093784,36.8586075],[11.0935723,36.858814],[11.0932183,36.8585607],[11.0927754,36.8582813],[11.0923624,36.8587706],[11.0931378,36.859196],[11.0932987,36.8592947]]]},"properties":{}},{"type":"Feature","geometry":{"type":"Polygon","coordinates":[[[11.098057,36.8579512],[11.0983842,36.8577109],[11.0979926,36.8573246],[11.0976785,36.8575688],[11.098057,36.8579512]]]},"properties":{}},{"type":"Feature","geometry":{"type":"Polygon","coordinates":[[[11.0987329,36.8577581],[11.0985881,36.8578783],[11.0989582,36.8582345],[11.0991299,36.8581143],[11.0987329,36.8577581]]]},"properties":{}},{"type":"Feature","geometry":{"type":"Polygon","coordinates":[[[11.0995537,36.856329],[11.0997468,36.856226],[11.1000955,36.8559083],[11.0997438,36.8556459],[11.0998433,36.8554576],[11.0996664,36.8553662],[11.0995135,36.8555487],[11.0993902,36.8556925],[11.0995537,36.856329]]]},"properties":{}},{"type":"Feature","geometry":{"type":"Polygon","coordinates":[[[11.0985666,36.8566636],[11.0990279,36.8562217],[11.0984218,36.8558998],[11.0980487,36.8563198],[11.0985666,36.8566636]]]},"properties":{}},{"type":"Feature","geometry":{"type":"Polygon","coordinates":[[[11.1010342,36.8561659],[11.1012756,36.8558611],[11.1005568,36.8555564],[11.1003959,36.8553847],[11.1003125,36.8554184],[11.1001247,36.8553282],[11.0999477,36.8555085],[11.100379,36.8557694],[11.1010342,36.8561659]]]},"properties":{}},{"type":"Feature","geometry":{"type":"Polygon","coordinates":[[[11.0811132,36.8482155],[11.0812527,36.8483056],[11.08136,36.8482112],[11.0814243,36.8482627],[11.0815316,36.848164],[11.0814351,36.8480781],[11.0815584,36.8479279],[11.0817033,36.8479922],[11.0818589,36.8478549],[11.0818642,36.8477433],[11.0813117,36.847739],[11.0812527,36.8477132],[11.0810274,36.8479279],[11.0812419,36.8480609],[11.0811132,36.8482155]]]},"properties":{}},{"type":"Feature","geometry":{"type":"Polygon","coordinates":[[[11.0838276,36.853358],[11.0840207,36.8534954],[11.0845089,36.853109],[11.0844284,36.8530618],[11.0841816,36.8529674],[11.0838651,36.8532765],[11.0838276,36.853358]]]},"properties":{}},{"type":"Feature","geometry":{"type":"Polygon","coordinates":[[[11.081317,36.8492243],[11.0816443,36.8494003],[11.0822397,36.8489152],[11.0822236,36.8488637],[11.081934,36.8487048],[11.081317,36.8492243]]]},"properties":{}},{"type":"Feature","geometry":{"type":"Polygon","coordinates":[[[11.082288,36.8481682],[11.0828405,36.8483443],[11.08298,36.8481468],[11.0825777,36.8480223],[11.0823524,36.8479751],[11.082288,36.8481682]]]},"properties":{}},{"type":"Feature","geometry":{"type":"Polygon","coordinates":[[[11.0914355,36.84659],[11.091705,36.8464183],[11.0915696,36.8462842],[11.0913027,36.8464591],[11.0914355,36.84659]]]},"properties":{}}]}