{"type": "FeatureCollection", "features": [{"type": "Feature", "properties": {"addr:city": "\u0642\u0644\u064a\u0628\u064a\u0629", "addr:city:ar": "\u0642\u0644\u064a\u0628\u064a\u0629", "building": "terrace"}, "geometry": {"type": "Polygon", "coordinates": [[[11.0989784, 36.8442268], [11.0987281, 36.8440574], [11.0987626, 36.8440248], [11.0986365, 36.8439395], [11.098609, 36.8439654], [11.0983546, 36.8437932], [11.0982733, 36.84387], [11.0985242, 36.8440398], [11.0984494, 36.8441106], [11.0985809, 36.8441996], [11.0986475, 36.8441367], [11.098896, 36.8443049], [11.0989784, 36.8442268]]]}}, {"type": "Feature", "properties": {"building": "yes"}, "geometry": {"type": "Polygon", "coordinates": [[[11.0896624, 36.8498045], [11.0901013, 36.8501259], [11.0901254, 36.8501048], [11.0901441, 36.8501184], [11.0901993, 36.8500701], [11.0897417, 36.8497351], [11.0896624, 36.8498045]]]}}, {"type": "Feature", "properties": {"amenity": "place_of_worship", "building": "yes", "name": "\u062c\u0627\u0645\u0639 \u0633\u064a\u062f\u064a \u0627\u0628\u0648 \u0636\u0627\u0648\u064a", "name:ar": "\u062c\u0627\u0645\u0639 \u0633\u064a\u062f\u064a \u0627\u0628\u0648 \u0636\u0627\u0648\u064a", "name:en": "Mosque", "name:fr": "Mosqu\u00e9e Sidi Abou Dhaoui", "religion": "muslim"}, "geometry": {"type": "Polygon", "coordinates": [[[11.0958524, 36.848454], [11.0959675, 36.84826], [11.0956441, 36.8481371], [11.095529, 36.8483311], [11.0958524, 36.848454]]]}}, {"type": "Feature", "properties": {"addr:city": "\u0642\u0644\u064a\u0628\u064a\u0629", "addr:postcode": "8090", "amenity": "place_of_worship", "building": "yes", "name": "\u062c\u0627\u0645\u0639 \u0627\u0644\u062a\u0642\u0648\u0649", "name:ar": "\u062c\u0627\u0645\u0639 \u0627\u0644\u062a\u0642\u0648\u0649", "name:en": "Mosque", "name:fr": "Mosqu\u00e9e Ettakwa", "religion": "muslim"}, "geometry": {"type": "Polygon", "coordinates": [[[11.0874232, 36.8462318], [11.0875699, 36.8462544], [11.0875903, 36.8461698], [11.0876565, 36.84618], [11.0876762, 36.846098], [11.0874102, 36.8460205], [11.0873885, 36.8461471], [11.0874416, 36.8461553], [11.0874232, 36.8462318]]]}}, {"type": "Feature", "properties": {"building": "yes"}, "geometry": {"type": "Polygon", "coordinates": [[[11.084527, 36.8453823], [11.0844407, 36.845484], [11.0845227, 36.8455287], [11.0845924, 36.8455675], [11.0846447, 36.8455118], [11.084527, 36.8453823]]]}}, {"type": "Feature", "properties": {"amenity": "place_of_worship", "building": "yes", "religion": "muslim"}, "geometry": {"type": "Polygon", "coordinates": [[[11.1018951, 36.8435157], [11.1020423, 36.843618], [11.1021137, 36.8435522], [11.1020799, 36.8435287], [11.1022475, 36.8433743], [11.102099, 36.8432711], [11.1019206, 36.8434355], [11.101942, 36.8434504], [11.1018973, 36.8434916], [11.101911, 36.843501], [11.1018951, 36.8435157]]]}}, {"type": "Feature", "properties": {"building": "yes", "man_made": "tower"}, "geometry": {"type": "Polygon", "coordinates": [[[11.1018765, 36.8434422], [11.1018527, 36.8434681], [11.101882, 36.8434854], [11.1019058, 36.8434596], [11.1018765, 36.8434422]]]}}, {"type": "Feature", "properties": {"building": "yes"}, "geometry": {"type": "Polygon", "coordinates": [[[11.1159868, 36.8372636], [11.1158508, 36.8371726], [11.115774, 36.8372463], [11.11591, 36.8373372], [11.1159868, 36.8372636]]]}}, {"type": "Feature", "properties": {"building": "yes"}, "geometry": {"type": "Polygon", "coordinates": [[[11.110248, 36.8365111], [11.1103593, 36.8364583], [11.1102749, 36.8363443], [11.1101636, 36.8363971], [11.110248, 36.8365111]]]}}, {"type": "Feature", "properties": {"building": "yes"}, "geometry": {"type": "Polygon", "coordinates": [[[11.1114869, 36.8347778], [11.111649, 36.8347518], [11.1116336, 36.8346902], [11.1114715, 36.8347161], [11.1114869, 36.8347778]]]}}, {"type": "Feature", "properties": {"building": "yes"}, "geometry": {"type": "Polygon", "coordinates": [[[11.1111218, 36.8349235], [11.1111702, 36.8349187], [11.1111634, 36.8348748], [11.1111429, 36.8348768], [11.1111397, 36.8348451], [11.1110676, 36.8348557], [11.1110793, 36.834921], [11.1111218, 36.8349235]]]}}, {"type": "Feature", "properties": {"amenity": "marketplace", "building": "yes", "name": "March\u00e9 de Gros - Poisson", "name:en": "Fish Market", "name:fr": "March\u00e9 de Gros - Poisson"}, "geometry": {"type": "Polygon", "coordinates": [[[11.1130645, 36.8349007], [11.1125069, 36.8349869], [11.1125643, 36.8352245], [11.1131218, 36.8351382], [11.1130645, 36.8349007]]]}}, {"type": "Feature", "properties": {"building": "yes"}, "geometry": {"type": "Polygon", "coordinates": [[[11.1110676, 36.8348557], [11.1108782, 36.8348775], [11.1108842, 36.8349111], [11.1109085, 36.8349083], [11.1109142, 36.83494], [11.1110112, 36.8349289], [11.1110793, 36.834921], [11.1110676, 36.8348557]]]}}, {"type": "Feature", "properties": {"building": "yes"}, "geometry": {"type": "Polygon", "coordinates": [[[11.1118171, 36.8346624], [11.1116787, 36.8340863], [11.1111564, 36.8341667], [11.1112948, 36.8347428], [11.1114715, 36.8347161], [11.1116336, 36.8346902], [11.1118171, 36.8346624]]]}}, {"type": "Feature", "properties": {"building": "yes"}, "geometry": {"type": "Polygon", "coordinates": [[[11.1157469, 36.8346345], [11.1154886, 36.8343761], [11.115363, 36.8344571], [11.1156198, 36.8347119], [11.1156457, 36.8346977], [11.1157469, 36.8346345]]]}}, {"type": "Feature", "properties": {"building": "yes"}, "geometry": {"type": "Polygon", "coordinates": [[[11.1144967, 36.8342487], [11.1147351, 36.8340714], [11.1145692, 36.8339285], [11.1143308, 36.8341058], [11.1144967, 36.8342487]]]}}, {"type": "Feature", "properties": {"building": "yes"}, "geometry": {"type": "Polygon", "coordinates": [[[11.1149172, 36.8338085], [11.1151044, 36.8336732], [11.1150215, 36.8335997], [11.1148343, 36.8337351], [11.1149172, 36.8338085]]]}}, {"type": "Feature", "properties": {"building": "yes"}, "geometry": {"type": "Polygon", "coordinates": [[[11.1147614, 36.8339612], [11.1148921, 36.8338662], [11.1147991, 36.8337841], [11.1146683, 36.8338791], [11.1147614, 36.8339612]]]}}, {"type": "Feature", "properties": {"building": "yes"}, "geometry": {"type": "Polygon", "coordinates": [[[11.1151335, 36.8335279], [11.1147122, 36.8331629], [11.1146179, 36.8332347], [11.1146585, 36.8332688], [11.1146772, 36.8332545], [11.115057, 36.8335725], [11.1151335, 36.8335279]]]}}, {"type": "Feature", "properties": {"building": "yes"}, "geometry": {"type": "Polygon", "coordinates": [[[11.1121458, 36.8321499], [11.1122286, 36.8321429], [11.1123561, 36.8321321], [11.1123488, 36.8320772], [11.1121385, 36.832095], [11.1121458, 36.8321499]]]}}, {"type": "Feature", "properties": {"building": "yes"}, "geometry": {"type": "Polygon", "coordinates": [[[11.1133541, 36.8320417], [11.1133529, 36.8320849], [11.1135427, 36.8320882], [11.1135487, 36.8320494], [11.1133541, 36.8320417]]]}}, {"type": "Feature", "properties": {"amenity": "restaurant", "building": "yes", "name": "\u0645\u0642\u0647\u0649 \u0633\u064a\u062f\u064a \u0627\u0644\u0628\u062d\u0631\u064a", "name:ar": "\u0645\u0642\u0647\u0649 \u0633\u064a\u062f\u064a \u0627\u0644\u0628\u062d\u0631\u064a"}, "geometry": {"type": "Polygon", "coordinates": [[[11.1151076, 36.8329709], [11.1150218, 36.8330525], [11.1150378, 36.8331299], [11.1151881, 36.8332242], [11.1153088, 36.8331169], [11.1151076, 36.8329709]]]}}, {"type": "Feature", "properties": {"building": "yes"}, "geometry": {"type": "Polygon", "coordinates": [[[11.1147564, 36.8327132], [11.1148449, 36.8326469], [11.1145739, 36.832415], [11.1144853, 36.8324814], [11.1147564, 36.8327132]]]}}, {"type": "Feature", "properties": {"building": "yes"}, "geometry": {"type": "Polygon", "coordinates": [[[11.1142215, 36.8346607], [11.1141204, 36.8345784], [11.1140366, 36.8346444], [11.1141376, 36.8347267], [11.1142215, 36.8346607]]]}}, {"type": "Feature", "properties": {"building": "yes"}, "geometry": {"type": "Polygon", "coordinates": [[[11.1143623, 36.8345686], [11.11447, 36.8345051], [11.114414, 36.8344443], [11.1143063, 36.8345077], [11.1143623, 36.8345686]]]}}, {"type": "Feature", "properties": {"building": "yes"}, "geometry": {"type": "Polygon", "coordinates": [[[11.1166398, 36.8378635], [11.1165409, 36.8379035], [11.1165686, 36.8379449], [11.1165977, 36.8379931], [11.1166963, 36.837953], [11.1166398, 36.8378635]]]}}, {"type": "Feature", "properties": {"building": "yes"}, "geometry": {"type": "Polygon", "coordinates": [[[11.1162181, 36.8380367], [11.1162902, 36.8381523], [11.1162943, 36.8381599], [11.1163544, 36.8381369], [11.1164556, 36.8380944], [11.1163761, 36.8379735], [11.1162181, 36.8380367]]]}}, {"type": "Feature", "properties": {"building": "yes"}, "geometry": {"type": "Polygon", "coordinates": [[[11.1140549, 36.8320995], [11.1135487, 36.8320494], [11.1135427, 36.8320882], [11.1135391, 36.8321119], [11.1140452, 36.832162], [11.1140549, 36.8320995]]]}}, {"type": "Feature", "properties": {"building": "yes"}, "geometry": {"type": "Polygon", "coordinates": [[[11.0990464, 36.8365102], [11.0989405, 36.8364962], [11.0989097, 36.8366454], [11.0990156, 36.8366594], [11.0990464, 36.8365102]]]}}, {"type": "Feature", "properties": {"building": "yes"}, "geometry": {"type": "Polygon", "coordinates": [[[11.1170896, 36.8355038], [11.1171706, 36.8354375], [11.1169914, 36.8352974], [11.1167783, 36.8351308], [11.1166973, 36.8351971], [11.1170896, 36.8355038]]]}}, {"type": "Feature", "properties": {"building": "yes"}, "geometry": {"type": "Polygon", "coordinates": [[[11.1142527, 36.8346291], [11.1143346, 36.8345821], [11.1142835, 36.8345252], [11.1142017, 36.8345722], [11.1142527, 36.8346291]]]}}, {"type": "Feature", "properties": {"building": "yes"}, "geometry": {"type": "Polygon", "coordinates": [[[11.0987413, 36.8368598], [11.0986474, 36.836844], [11.0986201, 36.8369481], [11.0987141, 36.8369638], [11.0987413, 36.8368598]]]}}, {"type": "Feature", "properties": {"building": "yes"}, "geometry": {"type": "Polygon", "coordinates": [[[11.0988573, 36.8366335], [11.0988894, 36.8365038], [11.0987806, 36.8364866], [11.0987485, 36.8366162], [11.0988573, 36.8366335]]]}}, {"type": "Feature", "properties": {"amenity": "police", "building": "yes", "name": "\u0645\u0631\u0643\u0632 \u0627\u0644\u062d\u0631\u0633 \u0627\u0644\u0628\u062d\u0631\u064a \u0628\u0642\u0644\u064a\u0628\u064a\u0629", "name:ar": "\u0645\u0631\u0643\u0632 \u0627\u0644\u062d\u0631\u0633 \u0627\u0644\u0628\u062d\u0631\u064a \u0628\u0642\u0644\u064a\u0628\u064a\u0629", "name:en": "Kelibia Coast Guard Office", "name:fr": "Garde Nationale Maritime de K\u00e9libia"}, "geometry": {"type": "Polygon", "coordinates": [[[11.1142977, 36.834404], [11.1144334, 36.8343096], [11.11439, 36.8342903], [11.1144345, 36.8342594], [11.1142988, 36.8341344], [11.1142446, 36.8341721], [11.1142954, 36.8342188], [11.1142588, 36.8342443], [11.114225, 36.8342132], [11.1141484, 36.8342664], [11.1142977, 36.834404]]]}}, {"type": "Feature", "properties": {"amenity": "library", "building": "yes", "name": "Biblioth\u00e8que Cit\u00e9 Riadh"}, "geometry": {"type": "Polygon", "coordinates": [[[11.0986958, 36.8387974], [11.0989407, 36.8384758], [11.0987753, 36.8383952], [11.098704, 36.8384889], [11.0986471, 36.8384611], [11.0985483, 36.8385908], [11.0985998, 36.8386159], [11.098525, 36.8387141], [11.0986958, 36.8387974]]]}}, {"type": "Feature", "properties": {"building": "yes"}, "geometry": {"type": "Polygon", "coordinates": [[[11.1091924, 36.832719], [11.1091682, 36.8325576], [11.1090917, 36.832565], [11.1091159, 36.8327264], [11.1091924, 36.832719]]]}}, {"type": "Feature", "properties": {"building": "yes"}, "geometry": {"type": "Polygon", "coordinates": [[[11.1117244, 36.8321667], [11.1120795, 36.8321377], [11.1120741, 36.8320949], [11.111719, 36.8321239], [11.1117244, 36.8321667]]]}}, {"type": "Feature", "properties": {"building": "yes"}, "geometry": {"type": "Polygon", "coordinates": [[[11.0835147, 36.8293875], [11.0836576, 36.8292392], [11.0835705, 36.8291854], [11.0834921, 36.8292667], [11.083544, 36.8292988], [11.0834795, 36.8293657], [11.0835147, 36.8293875]]]}}, {"type": "Feature", "properties": {"building": "yes"}, "geometry": {"type": "Polygon", "coordinates": [[[11.0634751, 36.8522299], [11.0636244, 36.852141], [11.0635398, 36.8520501], [11.0633905, 36.8521391], [11.0634751, 36.8522299]]]}}, {"type": "Feature", "properties": {"building": "yes"}, "geometry": {"type": "Polygon", "coordinates": [[[11.0816634, 36.8472285], [11.0818184, 36.8469984], [11.081451, 36.8469272], [11.0813452, 36.8469067], [11.0812313, 36.8470124], [11.0815012, 36.8472046], [11.0815614, 36.8471598], [11.0816634, 36.8472285]]]}}, {"type": "Feature", "properties": {"building": "yes"}, "geometry": {"type": "Polygon", "coordinates": [[[11.0812982, 36.8468742], [11.0811842, 36.8469799], [11.0812313, 36.8470124], [11.0813452, 36.8469067], [11.0813195, 36.8468889], [11.0812982, 36.8468742]]]}}, {"type": "Feature", "properties": {"building": "yes"}, "geometry": {"type": "Polygon", "coordinates": [[[11.081334, 36.8468185], [11.0813195, 36.8468889], [11.0813452, 36.8469067], [11.081451, 36.8469272], [11.0814782, 36.8468464], [11.081334, 36.8468185]]]}}, {"type": "Feature", "properties": {"building": "yes"}, "geometry": {"type": "Polygon", "coordinates": [[[11.0807568, 36.8470267], [11.0814166, 36.8474818], [11.0816258, 36.8472929], [11.0815012, 36.8472046], [11.0812313, 36.8470124], [11.0811842, 36.8469799], [11.0809231, 36.8467949], [11.0807568, 36.8470267]]]}}, {"type": "Feature", "properties": {"building": "yes"}, "geometry": {"type": "Polygon", "coordinates": [[[11.0817348, 36.8472939], [11.082023, 36.8474223], [11.0822419, 36.8471078], [11.0819463, 36.8469761], [11.0818435, 36.8471238], [11.08191, 36.8471534], [11.0818832, 36.847192], [11.081824, 36.8471656], [11.0817348, 36.8472939]]]}}, {"type": "Feature", "properties": {"building": "yes", "building:use": "hospital"}, "geometry": {"type": "Polygon", "coordinates": [[[11.0912204, 36.8545751], [11.0913446, 36.8542837], [11.0913119, 36.8542743], [11.091192, 36.854536], [11.0911258, 36.8545127], [11.0911146, 36.8545412], [11.0912204, 36.8545751]]]}}, {"type": "Feature", "properties": {"building": "yes", "building:use": "hospital"}, "geometry": {"type": "Polygon", "coordinates": [[[11.0917766, 36.8539585], [11.0915181, 36.8538825], [11.0915444, 36.8538252], [11.0916125, 36.8536769], [11.0916684, 36.8536933], [11.0916269, 36.8537889], [11.0916581, 36.8537975], [11.0916437, 36.8538293], [11.0917572, 36.8538623], [11.0918578, 36.853891], [11.0918925, 36.8539025], [11.0918392, 36.8540186], [11.0917597, 36.8539952], [11.0917766, 36.8539585]]]}}, {"type": "Feature", "properties": {"building": "yes", "building:use": "hospital"}, "geometry": {"type": "Polygon", "coordinates": [[[11.0913289, 36.8538951], [11.0912953, 36.853972], [11.0913756, 36.8539945], [11.0914092, 36.8539175], [11.0913289, 36.8538951]]]}}, {"type": "Feature", "properties": {"building": "yes", "building:use": "hospital"}, "geometry": {"type": "Polygon", "coordinates": [[[11.0919574, 36.8543747], [11.0918678, 36.8543488], [11.0918546, 36.854378], [11.0913607, 36.8542355], [11.0914131, 36.8541192], [11.0917467, 36.8542155], [11.0918392, 36.8540186], [11.0917597, 36.8539952], [11.091704, 36.8541262], [11.0914405, 36.8540502], [11.0914909, 36.8539419], [11.0914316, 36.8539244], [11.0914092, 36.8539175], [11.0913756, 36.8539945], [11.0912564, 36.8542582], [11.0913119, 36.8542743], [11.0913446, 36.8542837], [11.0919232, 36.8544507], [11.0919574, 36.8543747]]]}}, {"type": "Feature", "properties": {"building": "yes", "building:use": "hospital"}, "geometry": {"type": "Polygon", "coordinates": [[[11.0914851, 36.8538078], [11.0914316, 36.8539244], [11.0914909, 36.8539419], [11.0915181, 36.8538825], [11.0915444, 36.8538252], [11.0914851, 36.8538078]]]}}, {"type": "Feature", "properties": {"building": "yes", "building:use": "hospital"}, "geometry": {"type": "Polygon", "coordinates": [[[11.0911383, 36.8544846], [11.0907889, 36.8543849], [11.0907574, 36.8544556], [11.0907809, 36.8544623], [11.0907721, 36.8544819], [11.0909888, 36.8545437], [11.090995, 36.8545299], [11.0911042, 36.8545611], [11.0911146, 36.8545412], [11.0911258, 36.8545127], [11.0911383, 36.8544846]]]}}, {"type": "Feature", "properties": {"building": "yes", "building:use": "hospital"}, "geometry": {"type": "Polygon", "coordinates": [[[11.0919167, 36.8537588], [11.0918451, 36.8537384], [11.0918024, 36.8538368], [11.0917725, 36.8538285], [11.0917572, 36.8538623], [11.0918578, 36.853891], [11.0919167, 36.8537588]]]}}, {"type": "Feature", "properties": {"building": "yes", "building:use": "hospital"}, "geometry": {"type": "Polygon", "coordinates": [[[11.0918749, 36.8536716], [11.0917004, 36.8536217], [11.0916684, 36.8536933], [11.0916269, 36.8537889], [11.0916581, 36.8537975], [11.0917725, 36.8538285], [11.0918024, 36.8538368], [11.0918451, 36.8537384], [11.0918749, 36.8536716]]]}}, {"type": "Feature", "properties": {"building": "yes", "building:use": "hospital"}, "geometry": {"type": "Polygon", "coordinates": [[[11.0910117, 36.8540818], [11.0908569, 36.8541135], [11.0908338, 36.8541672], [11.0909508, 36.8541994], [11.0910117, 36.8540818]]]}}, {"type": "Feature", "properties": {"building": "yes", "building:use": "hospital"}, "geometry": {"type": "Polygon", "coordinates": [[[11.0919403, 36.8540758], [11.0921227, 36.8541347], [11.0921416, 36.8540972], [11.0919592, 36.8540383], [11.0919403, 36.8540758]]]}}, {"type": "Feature", "properties": {"building": "yes", "building:use": "school"}, "geometry": {"type": "Polygon", "coordinates": [[[11.0925616, 36.8508314], [11.0919385, 36.850646], [11.0918971, 36.8507351], [11.0925201, 36.8509206], [11.0925616, 36.8508314]]]}}, {"type": "Feature", "properties": {"building": "yes", "building:use": "school"}, "geometry": {"type": "Polygon", "coordinates": [[[11.0926016, 36.8507802], [11.0927517, 36.8504232], [11.092648, 36.8503953], [11.0924978, 36.8507523], [11.0926016, 36.8507802]]]}}, {"type": "Feature", "properties": {"building": "yes", "building:use": "school"}, "geometry": {"type": "Polygon", "coordinates": [[[11.0923838, 36.8503794], [11.092552, 36.8504262], [11.0925793, 36.8503634], [11.0924111, 36.8503165], [11.0923838, 36.8503794]]]}}, {"type": "Feature", "properties": {"building": "yes"}, "geometry": {"type": "Polygon", "coordinates": [[[11.0918696, 36.8449666], [11.0919584, 36.8450358], [11.0920066, 36.8449963], [11.0919178, 36.844927], [11.0918696, 36.8449666]]]}}, {"type": "Feature", "properties": {"building": "yes"}, "geometry": {"type": "Polygon", "coordinates": [[[11.0883839, 36.8461495], [11.0883545, 36.8461899], [11.088455, 36.8462369], [11.0884845, 36.8461965], [11.0883839, 36.8461495]]]}}, {"type": "Feature", "properties": {"building": "yes"}, "geometry": {"type": "Polygon", "coordinates": [[[11.1151291, 36.8402406], [11.1152431, 36.8401516], [11.1151425, 36.840069], [11.1150284, 36.840158], [11.1151291, 36.8402406]]]}}, {"type": "Feature", "properties": {"building": "yes"}, "geometry": {"type": "Polygon", "coordinates": [[[11.1161804, 36.8401879], [11.1162494, 36.8401194], [11.116075, 36.8400068], [11.1160135, 36.8400678], [11.1160299, 36.8400784], [11.1160085, 36.8400996], [11.1160353, 36.840117], [11.1160139, 36.8401382], [11.1160864, 36.840185], [11.116106, 36.8401656], [11.1161409, 36.8401881], [11.1161566, 36.8401725], [11.1161804, 36.8401879]]]}}, {"type": "Feature", "properties": {"building": "yes"}, "geometry": {"type": "Polygon", "coordinates": [[[11.1166419, 36.8406281], [11.1167035, 36.8405422], [11.1165989, 36.8404821], [11.1165802, 36.8405079], [11.1165936, 36.8405165], [11.116548, 36.8405766], [11.1166419, 36.8406281]]]}}, {"type": "Feature", "properties": {"building": "yes"}, "geometry": {"type": "Polygon", "coordinates": [[[11.1145628, 36.8348924], [11.1143542, 36.8349438], [11.1143878, 36.8350311], [11.1145964, 36.8349797], [11.1145628, 36.8348924]]]}}, {"type": "Feature", "properties": {"building": "yes"}, "geometry": {"type": "Polygon", "coordinates": [[[11.1145336, 36.8358582], [11.1141501, 36.8358625], [11.1141528, 36.8358475], [11.1141233, 36.8358475], [11.1141179, 36.8359119], [11.1145256, 36.835914], [11.1145336, 36.8358582]]]}}, {"type": "Feature", "properties": {"building": "yes"}, "geometry": {"type": "Polygon", "coordinates": [[[11.1147013, 36.8348344], [11.11487, 36.8347864], [11.1148318, 36.8347004], [11.1147366, 36.8347275], [11.1147436, 36.8347434], [11.1146702, 36.8347643], [11.1147013, 36.8348344]]]}}, {"type": "Feature", "properties": {"building": "yes"}, "geometry": {"type": "Polygon", "coordinates": [[[11.1164452, 36.8358001], [11.1163387, 36.8357077], [11.11628, 36.835751], [11.1163343, 36.8357981], [11.1163023, 36.8358217], [11.1163546, 36.835867], [11.1164452, 36.8358001]]]}}, {"type": "Feature", "properties": {"building": "yes"}, "geometry": {"type": "Polygon", "coordinates": [[[11.1142248, 36.8350873], [11.1140102, 36.8351327], [11.1140414, 36.8352274], [11.1141127, 36.8352123], [11.1141089, 36.8352009], [11.1142523, 36.8351706], [11.1142248, 36.8350873]]]}}, {"type": "Feature", "properties": {"building": "yes"}, "geometry": {"type": "Polygon", "coordinates": [[[11.1139686, 36.8354963], [11.1141432, 36.8354595], [11.1141181, 36.8353834], [11.1139436, 36.8354203], [11.1139686, 36.8354963]]]}}, {"type": "Feature", "properties": {"building": "yes"}, "geometry": {"type": "Polygon", "coordinates": [[[11.113733, 36.835397], [11.1139052, 36.8353601], [11.1138788, 36.8352812], [11.1137066, 36.8353181], [11.113733, 36.835397]]]}}, {"type": "Feature", "properties": {"building": "yes"}, "geometry": {"type": "Polygon", "coordinates": [[[11.1157198, 36.8345313], [11.1158557, 36.83467], [11.1159063, 36.8346382], [11.1157704, 36.8344995], [11.1157198, 36.8345313]]]}}, {"type": "Feature", "properties": {"building": "yes"}, "geometry": {"type": "Polygon", "coordinates": [[[11.1160446, 36.8348501], [11.1158011, 36.8346006], [11.1157469, 36.8346345], [11.1156457, 36.8346977], [11.1157089, 36.8347624], [11.1157852, 36.8347147], [11.1159156, 36.8348484], [11.1155869, 36.8350538], [11.1154201, 36.8348828], [11.115355, 36.8349234], [11.1155718, 36.8351456], [11.1160446, 36.8348501]]]}}, {"type": "Feature", "properties": {"building": "yes"}, "geometry": {"type": "Polygon", "coordinates": [[[11.1103713, 36.836184], [11.1104823, 36.8361667], [11.1104663, 36.836101], [11.1103553, 36.8361183], [11.1103713, 36.836184]]]}}, {"type": "Feature", "properties": {"building": "yes"}, "geometry": {"type": "Polygon", "coordinates": [[[11.1102677, 36.8357652], [11.1103694, 36.8357516], [11.1103569, 36.8356914], [11.1102552, 36.8357049], [11.1102677, 36.8357652]]]}}, {"type": "Feature", "properties": {"building": "yes"}, "geometry": {"type": "Polygon", "coordinates": [[[11.110323, 36.8359715], [11.1104201, 36.835954], [11.1104031, 36.8358934], [11.1103059, 36.8359109], [11.110323, 36.8359715]]]}}, {"type": "Feature", "properties": {"building": "yes"}, "geometry": {"type": "Polygon", "coordinates": [[[11.110349, 36.8360842], [11.110456, 36.8360653], [11.110438, 36.8359998], [11.1103309, 36.8360186], [11.110349, 36.8360842]]]}}, {"type": "Feature", "properties": {"building": "yes"}, "geometry": {"type": "Polygon", "coordinates": [[[11.1102935, 36.8358684], [11.1103942, 36.835855], [11.1103815, 36.8357939], [11.1102808, 36.8358073], [11.1102935, 36.8358684]]]}}, {"type": "Feature", "properties": {"building": "yes"}, "geometry": {"type": "Polygon", "coordinates": [[[11.1102352, 36.8356594], [11.1103385, 36.8356456], [11.1103262, 36.8355866], [11.110223, 36.8356004], [11.1102352, 36.8356594]]]}}, {"type": "Feature", "properties": {"amenity": "restaurant", "building": "yes", "name": "El Mansourah"}, "geometry": {"type": "Polygon", "coordinates": [[[11.1254899, 36.8492163], [11.1257937, 36.8492917], [11.1258226, 36.8492093], [11.125849, 36.8491993], [11.1258665, 36.8491711], [11.1258703, 36.849136], [11.1259406, 36.8491279], [11.1259205, 36.8490757], [11.1258804, 36.8490285], [11.1258251, 36.8490054], [11.1257548, 36.8489953], [11.1257548, 36.8490415], [11.1256682, 36.8490395], [11.1256443, 36.8491159], [11.1255552, 36.8490898], [11.1254899, 36.8492163]]]}}, {"type": "Feature", "properties": {"building": "yes"}, "geometry": {"type": "Polygon", "coordinates": [[[11.1267301, 36.8555726], [11.1267354, 36.8555542], [11.1267315, 36.8555356], [11.126719, 36.8555196], [11.1266998, 36.8555087], [11.1266768, 36.8555045], [11.1266536, 36.8555076], [11.1266336, 36.8555176], [11.1266199, 36.855533], [11.1266147, 36.8555514], [11.1266186, 36.8555699], [11.1266311, 36.8555859], [11.1266503, 36.8555969], [11.1266733, 36.8556011], [11.1266965, 36.8555979], [11.1267165, 36.8555879], [11.1267301, 36.8555726]]]}}, {"type": "Feature", "properties": {"building": "yes"}, "geometry": {"type": "Polygon", "coordinates": [[[11.126076, 36.8492009], [11.1261628, 36.849121], [11.1261758, 36.8491189], [11.126198, 36.8491068], [11.1262127, 36.8490889], [11.1262178, 36.8490678], [11.1262124, 36.8490468], [11.1261973, 36.849029], [11.1261749, 36.8490172], [11.1261486, 36.8490131], [11.1261223, 36.8490174], [11.1261001, 36.8490295], [11.1260853, 36.8490474], [11.1260827, 36.849058], [11.1259804, 36.8491505], [11.1259582, 36.8491626], [11.1259434, 36.8491805], [11.1259384, 36.8492016], [11.1259444, 36.8492231], [11.1259152, 36.8492534], [11.1259557, 36.8492783], [11.1259809, 36.8492521], [11.1260076, 36.8492563], [11.1260339, 36.849252], [11.1260561, 36.8492399], [11.1260709, 36.849222], [11.126076, 36.8492009]]]}}, {"type": "Feature", "properties": {"building": "yes"}, "geometry": {"type": "Polygon", "coordinates": [[[11.1279595, 36.8562192], [11.1279895, 36.8562112], [11.1280134, 36.8561945], [11.1280275, 36.8561719], [11.1280298, 36.8561466], [11.1280197, 36.8561226], [11.1279989, 36.8561034], [11.1279706, 36.8560921], [11.1279958, 36.8560108], [11.1276463, 36.8559415], [11.1272872, 36.8556512], [11.1271739, 36.8557433], [11.1272062, 36.8557687], [11.1268647, 36.8560464], [11.126911, 36.8560829], [11.1265085, 36.8564101], [11.1263647, 36.8562969], [11.126387, 36.8562643], [11.1263786, 36.856225], [11.1263502, 36.8561966], [11.1263111, 36.8561725], [11.126258, 36.8561642], [11.1262242, 36.8561933], [11.1260142, 36.8560279], [11.126065, 36.8559866], [11.1258742, 36.8558365], [11.1258702, 36.8555506], [11.1266033, 36.8549508], [11.1265738, 36.8549276], [11.1265433, 36.8549524], [11.1264193, 36.8548548], [11.1264424, 36.8548359], [11.1264094, 36.85481], [11.1255878, 36.855478], [11.1256463, 36.8555241], [11.1256062, 36.8555567], [11.1256457, 36.8555879], [11.1256119, 36.8556154], [11.1256401, 36.8556376], [11.1256036, 36.8556672], [11.1256426, 36.8556979], [11.1256113, 36.8557234], [11.12564, 36.855746], [11.1256009, 36.8557778], [11.1256904, 36.8558484], [11.125639, 36.8558902], [11.1256639, 36.8559098], [11.1256209, 36.8559447], [11.125583, 36.8559149], [11.1254903, 36.8559903], [11.1255257, 36.8560181], [11.1254374, 36.8560899], [11.1255139, 36.8561502], [11.1254591, 36.8561948], [11.1255552, 36.8562704], [11.1255768, 36.8562528], [11.1256844, 36.8563376], [11.1256597, 36.8563576], [11.1256664, 36.856543], [11.125835, 36.8565401], [11.1258327, 36.8566235], [11.1258326, 36.8566268], [11.126025, 36.8567783], [11.1260407, 36.8567775], [11.126147, 36.8567717], [11.1261564, 36.8569283], [11.1263591, 36.8570879], [11.1264126, 36.8570444], [11.126394, 36.8570298], [11.1264294, 36.8570011], [11.1264974, 36.8570546], [11.1265653, 36.8569995], [11.1264994, 36.8569476], [11.1265621, 36.8568966], [11.1266597, 36.8569734], [11.1267681, 36.8568852], [11.1268087, 36.8569171], [11.1268857, 36.8568545], [11.1267367, 36.8567371], [11.126866, 36.856632], [11.1270555, 36.8567828], [11.1270699, 36.8567364], [11.1271889, 36.85676], [11.1272221, 36.8566528], [11.1272874, 36.8566658], [11.1273363, 36.8565079], [11.1274005, 36.8565207], [11.1274416, 36.8563881], [11.1278499, 36.8564691], [11.1279279, 36.8562174], [11.1279595, 36.8562192]]]}}, {"type": "Feature", "properties": {"building": "yes", "name": "ROYAL SON BOU", "tourism": "hotel"}, "geometry": {"type": "Polygon", "coordinates": [[[11.124798, 36.8504455], [11.1238288, 36.8502486], [11.1233166, 36.8500276], [11.1232161, 36.8501903], [11.1229776, 36.8500979], [11.1229098, 36.850341], [11.122709, 36.8505379], [11.1225432, 36.8506464], [11.1222319, 36.8507629], [11.1221139, 36.8508353], [11.1220335, 36.8509618], [11.1220436, 36.8510482], [11.1220813, 36.8511808], [11.1226462, 36.8522517], [11.1227893, 36.8523964], [11.1249411, 36.8522618], [11.1248256, 36.8520327], [11.1247553, 36.8517414], [11.1247026, 36.8510764], [11.1248206, 36.8506645], [11.1248708, 36.850554], [11.1248557, 36.8504837], [11.124798, 36.8504455]]]}}, {"type": "Feature", "properties": {"building": "yes"}, "geometry": {"type": "Polygon", "coordinates": [[[11.1189387, 36.8370308], [11.1190855, 36.8369703], [11.1190299, 36.8368841], [11.1188832, 36.8369446], [11.1189387, 36.8370308]]]}}, {"type": "Feature", "properties": {"building": "yes"}, "geometry": {"type": "Polygon", "coordinates": [[[11.1189473, 36.8372718], [11.1191243, 36.8372096], [11.119076, 36.8371216], [11.118899, 36.8371838], [11.1189473, 36.8372718]]]}}, {"type": "Feature", "properties": {"building": "yes"}, "geometry": {"type": "Polygon", "coordinates": [[[11.1150304, 36.8338508], [11.1151455, 36.8339526], [11.115245, 36.8338805], [11.1151299, 36.8337787], [11.1150304, 36.8338508]]]}}, {"type": "Feature", "properties": {"building": "yes"}, "geometry": {"type": "Polygon", "coordinates": [[[11.1245771, 36.8488575], [11.1246163, 36.848775], [11.1242955, 36.8486775], [11.1242564, 36.84876], [11.1245771, 36.8488575]]]}}, {"type": "Feature", "properties": {"building": "yes"}, "geometry": {"type": "Polygon", "coordinates": [[[11.1098285, 36.8454576], [11.109923, 36.8453505], [11.1098798, 36.8453261], [11.1097852, 36.8454331], [11.1098285, 36.8454576]]]}}, {"type": "Feature", "properties": {"building": "yes"}, "geometry": {"type": "Polygon", "coordinates": [[[11.1246152, 36.8500866], [11.1245787, 36.8500793], [11.1245328, 36.8502266], [11.1247149, 36.850263], [11.1247299, 36.8502148], [11.1245843, 36.8501858], [11.1246152, 36.8500866]]]}}, {"type": "Feature", "properties": {"building": "yes"}, "geometry": {"type": "Polygon", "coordinates": [[[11.1239676, 36.8484471], [11.1240933, 36.8483703], [11.123999, 36.8482714], [11.1238733, 36.8483482], [11.1239676, 36.8484471]]]}}, {"type": "Feature", "properties": {"building": "yes"}, "geometry": {"type": "Polygon", "coordinates": [[[11.1236057, 36.848633], [11.123725, 36.8485579], [11.1236406, 36.848472], [11.1235213, 36.8485472], [11.1236057, 36.848633]]]}}, {"type": "Feature", "properties": {"building": "yes"}, "geometry": {"type": "Polygon", "coordinates": [[[11.1247891, 36.8502649], [11.1249744, 36.8503008], [11.125031, 36.8501134], [11.1248457, 36.8500776], [11.1247891, 36.8502649]]]}}, {"type": "Feature", "properties": {"building": "yes"}, "geometry": {"type": "Polygon", "coordinates": [[[11.1238121, 36.8489629], [11.1240115, 36.8488198], [11.1238871, 36.8487088], [11.123765, 36.8487964], [11.1238611, 36.8488822], [11.1237838, 36.8489377], [11.1238121, 36.8489629]]]}}, {"type": "Feature", "properties": {"building": "yes"}, "geometry": {"type": "Polygon", "coordinates": [[[11.1235467, 36.8451707], [11.123784, 36.8451867], [11.1238002, 36.8450321], [11.123563, 36.8450161], [11.1235467, 36.8451707]]]}}, {"type": "Feature", "properties": {"building": "yes"}, "geometry": {"type": "Polygon", "coordinates": [[[11.1042429, 36.8399574], [11.1044453, 36.8401731], [11.1045031, 36.8401384], [11.1045179, 36.8401542], [11.1046177, 36.8400942], [11.1045988, 36.840074], [11.1046477, 36.8400446], [11.104706, 36.8401067], [11.1048536, 36.840018], [11.1047956, 36.8399561], [11.1047019, 36.8398562], [11.1047919, 36.8398022], [11.1046875, 36.839691], [11.1046387, 36.8397203], [11.1046074, 36.8396869], [11.1043872, 36.8398191], [11.1044181, 36.8398521], [11.1042429, 36.8399574]]]}}, {"type": "Feature", "properties": {"building": "yes"}, "geometry": {"type": "Polygon", "coordinates": [[[11.1049292, 36.8398852], [11.1052196, 36.8397225], [11.1051218, 36.8396106], [11.1048314, 36.8397733], [11.1049292, 36.8398852]]]}}, {"type": "Feature", "properties": {"building": "yes"}, "geometry": {"type": "Polygon", "coordinates": [[[11.1064008, 36.8389317], [11.1065263, 36.8390516], [11.1066399, 36.8389755], [11.1065589, 36.838898], [11.1065239, 36.8389215], [11.1064795, 36.838879], [11.1064008, 36.8389317]]]}}, {"type": "Feature", "properties": {"building": "yes"}, "geometry": {"type": "Polygon", "coordinates": [[[11.1004124, 36.8387081], [11.1004525, 36.838663], [11.1003882, 36.8386264], [11.1003481, 36.8386715], [11.1004124, 36.8387081]]]}}, {"type": "Feature", "properties": {"building": "yes"}, "geometry": {"type": "Polygon", "coordinates": [[[11.1005518, 36.8385576], [11.1006305, 36.8384779], [11.1005383, 36.8384196], [11.1004596, 36.8384993], [11.1005518, 36.8385576]]]}}, {"type": "Feature", "properties": {"building": "yes"}, "geometry": {"type": "Polygon", "coordinates": [[[11.1012198, 36.8384129], [11.1013077, 36.8383274], [11.1012335, 36.8382786], [11.1011457, 36.8383641], [11.1012198, 36.8384129]]]}}, {"type": "Feature", "properties": {"building": "yes"}, "geometry": {"type": "Polygon", "coordinates": [[[11.1011046, 36.838643], [11.1012465, 36.8385079], [11.1011472, 36.8384411], [11.1010053, 36.8385763], [11.1011046, 36.838643]]]}}, {"type": "Feature", "properties": {"building": "yes"}, "geometry": {"type": "Polygon", "coordinates": [[[11.1011716, 36.8379815], [11.101235, 36.8379199], [11.1011899, 36.8378902], [11.1011265, 36.8379518], [11.1011716, 36.8379815]]]}}, {"type": "Feature", "properties": {"building": "yes"}, "geometry": {"type": "Polygon", "coordinates": [[[11.1250055, 36.8566396], [11.1248922, 36.8565558], [11.1247087, 36.8567146], [11.1248599, 36.8568264], [11.1248849, 36.8568047], [11.124847, 36.8567768], [11.1250055, 36.8566396]]]}}, {"type": "Feature", "properties": {"building": "yes"}, "geometry": {"type": "Polygon", "coordinates": [[[11.0260302, 36.86499], [11.026166, 36.8650534], [11.0262743, 36.8649048], [11.0261385, 36.8648414], [11.0260302, 36.86499]]]}}, {"type": "Feature", "properties": {"building": "yes"}, "geometry": {"type": "Polygon", "coordinates": [[[11.0399825, 36.8611857], [11.0401006, 36.8612405], [11.040209, 36.861091], [11.0400908, 36.8610362], [11.0399825, 36.8611857]]]}}, {"type": "Feature", "properties": {"building": "yes"}, "geometry": {"type": "Polygon", "coordinates": [[[11.0489948, 36.8646382], [11.0491194, 36.864698], [11.0491734, 36.8646261], [11.0490488, 36.8645663], [11.0489948, 36.8646382]]]}}, {"type": "Feature", "properties": {"building": "yes"}, "geometry": {"type": "Polygon", "coordinates": [[[11.049923, 36.8641799], [11.0499901, 36.8640896], [11.0498904, 36.8640422], [11.0498234, 36.8641326], [11.049923, 36.8641799]]]}}, {"type": "Feature", "properties": {"building": "yes"}, "geometry": {"type": "Polygon", "coordinates": [[[11.0522271, 36.8446212], [11.0526258, 36.8448264], [11.0526951, 36.8447402], [11.0522964, 36.844535], [11.0522271, 36.8446212]]]}}, {"type": "Feature", "properties": {"building": "yes"}, "geometry": {"type": "Polygon", "coordinates": [[[11.0487557, 36.8276579], [11.0484923, 36.8280495], [11.0487403, 36.828155], [11.0490071, 36.8277799], [11.0487557, 36.8276579]]]}}, {"type": "Feature", "properties": {"building": "yes"}, "geometry": {"type": "Polygon", "coordinates": [[[11.0496141, 36.8280565], [11.0490071, 36.8277799], [11.0487403, 36.828155], [11.0489005, 36.828228], [11.0490275, 36.8280494], [11.0494743, 36.828253], [11.0496141, 36.8280565]]]}}, {"type": "Feature", "properties": {"building": "yes"}, "geometry": {"type": "Polygon", "coordinates": [[[11.047596, 36.8275425], [11.0479298, 36.8270502], [11.0477368, 36.8269663], [11.047403, 36.8274587], [11.047596, 36.8275425]]]}}, {"type": "Feature", "properties": {"building": "yes"}, "geometry": {"type": "Polygon", "coordinates": [[[11.0546512, 36.8520973], [11.0548583, 36.8521874], [11.0549257, 36.8520882], [11.0547186, 36.851998], [11.0546512, 36.8520973]]]}}, {"type": "Feature", "properties": {"building": "yes"}, "geometry": {"type": "Polygon", "coordinates": [[[11.0506732, 36.8439583], [11.050429, 36.8438246], [11.050352, 36.8439145], [11.0505963, 36.8440483], [11.0506732, 36.8439583]]]}}, {"type": "Feature", "properties": {"building": "yes"}, "geometry": {"type": "Polygon", "coordinates": [[[11.0602195, 36.8445431], [11.0603777, 36.8443415], [11.0602839, 36.8442943], [11.0601256, 36.844496], [11.0602195, 36.8445431]]]}}, {"type": "Feature", "properties": {"building": "yes"}, "geometry": {"type": "Polygon", "coordinates": [[[11.0477507, 36.8455719], [11.0480355, 36.8457234], [11.0481162, 36.8456262], [11.0478315, 36.8454748], [11.0477507, 36.8455719]]]}}, {"type": "Feature", "properties": {"building": "yes"}, "geometry": {"type": "Polygon", "coordinates": [[[11.0595161, 36.8448117], [11.0596002, 36.8447072], [11.0591597, 36.8444804], [11.0590756, 36.844585], [11.0595161, 36.8448117]]]}}, {"type": "Feature", "properties": {"building": "yes"}, "geometry": {"type": "Polygon", "coordinates": [[[11.053507, 36.844153], [11.0536501, 36.8442142], [11.0538725, 36.8438807], [11.0537293, 36.8438195], [11.053507, 36.844153]]]}}, {"type": "Feature", "properties": {"building": "yes"}, "geometry": {"type": "Polygon", "coordinates": [[[11.0598972, 36.8449238], [11.0600938, 36.8446838], [11.0599887, 36.8446287], [11.0597921, 36.8448686], [11.0598972, 36.8449238]]]}}, {"type": "Feature", "properties": {"building": "yes"}, "geometry": {"type": "Polygon", "coordinates": [[[11.0506014, 36.8437796], [11.050763, 36.8435671], [11.0506585, 36.8435162], [11.0504969, 36.8437287], [11.0506014, 36.8437796]]]}}, {"type": "Feature", "properties": {"building": "yes"}, "geometry": {"type": "Polygon", "coordinates": [[[11.0599043, 36.8450611], [11.0602401, 36.8452566], [11.0603392, 36.8451476], [11.0600033, 36.8449521], [11.0599043, 36.8450611]]]}}, {"type": "Feature", "properties": {"building": "yes"}, "geometry": {"type": "Polygon", "coordinates": [[[11.0482101, 36.8279664], [11.0486414, 36.8274502], [11.0481192, 36.8271707], [11.0477801, 36.8275767], [11.0480521, 36.8277223], [11.04796, 36.8278325], [11.0482101, 36.8279664]]]}}, {"type": "Feature", "properties": {"building": "yes"}, "geometry": {"type": "Polygon", "coordinates": [[[11.0342121, 36.8001134], [11.0345054, 36.7998548], [11.0342438, 36.7996646], [11.0339505, 36.7999232], [11.0342121, 36.8001134]]]}}, {"type": "Feature", "properties": {"building": "yes"}, "geometry": {"type": "Polygon", "coordinates": [[[11.035263, 36.8000469], [11.0358291, 36.7996574], [11.0356774, 36.799516], [11.0356062, 36.799565], [11.035472, 36.79944], [11.0349771, 36.7997804], [11.035263, 36.8000469]]]}}, {"type": "Feature", "properties": {"building": "yes"}, "geometry": {"type": "Polygon", "coordinates": [[[11.0346839, 36.8010487], [11.0350491, 36.801368], [11.0354148, 36.8010998], [11.0350496, 36.8007805], [11.0346839, 36.8010487]]]}}, {"type": "Feature", "properties": {"building": "yes"}, "geometry": {"type": "Polygon", "coordinates": [[[11.0344382, 36.8005248], [11.0348909, 36.8001895], [11.0347171, 36.800039], [11.0342643, 36.8003742], [11.0344382, 36.8005248]]]}}, {"type": "Feature", "properties": {"building": "yes"}, "geometry": {"type": "Polygon", "coordinates": [[[11.0425051, 36.8039247], [11.0425726, 36.8038811], [11.0424913, 36.8038005], [11.0424254, 36.803843], [11.0424488, 36.8038661], [11.0424122, 36.8038898], [11.0424508, 36.8039281], [11.0424858, 36.8039055], [11.0425051, 36.8039247]]]}}, {"type": "Feature", "properties": {"building": "yes"}, "geometry": {"type": "Polygon", "coordinates": [[[11.0356859, 36.8098366], [11.035931, 36.8100895], [11.0361378, 36.8099611], [11.0361078, 36.8099301], [11.0359519, 36.8100269], [11.0357368, 36.809805], [11.0356859, 36.8098366]]]}}, {"type": "Feature", "properties": {"building": "yes"}, "geometry": {"type": "Polygon", "coordinates": [[[11.0362204, 36.8095914], [11.0361744, 36.8095446], [11.0358677, 36.8097377], [11.0359255, 36.8097966], [11.0359607, 36.8097744], [11.035982, 36.809796], [11.0360435, 36.8097573], [11.0360104, 36.8097236], [11.0362204, 36.8095914]]]}}, {"type": "Feature", "properties": {"building": "yes"}, "geometry": {"type": "Polygon", "coordinates": [[[11.0349659, 36.8096947], [11.0347663, 36.8094844], [11.0346711, 36.8095423], [11.0348708, 36.8097526], [11.0349659, 36.8096947]]]}}, {"type": "Feature", "properties": {"building": "yes"}, "geometry": {"type": "Polygon", "coordinates": [[[11.0322963, 36.8069924], [11.0320059, 36.8066842], [11.0317795, 36.806821], [11.0320699, 36.8071292], [11.0322963, 36.8069924]]]}}, {"type": "Feature", "properties": {"building": "yes"}, "geometry": {"type": "Polygon", "coordinates": [[[11.0329772, 36.8077659], [11.0333027, 36.8075023], [11.0329587, 36.8072301], [11.0326332, 36.8074937], [11.0329772, 36.8077659]]]}}, {"type": "Feature", "properties": {"building": "yes"}, "geometry": {"type": "Polygon", "coordinates": [[[11.03504, 36.8094836], [11.0351657, 36.8094044], [11.0349651, 36.8092003], [11.0347906, 36.8093102], [11.0349619, 36.8094845], [11.0350107, 36.8094538], [11.03504, 36.8094836]]]}}, {"type": "Feature", "properties": {"amenity": "school", "building": "yes", "name": "\u00c9cole de port"}, "geometry": {"type": "Polygon", "coordinates": [[[11.1085091, 36.8381885], [11.108788, 36.8385041], [11.1095685, 36.8381477], [11.1092842, 36.8377957], [11.1085091, 36.8381885]]]}}, {"type": "Feature", "properties": {"building": "yes", "name": "la Florida", "tourism": "motel"}, "geometry": {"type": "Polygon", "coordinates": [[[11.1075837, 36.8380747], [11.1077527, 36.8380447], [11.1078171, 36.8379588], [11.1079039, 36.8378166], [11.1077795, 36.8377313], [11.1077929, 36.8373749], [11.1073772, 36.837405], [11.1075837, 36.8380747]]]}}, {"type": "Feature", "properties": {"amenity": "community_centre", "building": "yes", "name": "\u0642\u0627\u0639\u0629 \u0623\u0645\u064a\u0631\u0629 \u0644\u0644\u0623\u0641\u0631\u0627\u062d", "name:ar": "\u0642\u0627\u0639\u0629 \u0623\u0645\u064a\u0631\u0629 \u0644\u0644\u0623\u0641\u0631\u0627\u062d", "name:fr": "S\u064ealle des f\u00eates Amira"}, "geometry": {"type": "Polygon", "coordinates": [[[11.0907298, 36.8583477], [11.0908586, 36.8580386], [11.0906735, 36.8579721], [11.0904589, 36.8582017], [11.0907298, 36.8583477]]]}}, {"type": "Feature", "properties": {"addr:city": "\u0642\u0644\u064a\u0628\u064a\u0629", "addr:postcode": "8090", "amenity": "place_of_worship", "building": "yes", "name": "\u062c\u0627\u0645\u0639 \u0627\u0644\u0625\u062e\u0644\u0627\u0635", "name:ar": "\u062c\u0627\u0645\u0639 \u0627\u0644\u0625\u062e\u0644\u0627\u0635", "name:en": "Mosque", "name:fr": "Mosqu\u00e9e", "religion": "muslim"}, "geometry": {"type": "Polygon", "coordinates": [[[11.0862585, 36.8469338], [11.0863309, 36.8467921], [11.0865589, 36.8468522], [11.0866528, 36.8466762], [11.0864731, 36.8466161], [11.0863819, 36.8467471], [11.086296, 36.8467106], [11.0861968, 36.8469016], [11.0862585, 36.8469338]]]}}, {"type": "Feature", "properties": {"amenity": "townhall", "building": "civic", "name": "\u0642\u0635\u0631 \u0627\u0644\u0628\u0644\u062f\u064a\u0629", "name:ar": "\u0642\u0635\u0631 \u0627\u0644\u0628\u0644\u062f\u064a\u0629", "name:fr": "Mairie de K\u00e9libia"}, "geometry": {"type": "Polygon", "coordinates": [[[11.0890844, 36.8464028], [11.0895618, 36.8464844], [11.0896879, 36.8463041], [11.0892721, 36.8461302], [11.089189, 36.846259], [11.0891219, 36.8462246], [11.0890844, 36.8464028]]]}}, {"type": "Feature", "properties": {"addr:city": "\u0642\u0644\u064a\u0628\u064a\u0629", "addr:postcode": "8090", "addr:street": "\u0646\u0647\u062c \u0627\u0644\u062c\u0646\u0627\u0646", "building": "house", "building:levels": "2"}, "geometry": {"type": "Polygon", "coordinates": [[[11.0837034, 36.8480822], [11.0838133, 36.8481487], [11.0839045, 36.8480607], [11.0838213, 36.8480158], [11.0837892, 36.8479985], [11.0837034, 36.8480822]]]}}, {"type": "Feature", "properties": {"amenity": "kindergarten", "building": "yes", "name": "\u0646\u0627\u062f\u064a \u0627\u0644\u0623\u0637\u0641\u0627\u0644 \u0627\u0644\u0637\u0627\u0647\u0631 \u0627\u0644\u062d\u062f\u062f\u0627\u062f", "name:ar": "\u0646\u0627\u062f\u064a \u0627\u0644\u0623\u0637\u0641\u0627\u0644 \u0627\u0644\u0637\u0627\u0647\u0631 \u0627\u0644\u062d\u062f\u062f\u0627\u062f", "name:fr": "tahar haddad"}, "geometry": {"type": "Polygon", "coordinates": [[[11.0878758, 36.848248], [11.0875754, 36.8480634], [11.0875754, 36.8480087], [11.0875472, 36.8479765], [11.0876921, 36.8478273], [11.0880381, 36.8480688], [11.0878758, 36.848248]]]}}, {"type": "Feature", "properties": {"building": "yes", "name": "\u0627\u0644\u0633\u0648\u0642 \u0627\u0644\u0645\u0631\u0643\u0632\u064a\u0629", "name:ar": "\u0627\u0644\u0633\u0648\u0642 \u0627\u0644\u0645\u0631\u0643\u0632\u064a\u0629", "name:fr": "March\u00e9 central", "shop": "greengrocer"}, "geometry": {"type": "Polygon", "coordinates": [[[11.0940516, 36.8453717], [11.0942316, 36.8452076], [11.0944378, 36.8450197], [11.0947543, 36.845243], [11.0947112, 36.8452836], [11.094588, 36.8453997], [11.0944941, 36.8453396], [11.0943171, 36.8455435], [11.0941743, 36.8454511], [11.0940516, 36.8453717]]]}}, {"type": "Feature", "properties": {"addr:city": "\u0642\u0644\u064a\u0628\u064a\u0629", "addr:street": "\u0646\u0647\u062c \u0627\u0644\u0634\u0627\u062f\u0644\u064a \u062e\u0632\u0646\u062f\u0627\u0631", "building": "yes", "name": "\u0627\u0644\u0642\u0628\u0627\u0636\u0629 \u0627\u0644\u0628\u0644\u062f\u064a\u0629", "name:ar": "\u0627\u0644\u0642\u0628\u0627\u0636\u0629 \u0627\u0644\u0628\u0644\u062f\u064a\u0629", "office": "tax"}, "geometry": {"type": "Polygon", "coordinates": [[[11.0891276, 36.8462138], [11.0891973, 36.8462353], [11.0892671, 36.8461301], [11.0891598, 36.8460936], [11.0891276, 36.8462138]]]}}, {"type": "Feature", "properties": {"building": "roof", "layer": "1"}, "geometry": {"type": "Polygon", "coordinates": [[[11.0853978, 36.8461107], [11.0857162, 36.8461934], [11.0857108, 36.8461088], [11.0857945, 36.8460624], [11.0854383, 36.8459801], [11.0854962, 36.8460895], [11.0853978, 36.8461107]]]}}, {"type": "Feature", "properties": {"building": "yes"}, "geometry": {"type": "Polygon", "coordinates": [[[11.0855579, 36.8459993], [11.0857027, 36.8460315], [11.0857296, 36.845965], [11.0855794, 36.8459221], [11.0855579, 36.8459993]]]}}, {"type": "Feature", "properties": {"amenity": "community_centre", "building": "yes", "name": "\u0642\u0627\u0639\u0629 \u0627\u0641\u0631\u0627\u062d \u0627\u0644\u0628\u0631\u062c", "name:ar": "\u0642\u0627\u0639\u0629 \u0627\u0641\u0631\u0627\u062d \u0627\u0644\u0628\u0631\u062c", "name:fr": "Salle des f\u00eates El Borej"}, "geometry": {"type": "Polygon", "coordinates": [[[11.0961736, 36.8432124], [11.0964713, 36.8433691], [11.0965652, 36.8432725], [11.0962621, 36.8431137], [11.0961736, 36.8432124]]]}}, {"type": "Feature", "properties": {"amenity": "place_of_worship", "building": "yes", "denomination": "sunni", "name": "\u062c\u0627\u0645\u0639 \u0627\u0644\u0641\u062a\u062d", "name:ar": "\u062c\u0627\u0645\u0639 \u0627\u0644\u0641\u062a\u062d", "name:en": "Mosque", "name:fr": "Mosqu\u00e9e Al Fath", "religion": "muslim"}, "geometry": {"type": "Polygon", "coordinates": [[[11.076907, 36.8415698], [11.0770464, 36.8416707], [11.0771484, 36.8415719], [11.0770008, 36.8414625], [11.0769329, 36.8415401], [11.076907, 36.8415698]]]}}, {"type": "Feature", "properties": {"building": "yes", "building:use": "hospital", "name": "\u0642\u0633\u0645 \u0627\u0644\u0627\u0633\u062a\u0639\u062c\u0627\u0644\u064a", "name:ar": "\u0642\u0633\u0645 \u0627\u0644\u0627\u0633\u062a\u0639\u062c\u0627\u0644\u064a"}, "geometry": {"type": "Polygon", "coordinates": [[[11.09188, 36.8539673], [11.091939, 36.8539867], [11.091947, 36.8539566], [11.0919926, 36.8539673], [11.0920114, 36.8539137], [11.092049, 36.8539266], [11.0920677, 36.8539094], [11.092108, 36.8538879], [11.0921026, 36.8538579], [11.0920838, 36.8538278], [11.0920691, 36.853801], [11.0920476, 36.8537871], [11.0919846, 36.8537849], [11.0919578, 36.8537763], [11.09188, 36.8539673]]]}}, {"type": "Feature", "properties": {"amenity": "place_of_worship", "building": "yes", "denomination": "sunni", "name": "\u062c\u0627\u0645\u0639 \u0628\u0644\u0627\u0644", "name:ar": "\u062c\u0627\u0645\u0639 \u0628\u0644\u0627\u0644", "name:en": "Mosque", "name:fr": "Mosqu\u00e9e Bilel", "religion": "muslim"}, "geometry": {"type": "Polygon", "coordinates": [[[11.0938612, 36.856409], [11.0940436, 36.8563446], [11.0939632, 36.8561644], [11.0936113, 36.8562792], [11.0936615, 36.8563206], [11.0937271, 36.8563747], [11.0938237, 36.8563403], [11.0938612, 36.856409]]]}}, {"type": "Feature", "properties": {"building": "yes", "name": "\u0627\u0644\u0642\u0628\u0627\u0636\u0629 \u0627\u0644\u0645\u0627\u0644\u064a\u0629", "name:ar": "\u0627\u0644\u0642\u0628\u0627\u0636\u0629 \u0627\u0644\u0645\u0627\u0644\u064a\u0629", "name:fr": "Recette des finances", "office": "government"}, "geometry": {"type": "Polygon", "coordinates": [[[11.0954058, 36.8464027], [11.0955131, 36.8463018], [11.0953334, 36.846173], [11.0952261, 36.846276], [11.0954058, 36.8464027]]]}}, {"type": "Feature", "properties": {"building": "yes"}, "geometry": {"type": "Polygon", "coordinates": [[[11.0887226, 36.8356803], [11.0890466, 36.8357963], [11.0891704, 36.8355604], [11.0888398, 36.8354444], [11.0887226, 36.8356803]]]}}, {"type": "Feature", "properties": {"amenity": "school", "barrier": "wall", "building": "yes", "name": "\u0627\u0644\u0645\u062f\u0631\u0633\u0629 \u0627\u0644\u0627\u0628\u062a\u062f\u0627\u0626\u064a\u0629 \u0646\u0647\u062c \u0644\u064a\u0628\u064a\u0627", "name:ar": "\u0627\u0644\u0645\u062f\u0631\u0633\u0629 \u0627\u0644\u0627\u0628\u062a\u062f\u0627\u0626\u064a\u0629 \u0646\u0647\u062c \u0644\u064a\u0628\u064a\u0627"}, "geometry": {"type": "Polygon", "coordinates": [[[11.0867759, 36.851741], [11.0869207, 36.8517774], [11.0869408, 36.8517592], [11.0869583, 36.8517656], [11.086973, 36.851771], [11.0869743, 36.8517882], [11.0870202, 36.8518158], [11.0872576, 36.8515003], [11.0871043, 36.8514311], [11.0869958, 36.8513954], [11.0869703, 36.8514018], [11.0867611, 36.8517216], [11.0867759, 36.851741]]]}}, {"type": "Feature", "properties": {"building": "yes"}, "geometry": {"type": "Polygon", "coordinates": [[[11.0927582, 36.8349179], [11.0930697, 36.8350647], [11.0932655, 36.8347986], [11.0930886, 36.8347152], [11.0931077, 36.8346892], [11.092973, 36.8346258], [11.0927582, 36.8349179]]]}}, {"type": "Feature", "properties": {"building": "yes"}, "geometry": {"type": "Polygon", "coordinates": [[[11.0874916, 36.8358518], [11.0875721, 36.8358938], [11.0876324, 36.8358197], [11.087552, 36.8357777], [11.0874916, 36.8358518]]]}}, {"type": "Feature", "properties": {"building": "yes"}, "geometry": {"type": "Polygon", "coordinates": [[[11.0860634, 36.8374221], [11.0860118, 36.8374811], [11.086121, 36.8375423], [11.0861726, 36.8374833], [11.0860634, 36.8374221]]]}}, {"type": "Feature", "properties": {"building": "yes"}, "geometry": {"type": "Polygon", "coordinates": [[[11.0858324, 36.8373176], [11.0858139, 36.8373388], [11.0857152, 36.8372835], [11.0856531, 36.8373545], [11.085904, 36.837495], [11.0859846, 36.8374028], [11.0858324, 36.8373176]]]}}, {"type": "Feature", "properties": {"amenity": "place_of_worship", "building": "yes", "religion": "muslim"}, "geometry": {"type": "Polygon", "coordinates": [[[11.1004298, 36.8500089], [11.1003013, 36.8499603], [11.1001963, 36.850121], [11.1003364, 36.8501714], [11.1004298, 36.8500089]]]}}, {"type": "Feature", "properties": {"amenity": "place_of_worship", "building": "yes", "religion": "muslim"}, "geometry": {"type": "Polygon", "coordinates": [[[11.1041736, 36.8526515], [11.1040127, 36.8528812], [11.1036506, 36.8527331], [11.1037338, 36.8526022], [11.1040932, 36.8526193], [11.1041736, 36.8526515]]]}}, {"type": "Feature", "properties": {"building": "yes"}, "geometry": {"type": "Polygon", "coordinates": [[[11.0823847, 36.8315024], [11.0825993, 36.8312619], [11.0821165, 36.8309442], [11.0818912, 36.8312104], [11.0823847, 36.8315024]]]}}, {"type": "Feature", "properties": {"amenity": "place_of_worship", "building": "yes", "religion": "muslim"}, "geometry": {"type": "Polygon", "coordinates": [[[11.1087986, 36.8497982], [11.1084225, 36.8501642], [11.1086421, 36.8502634], [11.1087762, 36.8501137], [11.1088454, 36.8501316], [11.1090202, 36.8499397], [11.1087986, 36.8497982]]]}}, {"type": "Feature", "properties": {"amenity": "post_office", "brand": "La Poste", "brand:wikidata": "Q373724", "brand:wikipedia": "fr:La Poste (entreprise fran\u00e7aise)", "building": "yes", "name": "La Poste"}, "geometry": {"type": "Polygon", "coordinates": [[[11.0991152, 36.8494457], [11.099177, 36.8493647], [11.0990667, 36.849316], [11.0990045, 36.8493978], [11.0991152, 36.8494457]]]}}, {"type": "Feature", "properties": {"building": "house", "height": "10"}, "geometry": {"type": "Polygon", "coordinates": [[[11.1182811, 36.8417453], [11.1181225, 36.8416232], [11.1182276, 36.8415171], [11.1183943, 36.8416585], [11.1182811, 36.8417453]]]}}, {"type": "Feature", "properties": {"building": "house"}, "geometry": {"type": "Polygon", "coordinates": [[[11.1181276, 36.8416616], [11.118004, 36.8417823], [11.1178944, 36.8416989], [11.1180059, 36.8415741], [11.1181276, 36.8416616]]]}}, {"type": "Feature", "properties": {"building": "yes", "man_made": "tower", "tower:type": "defensive"}, "geometry": {"type": "Polygon", "coordinates": [[[11.115696, 36.8383605], [11.1157486, 36.8384229], [11.1156154, 36.838469], [11.1155919, 36.8384233], [11.1155426, 36.8384386], [11.1155044, 36.8383698], [11.1156197, 36.8383356], [11.115696, 36.8383605]]]}}, {"type": "Feature", "properties": {"building": "yes"}, "geometry": {"type": "Polygon", "coordinates": [[[11.1152712, 36.838068], [11.1153626, 36.8381314], [11.1153011, 36.8381774], [11.1152129, 36.8381138], [11.1152712, 36.838068]]]}}, {"type": "Feature", "properties": {"building": "yes", "man_made": "tower", "tower:type": "defensive"}, "geometry": {"type": "Polygon", "coordinates": [[[11.1150209, 36.8378141], [11.1149769, 36.837782], [11.1149326, 36.8377496], [11.114836, 36.8378344], [11.1149243, 36.8378989], [11.1149736, 36.8378556], [11.1150209, 36.8378141]]]}}, {"type": "Feature", "properties": {"building": "yes"}, "geometry": {"type": "Polygon", "coordinates": [[[11.1151077, 36.8374571], [11.1151873, 36.8373706], [11.1150903, 36.8373134], [11.1150107, 36.8373999], [11.1151077, 36.8374571]]]}}, {"type": "Feature", "properties": {"building": "yes", "man_made": "tower", "tower:type": "defensive"}, "geometry": {"type": "Polygon", "coordinates": [[[11.1155388, 36.8371491], [11.115482, 36.8371041], [11.1155802, 36.8370247], [11.1156706, 36.8370963], [11.1155724, 36.8371757], [11.1155388, 36.8371491]]]}}, {"type": "Feature", "properties": {"building": "yes"}, "geometry": {"type": "Polygon", "coordinates": [[[11.1163583, 36.8373467], [11.1164523, 36.8372978], [11.1165326, 36.8373968], [11.1164385, 36.8374457], [11.1163583, 36.8373467]]]}}, {"type": "Feature", "properties": {"building": "yes", "man_made": "tower", "tower:type": "defensive"}, "geometry": {"type": "Polygon", "coordinates": [[[11.1167154, 36.8379181], [11.1167739, 36.8378952], [11.1168409, 36.837869], [11.1169009, 36.8379671], [11.1167754, 36.8380162], [11.1167488, 36.8379727], [11.1167154, 36.8379181]]]}}, {"type": "Feature", "properties": {"building": "yes"}, "geometry": {"type": "Polygon", "coordinates": [[[11.1161408, 36.8382051], [11.1162902, 36.8381523], [11.1162943, 36.8381599], [11.1163367, 36.8382367], [11.1161874, 36.8382895], [11.1161408, 36.8382051]]]}}, {"type": "Feature", "properties": {"building": "yes"}, "geometry": {"type": "Polygon", "coordinates": [[[11.1155631, 36.8376947], [11.1155875, 36.8377323], [11.1157068, 36.8379163], [11.1158469, 36.8378612], [11.115733, 36.8376694], [11.1157093, 36.8376296], [11.1157717, 36.8376023], [11.1159516, 36.8378655], [11.1156819, 36.8379836], [11.1155019, 36.8377204], [11.1155631, 36.8376947]]]}}, {"type": "Feature", "properties": {"building": "yes"}, "geometry": {"type": "Polygon", "coordinates": [[[11.1155875, 36.8377323], [11.115733, 36.8376694], [11.1157093, 36.8376296], [11.1155631, 36.8376947], [11.1155875, 36.8377323]]]}}, {"type": "Feature", "properties": {"building": "yes"}, "geometry": {"type": "Polygon", "coordinates": [[[11.1158696, 36.8382295], [11.1159695, 36.8381871], [11.1159286, 36.8381254], [11.1158287, 36.8381679], [11.1158696, 36.8382295]]]}}, {"type": "Feature", "properties": {"building": "yes"}, "geometry": {"type": "Polygon", "coordinates": [[[11.1161454, 36.8377313], [11.1162787, 36.8376414], [11.1162169, 36.8375828], [11.1163006, 36.8375263], [11.1162481, 36.8374764], [11.1160312, 36.8376228], [11.1161454, 36.8377313]]]}}, {"type": "Feature", "properties": {"building": "yes"}, "geometry": {"type": "Polygon", "coordinates": [[[11.0865749, 36.8481661], [11.0867692, 36.8482682], [11.0869038, 36.8481042], [11.0867095, 36.8480021], [11.0865749, 36.8481661]]]}}, {"type": "Feature", "properties": {"building": "yes"}, "geometry": {"type": "Polygon", "coordinates": [[[11.0366828, 36.848932], [11.0367608, 36.8489757], [11.03681, 36.8489195], [11.0367707, 36.8488975], [11.0367438, 36.8489283], [11.0367051, 36.8489066], [11.0366828, 36.848932]]]}}, {"type": "Feature", "properties": {"building": "yes"}, "geometry": {"type": "Polygon", "coordinates": [[[11.1140064, 36.8335955], [11.1142813, 36.8338454], [11.1141719, 36.8339225], [11.1142352, 36.8339801], [11.11465, 36.8336879], [11.1144311, 36.8334879], [11.114479, 36.8334647], [11.1143492, 36.8333497], [11.1140064, 36.8335955]]]}}]}