{"type":"FeatureCollection","features":[{"type":"Feature","geometry":{"type":"Polygon","coordinates":[[[11.1017194,36.8382111],[11.1012688,36.8386834],[11.1016138,36.8388566],[11.1018437,36.8389017],[11.1019899,36.8388437],[11.1021768,36.8388111],[11.1023871,36.8387935],[11.1025947,36.8387883],[11.1027398,36.8388242],[11.1028844,36.8388914],[11.1030386,36.8389927],[11.1032321,36.8391814],[11.1034575,36.8392673],[11.1035933,36.8392303],[11.1036812,36.8392583],[11.10379,36.839293],[11.1041548,36.8391471],[11.1045411,36.8390526],[11.1048307,36.8389753],[11.1051741,36.8388551],[11.1053457,36.8388551],[11.1055067,36.8389152],[11.105588,36.8390158],[11.1056247,36.8390612],[11.1057749,36.8390698],[11.1059465,36.8389925],[11.1060109,36.8388637],[11.1061504,36.8387778],[11.1062684,36.838649],[11.1063328,36.8384859],[11.106365,36.8383571],[11.1062362,36.8383657],[11.1060002,36.8385031],[11.1057534,36.8385632],[11.1055281,36.8385546],[11.1054208,36.8384945],[11.1051633,36.8382712],[11.1049702,36.838194],[11.1039999,36.8379599],[11.1037902,36.8379672],[11.1036998,36.83797],[11.1036291,36.8379278],[11.1034467,36.8379707],[11.1032214,36.8380995],[11.1031161,36.8382424],[11.102998,36.8383334],[11.1028635,36.8384095],[11.1026957,36.838443],[11.1025376,36.8384337],[11.1024704,36.8383914],[11.1022773,36.8382626],[11.1021593,36.8381253],[11.1020949,36.8380136],[11.1019554,36.8379793],[11.1017838,36.8379364],[11.1017283,36.8379807],[11.1016872,36.8380136],[11.1017194,36.8382111]]]},"properties":{}},{"type":"Feature","geometry":{"type":"Polygon","coordinates":[[[11.0998273,36.836998],[11.0996765,36.8370813],[11.0995483,36.8371097],[11.0993659,36.8375862],[11.099602,36.8376721],[11.0997844,36.8378009],[11.0999453,36.8379769],[11.1000472,36.8381272],[11.1001867,36.8381959],[11.1004222,36.838232],[11.1004711,36.8382622],[11.1006046,36.8382749],[11.1007017,36.8382088],[11.1008197,36.8381401],[11.1008948,36.8379812],[11.1009372,36.8378284],[11.1010552,36.8377812],[11.1011947,36.8377253],[11.1012669,36.8376928],[11.1012483,36.8376223],[11.1012596,36.8375261],[11.1013615,36.837466],[11.1015332,36.8375304],[11.1015654,36.8374875],[11.1014956,36.8373243],[11.1013937,36.8372084],[11.1012167,36.8371526],[11.1010504,36.8371612],[11.1007119,36.8372316],[11.1004442,36.8371827],[11.100294,36.8370882],[11.1002296,36.8369637],[11.1001491,36.8368821],[11.1000655,36.836858],[11.0999668,36.8368864],[11.0998809,36.8369422],[11.0998273,36.836998]]]},"properties":{}}]}