{"type":"FeatureCollection","features":[{"type":"Feature","geometry":{"type":"Polygon","coordinates":[[[11.1152754,36.8373463],[11.115194,36.8373935],[11.1151371,36.8374732],[11.115251,36.8375513],[11.11519,36.8376359],[11.1151148,36.8377579],[11.1150802,36.8378685],[11.1156189,36.8382931],[11.115686,36.8383094],[11.1157835,36.8383013],[11.1162409,36.8381207],[11.1161718,36.8379905],[11.116434,36.8378408],[11.1163019,36.8376619],[11.1161515,36.837753],[11.116017,36.8376301],[11.1162463,36.8374615],[11.1163007,36.8375123],[11.1163863,36.8374257],[11.1159218,36.8370534],[11.1158527,36.8370892],[11.11581,36.8370551],[11.1155681,36.8372226],[11.1157896,36.8375171],[11.1155437,36.8376375],[11.1154888,36.8375187],[11.1153343,36.8375008],[11.1153343,36.8373951],[11.1152754,36.8373463]],[[11.1155631,36.8376947],[11.1157093,36.8376296],[11.1157717,36.8376023],[11.1159516,36.8378655],[11.1156819,36.8379836],[11.1155019,36.8377204],[11.1155631,36.8376947]]]},"properties":{"nom":"nan","usage_sol":"grass","naturel":"nan","surface":"nan","loisir":"nan"}},{"type":"Feature","geometry":{"type":"Polygon","coordinates":[[[11.0987421,36.8391084],[11.099638,36.8395678],[11.1000028,36.83919],[11.0997721,36.8390698],[11.0997989,36.8390354],[11.0996112,36.8389367],[11.0997077,36.8388122],[11.099182,36.8385632],[11.0987421,36.8391084]]]},"properties":{"nom":"nan","usage_sol":"grass","naturel":"nan","surface":"nan","loisir":"nan"}},{"type":"Feature","geometry":{"type":"Polygon","coordinates":[[[11.09126,36.8490081],[11.0920325,36.8493322],[11.0921532,36.8489716],[11.0919922,36.8488987],[11.0919252,36.8489909],[11.0918554,36.8490704],[11.0917642,36.849021],[11.0918125,36.8489652],[11.0917401,36.8489137],[11.0917508,36.8488922],[11.0914477,36.848757],[11.09126,36.8490081]]]},"properties":{"nom":"nan","usage_sol":"nan","naturel":"nan","surface":"nan","loisir":"park"}},{"type":"Feature","geometry":{"type":"Polygon","coordinates":[[[11.0876994,36.8459807],[11.0876762,36.846098],[11.0876565,36.84618],[11.0875903,36.8461698],[11.0875699,36.8462544],[11.0874232,36.8462318],[11.0874416,36.8461553],[11.0873885,36.8461471],[11.0873628,36.8462952],[11.0879722,36.8463425],[11.0880363,36.8463198],[11.0880844,36.8462738],[11.0881084,36.8462118],[11.0880928,36.8461504],[11.0876994,36.8459807]]]},"properties":{"nom":"nan","usage_sol":"nan","naturel":"nan","surface":"nan","loisir":"park"}},{"type":"Feature","geometry":{"type":"Polygon","coordinates":[[[11.0943436,36.8440018],[11.0949704,36.8442248],[11.0952031,36.8440021],[11.0945704,36.8437852],[11.0943436,36.8440018]]]},"properties":{"nom":"Svenska Garden","usage_sol":"nan","naturel":"nan","surface":"nan","loisir":"park"}},{"type":"Feature","geometry":{"type":"Polygon","coordinates":[[[11.0950369,36.8361093],[11.0952514,36.8363025],[11.0962272,36.8367808],[11.0966308,36.8363631],[11.0962545,36.8361138],[11.0947096,36.8350147],[11.0948062,36.8354483],[11.0950369,36.8361093]]]},"properties":{"nom":"nan","usage_sol":"nan","naturel":"scrub","surface":"nan","loisir":"nan"}},{"type":"Feature","geometry":{"type":"Polygon","coordinates":[[[11.09632,36.8368471],[11.0972631,36.8373372],[11.0982233,36.8377966],[11.0991294,36.8382749],[11.1001634,36.8388023],[11.1003046,36.8386338],[11.1004222,36.838232],[11.1001867,36.8381959],[11.1000472,36.8381272],[11.0999453,36.8379769],[11.0997844,36.8378009],[11.099602,36.8376721],[11.0993659,36.8375862],[11.0992586,36.8375778],[11.0985451,36.8374319],[11.0986095,36.8371142],[11.0984056,36.8370841],[11.0982448,36.8371655],[11.0978854,36.837144],[11.0976654,36.8370968],[11.0974669,36.8369766],[11.0975651,36.8366713],[11.0971802,36.8365411],[11.0970488,36.8367918],[11.096866,36.836702],[11.0967711,36.8366376],[11.0966059,36.8365496],[11.09632,36.8368471]]]},"properties":{"nom":"nan","usage_sol":"nan","naturel":"scrub","surface":"nan","loisir":"nan"}},{"type":"Feature","geometry":{"type":"Polygon","coordinates":[[[11.0946859,36.8403095],[11.0954477,36.8401078],[11.0956945,36.8397729],[11.095335,36.8395926],[11.0951741,36.8396012],[11.0950936,36.8396913],[11.0947825,36.8397128],[11.0947396,36.8395453],[11.0943319,36.839584],[11.0942192,36.8397385],[11.0946859,36.8403095]]]},"properties":{"nom":"nan","usage_sol":"nan","naturel":"scrub","surface":"nan","loisir":"nan"}},{"type":"Feature","geometry":{"type":"Polygon","coordinates":[[[11.0948791,36.8406015],[11.0953297,36.8405027],[11.0952438,36.8402494],[11.0947879,36.8403611],[11.0948791,36.8406015]]]},"properties":{"nom":"nan","usage_sol":"nan","naturel":"scrub","surface":"nan","loisir":"nan"}},{"type":"Feature","geometry":{"type":"Polygon","coordinates":[[[11.1050894,36.8401408],[11.1052128,36.8403168],[11.1064697,36.8401659],[11.1059882,36.8396263],[11.1050894,36.8401408]]]},"properties":{"nom":"nan","usage_sol":"greenfield","naturel":"scrub","surface":"nan","loisir":"nan"}},{"type":"Feature","geometry":{"type":"Polygon","coordinates":[[[11.0938313,36.8503594],[11.0941585,36.8504731],[11.0943409,36.8500868],[11.0939949,36.849973],[11.0938313,36.8503594]]]},"properties":{"nom":"nan","usage_sol":"nan","naturel":"nan","surface":"nan","loisir":"park"}},{"type":"Feature","geometry":{"type":"Polygon","coordinates":[[[11.0893849,36.8594586],[11.0888157,36.8600459],[11.0890077,36.860165],[11.0895769,36.8595778],[11.0893849,36.8594586]]]},"properties":{"nom":"nan","usage_sol":"nan","naturel":"nan","surface":"nan","loisir":"garden"}},{"type":"Feature","geometry":{"type":"Polygon","coordinates":[[[11.1079011,36.8374538],[11.1083556,36.8374936],[11.1086077,36.8374638],[11.1086894,36.8374723],[11.1090001,36.8374354],[11.1090303,36.837549],[11.1091231,36.8376709],[11.1095218,36.837452],[11.1092865,36.8371861],[11.108922,36.8372762],[11.1084554,36.8373458],[11.1078753,36.837333],[11.1078701,36.8374538],[11.1079011,36.8374538]]]},"properties":{"nom":"nan","usage_sol":"grass","naturel":"nan","surface":"nan","loisir":"nan"}},{"type":"Feature","geometry":{"type":"Polygon","coordinates":[[[11.1170013,36.8387712],[11.1170861,36.8386912],[11.1170655,36.8386019],[11.1169797,36.8385504],[11.1168886,36.8384836],[11.1168379,36.8384622],[11.1167904,36.838496],[11.1169691,36.8385951],[11.116894,36.8386789],[11.1169369,36.8387411],[11.1170013,36.8387712]]]},"properties":{"nom":"nan","usage_sol":"nan","naturel":"scrub","surface":"nan","loisir":"nan"}},{"type":"Feature","geometry":{"type":"Polygon","coordinates":[[[11.1167438,36.8391469],[11.1168135,36.8390353],[11.1168448,36.8389474],[11.1168028,36.8389558],[11.1167026,36.8389302],[11.1165989,36.8389772],[11.116734,36.8391859],[11.1167438,36.8391469]]]},"properties":{"nom":"nan","usage_sol":"nan","naturel":"scrub","surface":"nan","loisir":"nan"}},{"type":"Feature","geometry":{"type":"Polygon","coordinates":[[[11.1166146,36.8406687],[11.115915,36.8401062],[11.1161167,36.839972],[11.1161003,36.8399387],[11.1160679,36.8399218],[11.1157611,36.8400336],[11.1157058,36.8400226],[11.1156165,36.8400677],[11.1159265,36.8403241],[11.1160349,36.840415],[11.1165713,36.840705],[11.1166146,36.8406687]]]},"properties":{"nom":"nan","usage_sol":"nan","naturel":"scrub","surface":"nan","loisir":"nan"}},{"type":"Feature","geometry":{"type":"Polygon","coordinates":[[[11.1172926,36.8386769],[11.1172251,36.8386702],[11.1171693,36.8386902],[11.1171166,36.8387541],[11.117409,36.8389473],[11.1176262,36.8390911],[11.1175163,36.839207],[11.1174116,36.8391576],[11.1174706,36.839252],[11.1175099,36.8393188],[11.1175726,36.8393593],[11.1178167,36.8393379],[11.1179159,36.8393551],[11.1181537,36.839469],[11.1182753,36.8395118],[11.1183504,36.8395053],[11.1184094,36.8394538],[11.1184487,36.839351],[11.1184112,36.8391449],[11.1183924,36.8388701],[11.1182636,36.8386877],[11.1181081,36.8386233],[11.1180437,36.8385589],[11.118042,36.8384427],[11.1179776,36.8381767],[11.117931,36.8379836],[11.1177889,36.8378075],[11.1178078,36.838439],[11.1177948,36.8385439],[11.1177637,36.8386239],[11.1177193,36.8386858],[11.1176557,36.8387326],[11.1175833,36.8387455],[11.1175055,36.8387369],[11.1174117,36.8387176],[11.1172926,36.8386769]]]},"properties":{"nom":"nan","usage_sol":"nan","naturel":"scrub","surface":"nan","loisir":"nan"}},{"type":"Feature","geometry":{"type":"Polygon","coordinates":[[[11.0904312,36.85556],[11.0908496,36.8557832],[11.091091,36.8554398],[11.090737,36.8552037],[11.0904312,36.85556]]]},"properties":{"nom":"nan","usage_sol":"nan","naturel":"scrub","surface":"nan","loisir":"nan"}},{"type":"Feature","geometry":{"type":"Polygon","coordinates":[[[11.0957789,36.8434342],[11.0959219,36.8432923],[11.0962203,36.842996],[11.0958811,36.8428078],[11.0956841,36.8426985],[11.0953381,36.8430484],[11.0955285,36.8431471],[11.0955147,36.8431674],[11.0954565,36.8432532],[11.0957789,36.8434342]]]},"properties":{"nom":"Parc de Suède","usage_sol":"nan","naturel":"nan","surface":"nan","loisir":"park"}},{"type":"Feature","geometry":{"type":"Polygon","coordinates":[[[11.0963257,36.8509128],[11.0967495,36.8511596],[11.0967951,36.851151],[11.0968139,36.8511382],[11.0968085,36.8511124],[11.0965108,36.8507218],[11.0964894,36.8507132],[11.0964625,36.8507196],[11.0963257,36.8509128]]]},"properties":{"nom":"nan","usage_sol":"nan","naturel":"nan","surface":"nan","loisir":"garden"}},{"type":"Feature","geometry":{"type":"Polygon","coordinates":[[[11.0852898,36.8461601],[11.0850807,36.8460914],[11.0851987,36.8462513],[11.0852898,36.8461601]]]},"properties":{"nom":"nan","usage_sol":"nan","naturel":"nan","surface":"nan","loisir":"garden"}},{"type":"Feature","geometry":{"type":"Polygon","coordinates":[[[11.090713,36.8579023],[11.0908525,36.857956],[11.0909249,36.8577306],[11.0909088,36.8577178],[11.0908847,36.8577178],[11.090713,36.8579023]]]},"properties":{"nom":"nan","usage_sol":"nan","naturel":"nan","surface":"nan","loisir":"garden"}},{"type":"Feature","geometry":{"type":"Polygon","coordinates":[[[11.0916634,36.8466963],[11.0919115,36.8465353],[11.0918202,36.8464451],[11.0915721,36.8466061],[11.0916634,36.8466963]]]},"properties":{"nom":"nan","usage_sol":"nan","naturel":"nan","surface":"nan","loisir":"park"}},{"type":"Feature","geometry":{"type":"Polygon","coordinates":[[[11.099762,36.8515997],[11.0999931,36.8515701],[11.0998237,36.8515183],[11.099762,36.8515997]]]},"properties":{"nom":"nan","usage_sol":"nan","naturel":"nan","surface":"nan","loisir":"garden"}},{"type":"Feature","geometry":{"type":"Polygon","coordinates":[[[11.0866602,36.8477953],[11.0869963,36.8474227],[11.0865089,36.8471925],[11.0862558,36.8475089],[11.0866602,36.8477953]]]},"properties":{"nom":"Parc de la station","usage_sol":"nan","naturel":"nan","surface":"nan","loisir":"park"}},{"type":"Feature","geometry":{"type":"Polygon","coordinates":[[[11.096647,36.8458177],[11.0971769,36.8461789],[11.0977349,36.8456135],[11.0971181,36.84525],[11.096647,36.8458177]]]},"properties":{"nom":"حديقة الزهور","usage_sol":"nan","naturel":"nan","surface":"nan","loisir":"garden"}},{"type":"Feature","geometry":{"type":"Polygon","coordinates":[[[11.093295,36.8351468],[11.093039,36.8355212],[11.093475,36.8356259],[11.0938762,36.835755],[11.0945782,36.8360167],[11.0946915,36.8358213],[11.0945346,36.834893],[11.0943645,36.8348337],[11.0942293,36.8350466],[11.0942991,36.835064],[11.0940593,36.8354619],[11.093925,36.8353926],[11.0938406,36.8355275],[11.0933307,36.8353232],[11.0934117,36.8351936],[11.093295,36.8351468]]]},"properties":{"nom":"Jardin De L'environnement","usage_sol":"nan","naturel":"nan","surface":"nan","loisir":"garden"}},{"type":"Feature","geometry":{"type":"Polygon","coordinates":[[[11.0988963,36.8461871],[11.0991466,36.8458372],[11.0990102,36.845762],[11.0987055,36.8460812],[11.0988963,36.8461871]]]},"properties":{"nom":"Parc et jardin public","usage_sol":"nan","naturel":"nan","surface":"grass","loisir":"park"}},{"type":"Feature","geometry":{"type":"Polygon","coordinates":[[[11.0988904,36.8461678],[11.0991213,36.8458433],[11.0990104,36.8457827],[11.0987278,36.8460762],[11.0988904,36.8461678]]]},"properties":{"nom":"Parc et jardin public","usage_sol":"grass","naturel":"nan","surface":"nan","loisir":"nan"}},{"type":"Feature","geometry":{"type":"Polygon","coordinates":[[[11.0949644,36.8442087],[11.0951805,36.8440063],[11.0945768,36.8437987],[11.094368,36.8439998],[11.0949644,36.8442087]]]},"properties":{"nom":"nan","usage_sol":"grass","naturel":"nan","surface":"nan","loisir":"nan"}},{"type":"Feature","geometry":{"type":"Polygon","coordinates":[[[11.0945641,36.8359903],[11.0946634,36.8358236],[11.0945077,36.8349073],[11.0943811,36.8348637],[11.094276,36.8350273],[11.0943441,36.8350507],[11.0940696,36.8354932],[11.0939333,36.8354262],[11.0938535,36.8355571],[11.0932908,36.8353374],[11.0933765,36.8352034],[11.0932986,36.8351722],[11.0930708,36.8355088],[11.0934855,36.8356039],[11.0945641,36.8359903]]]},"properties":{"nom":"nan","usage_sol":"grass","naturel":"nan","surface":"nan","loisir":"nan"}},{"type":"Feature","geometry":{"type":"Polygon","coordinates":[[[11.1148127,36.8376464],[11.1148798,36.8375207],[11.114892,36.8374735],[11.1148839,36.8374214],[11.1149164,36.8373775],[11.1149571,36.8373384],[11.1150567,36.8372701],[11.1151115,36.8372669],[11.1151725,36.8372799],[11.1152132,36.8372734],[11.1153677,36.8371725],[11.1154083,36.8371448],[11.1154266,36.8370928],[11.1154734,36.8370423],[11.1155425,36.8369968],[11.1156482,36.8369626],[11.1157356,36.8369415],[11.1158779,36.8369285],[11.1159978,36.8369561],[11.1161747,36.8371025],[11.1162438,36.8371546],[11.1163312,36.8371969],[11.1165202,36.8372571],[11.1165995,36.8373694],[11.1166849,36.8375304],[11.116815,36.8377647],[11.1168841,36.8378167],[11.1169552,36.8378672],[11.1169796,36.8379664],[11.1169634,36.8380364],[11.1168699,36.8381161],[11.116817,36.8381596],[11.1169735,36.8381737],[11.1170499,36.8382163],[11.1170924,36.8382804],[11.1171299,36.8384538],[11.1173337,36.8386105],[11.1174779,36.8386656],[11.1175436,36.8384467],[11.1174162,36.8384083],[11.1173744,36.8383463],[11.1174159,36.8382731],[11.1175063,36.8382507],[11.1175672,36.8380071],[11.1175162,36.8378869],[11.1174965,36.8377603],[11.1174706,36.8375434],[11.1174375,36.8373567],[11.1173705,36.8371807],[11.1172507,36.8370561],[11.1170978,36.8369616],[11.1169852,36.8369273],[11.1168672,36.8368479],[11.1165346,36.8366783],[11.1161644,36.8365409],[11.1158418,36.8364835],[11.1157585,36.8364766],[11.1155716,36.8365237],[11.1152757,36.8366397],[11.1148743,36.8368135],[11.1146248,36.8369702],[11.11437,36.837157],[11.1142062,36.8373028],[11.1141743,36.837394],[11.1143158,36.837466],[11.1144906,36.8375088],[11.1147421,36.8375641],[11.1148127,36.8376464]]]},"properties":{"nom":"nan","usage_sol":"nan","naturel":"scrub","surface":"nan","loisir":"nan"}},{"type":"Feature","geometry":{"type":"Polygon","coordinates":[[[11.0854263,36.8463432],[11.0854494,36.8463242],[11.0854638,36.8463004],[11.085468,36.8462741],[11.0854617,36.8462481],[11.0854454,36.846225],[11.0854208,36.8462073],[11.0853904,36.8461967],[11.0853575,36.8461943],[11.0853252,36.8462003],[11.085297,36.8462142],[11.0852758,36.8462346],[11.0852655,36.8462535],[11.0852614,36.8462738],[11.0852637,36.8462943],[11.0852722,36.8463137],[11.0852864,36.8463309],[11.0853056,36.8463446],[11.0853283,36.8463542],[11.0853533,36.846359],[11.0853791,36.8463587],[11.0854039,36.8463534],[11.0854263,36.8463432]]]},"properties":{"nom":"nan","usage_sol":"grass","naturel":"nan","surface":"nan","loisir":"nan"}}]}