{"type":"FeatureCollection","features":[{"type":"Feature","geometry":{"type":"Polygon","coordinates":[[[11.1019086,36.8391533],[11.1021114,36.8391492],[11.1022251,36.8391017],[11.1024129,36.8390245],[11.1025577,36.8390159],[11.1027176,36.8390848],[11.1032497,36.8393593],[11.1036574,36.8395783],[11.1038666,36.839428],[11.1039567,36.8394111],[11.104343,36.8392823],[11.1046123,36.8392477],[11.1049824,36.8391704],[11.1051916,36.8391447],[11.1053461,36.8391191],[11.1055296,36.839106],[11.1055725,36.8390674],[11.105588,36.8390158],[11.1055067,36.8389152],[11.1053457,36.8388551],[11.1051741,36.8388551],[11.1048307,36.8389753],[11.1045411,36.8390526],[11.1041548,36.8391471],[11.10379,36.839293],[11.1036812,36.8392583],[11.1035933,36.8392303],[11.1034575,36.8392673],[11.1032321,36.8391814],[11.1030386,36.8389927],[11.1028844,36.8388914],[11.1027398,36.8388242],[11.1025947,36.8387883],[11.1023871,36.8387935],[11.1021768,36.8388111],[11.1019899,36.8388437],[11.1020427,36.8389128],[11.1019193,36.8390159],[11.1018174,36.8390459],[11.1018013,36.839106],[11.1019086,36.8391533]]]},"properties":{"naturel":"wood"}},{"type":"Feature","geometry":{"type":"Polygon","coordinates":[[[11.11426,36.8391726],[11.1143503,36.8393317],[11.1146946,36.8394881],[11.1148528,36.8395633],[11.1145631,36.8392413],[11.1143771,36.8391492],[11.1143003,36.8391361],[11.11426,36.8391726]]]},"properties":{"naturel":"wood"}},{"type":"Feature","geometry":{"type":"Polygon","coordinates":[[[11.1154928,36.840228],[11.1156189,36.8403184],[11.1158637,36.8404799],[11.1165077,36.8408127],[11.1165713,36.840705],[11.1160349,36.840415],[11.1159265,36.8403241],[11.1156165,36.8400677],[11.1157058,36.8400226],[11.1157611,36.8400336],[11.1160679,36.8399218],[11.1161003,36.8399387],[11.1161167,36.839972],[11.116665,36.8403427],[11.1171557,36.8407379],[11.1173795,36.8408147],[11.117425,36.8407697],[11.1171837,36.8404284],[11.1172641,36.8403167],[11.117635,36.8405279],[11.1179845,36.8401697],[11.1180442,36.8399195],[11.1181364,36.8398101],[11.1182449,36.8397502],[11.1184443,36.8397307],[11.1185972,36.8398058],[11.1187206,36.839486],[11.1187983,36.8391404],[11.1187742,36.8389214],[11.1187608,36.838681],[11.1186481,36.8383849],[11.1184738,36.8380028],[11.1182056,36.8375928],[11.1180634,36.8373695],[11.1180151,36.8373781],[11.1178381,36.8372343],[11.1177433,36.8371592],[11.1176745,36.837099],[11.1177013,36.8370132],[11.1172551,36.8366505],[11.117012,36.8364743],[11.1169118,36.8364186],[11.1168698,36.8364421],[11.1171166,36.8366289],[11.1174027,36.8368973],[11.117628,36.8371442],[11.117712,36.8372708],[11.1177567,36.8373954],[11.1177889,36.8378075],[11.117931,36.8379836],[11.1179776,36.8381767],[11.118042,36.8384427],[11.1180437,36.8385589],[11.1181081,36.8386233],[11.1182636,36.8386877],[11.1183924,36.8388701],[11.1184112,36.8391449],[11.1184487,36.839351],[11.1184094,36.8394538],[11.1183504,36.8395053],[11.1182753,36.8395118],[11.1181537,36.839469],[11.1179159,36.8393551],[11.1178167,36.8393379],[11.1175726,36.8393593],[11.1175099,36.8393188],[11.1174706,36.839252],[11.1174116,36.8391576],[11.1173195,36.8390934],[11.1171944,36.8390481],[11.117122,36.839018],[11.1170951,36.8389858],[11.1171461,36.8388828],[11.117122,36.8388549],[11.1170353,36.8388297],[11.1169822,36.838883],[11.1169232,36.8389553],[11.1168421,36.8391277],[11.1167086,36.8393502],[11.1165834,36.8395025],[11.1164919,36.8395568],[11.1163795,36.8395873],[11.1162272,36.8395879],[11.1160082,36.8395535],[11.1158782,36.83956],[11.1155852,36.8396122],[11.1154193,36.8396231],[11.1152765,36.8396014],[11.115119,36.8395217],[11.1149581,36.8394371],[11.1147717,36.8393156],[11.1147009,36.8392902],[11.1149779,36.8396],[11.1152167,36.8398769],[11.1153678,36.8400613],[11.1154928,36.840228]]]},"properties":{"naturel":"wood"}},{"type":"Feature","geometry":{"type":"Polygon","coordinates":[[[11.1144907,36.8390674],[11.1147428,36.839179],[11.1149538,36.8392909],[11.1152766,36.839471],[11.1154027,36.839516],[11.1155197,36.8395291],[11.1156485,36.8395206],[11.1158023,36.8394796],[11.1159793,36.8394602],[11.1161161,36.8394753],[11.1162851,36.8394924],[11.1163754,36.8394926],[11.1164719,36.839469],[11.1165399,36.8394237],[11.1166411,36.8393338],[11.1166893,36.8392437],[11.116734,36.8391859],[11.1165989,36.8389772],[11.1167026,36.8389302],[11.1168028,36.8389558],[11.1168448,36.8389474],[11.1170013,36.8387712],[11.1169369,36.8387411],[11.116894,36.8386789],[11.1169691,36.8385951],[11.1167904,36.838496],[11.1166892,36.8385681],[11.1166472,36.8385651],[11.1165238,36.8384728],[11.1163575,36.8385243],[11.116311,36.8384945],[11.1163838,36.8383828],[11.1163024,36.838305],[11.1161945,36.8383364],[11.1161282,36.8383128],[11.1158732,36.8384173],[11.1157125,36.8385434],[11.115605,36.8385604],[11.1154971,36.8385323],[11.1154544,36.8384816],[11.1154029,36.8383353],[11.1149211,36.8379779],[11.1148331,36.8379465],[11.1147578,36.8378384],[11.1147786,36.8377471],[11.1148127,36.8376464],[11.1147421,36.8375641],[11.1144906,36.8375088],[11.1143158,36.837466],[11.1141743,36.837394],[11.1142062,36.8373028],[11.11437,36.837157],[11.1146248,36.8369702],[11.1148743,36.8368135],[11.1152757,36.8366397],[11.1155716,36.8365237],[11.1157585,36.8364766],[11.1158418,36.8364835],[11.1161644,36.8365409],[11.1165346,36.8366783],[11.1168672,36.8368479],[11.1169852,36.8369273],[11.1170978,36.8369616],[11.1172507,36.8370561],[11.1173705,36.8371807],[11.1174375,36.8373567],[11.1174706,36.8375434],[11.1174965,36.8377603],[11.1175162,36.8378869],[11.1175672,36.8380071],[11.1175063,36.8382507],[11.1174159,36.8382731],[11.1173744,36.8383463],[11.1174162,36.8384083],[11.1175436,36.8384467],[11.1174779,36.8386656],[11.1175895,36.8386744],[11.1176407,36.8386223],[11.1176957,36.838559],[11.1177147,36.8384336],[11.1177218,36.8381768],[11.1176825,36.8374897],[11.1176396,36.8373201],[11.1175806,36.8372042],[11.1174841,36.8370776],[11.117366,36.8369595],[11.1171917,36.8367792],[11.1169825,36.8366096],[11.1168457,36.836513],[11.1167116,36.8366031],[11.1163834,36.8363886],[11.1163683,36.8363563],[11.1161886,36.8363734],[11.1160732,36.8363498],[11.1160106,36.8362984],[11.1156762,36.8362854],[11.115643,36.8361732],[11.1155199,36.8361913],[11.1147068,36.8365304],[11.1146169,36.8366131],[11.1146034,36.8367749],[11.1144183,36.8369187],[11.1143362,36.8368716],[11.1137166,36.8371873],[11.1133867,36.8375269],[11.113104,36.838027],[11.1133828,36.8382412],[11.1141733,36.8388487],[11.1143798,36.8389903],[11.1144907,36.8390674]]]},"properties":{"naturel":"wood"}},{"type":"Feature","geometry":{"type":"Polygon","coordinates":[[[11.1168886,36.8384836],[11.1169797,36.8385504],[11.1171299,36.8384538],[11.1170924,36.8382804],[11.1170499,36.8382163],[11.1169735,36.8381737],[11.116817,36.8381596],[11.1166392,36.8382797],[11.1165694,36.8383441],[11.1166012,36.8383733],[11.1167422,36.8383733],[11.1168379,36.8384622],[11.1168886,36.8384836]]]},"properties":{"naturel":"wood"}},{"type":"Feature","geometry":{"type":"Polygon","coordinates":[[[11.1135412,36.8354997],[11.1131845,36.8357316],[11.1133696,36.8359462],[11.1135761,36.8359398],[11.1139409,36.8356908],[11.1135412,36.8354997]]]},"properties":{"naturel":"wood"}}]}