{"type": "FeatureCollection", "features": [{"type": "Feature", "properties": {"nom": "Cours d'eau", "type": "water", "waterway": "", "osm_id": 207769233}, "geometry": {"type": "LineString", "coordinates": [[11.1017194, 36.8382111], [11.1012688, 36.8386834], [11.1016138, 36.8388566], [11.1018437, 36.8389017], [11.1019899, 36.8388437], [11.1021768, 36.8388111], [11.1023871, 36.8387935], [11.1025947, 36.8387883], [11.1027398, 36.8388242], [11.1028844, 36.8388914], [11.1030386, 36.8389927], [11.1032321, 36.8391814], [11.1034575, 36.8392673], [11.1035933, 36.8392303], [11.1036812, 36.8392583], [11.10379, 36.839293], [11.1041548, 36.8391471], [11.1045411, 36.8390526], [11.1048307, 36.8389753], [11.1051741, 36.8388551], [11.1053457, 36.8388551], [11.1055067, 36.8389152], [11.105588, 36.8390158], [11.1056247, 36.8390612], [11.1057749, 36.8390698], [11.1059465, 36.8389925], [11.1060109, 36.8388637], [11.1061504, 36.8387778], [11.1062684, 36.838649], [11.1063328, 36.8384859], [11.106365, 36.8383571], [11.1062362, 36.8383657], [11.1060002, 36.8385031], [11.1057534, 36.8385632], [11.1055281, 36.8385546], [11.1054208, 36.8384945], [11.1051633, 36.8382712], [11.1049702, 36.838194], [11.1039999, 36.8379599], [11.1037902, 36.8379672], [11.1036998, 36.83797], [11.1036291, 36.8379278], [11.1034467, 36.8379707], [11.1032214, 36.8380995], [11.1031161, 36.8382424], [11.102998, 36.8383334], [11.1028635, 36.8384095], [11.1026957, 36.838443], [11.1025376, 36.8384337], [11.1024704, 36.8383914], [11.1022773, 36.8382626], [11.1021593, 36.8381253], [11.1020949, 36.8380136], [11.1019554, 36.8379793], [11.1017838, 36.8379364], [11.1017283, 36.8379807], [11.1016872, 36.8380136], [11.1017194, 36.8382111]]}}, {"type": "Feature", "properties": {"nom": "Oued", "type": "oued", "waterway": "stream", "osm_id": 208042349}, "geometry": {"type": "LineString", "coordinates": [[11.0645051, 36.8525922], [11.0645507, 36.8523368], [11.0645745, 36.8521603], [11.0645829, 36.8520019], [11.0645829, 36.8519075], [11.0645476, 36.8517933], [11.0644806, 36.8516388], [11.0644434, 36.8515298], [11.0644323, 36.8514478], [11.0644484, 36.8513254], [11.0644944, 36.8511907], [11.0645641, 36.851049], [11.0646607, 36.8509374], [11.064776, 36.8508193], [11.0648914, 36.8507657], [11.0650496, 36.850682], [11.0652454, 36.8505639], [11.0653125, 36.8504952], [11.0653473, 36.8504309], [11.0653684, 36.8503467], [11.0653983, 36.8502098], [11.0653876, 36.8501068], [11.0653313, 36.8499694], [11.0652883, 36.8499007], [11.0652236, 36.8497865], [11.0651864, 36.849729], [11.0651528, 36.8497117], [11.0650519, 36.8496599], [11.0649848, 36.8495998], [11.0649258, 36.8495139], [11.0648695, 36.849398], [11.0648458, 36.8492611], [11.0648565, 36.8491173], [11.0648883, 36.8489945], [11.0649473, 36.8488421], [11.0650094, 36.8487224], [11.0650791, 36.8486236], [11.065106, 36.8485614], [11.0650657, 36.8485099], [11.0649906, 36.8484648], [11.064899, 36.8484451], [11.0647971, 36.8484064], [11.0646741, 36.8483167], [11.0645825, 36.8482197], [11.0645181, 36.8481274], [11.0644756, 36.848072], [11.0644354, 36.8480119], [11.0643657, 36.8479089], [11.0643036, 36.8477904], [11.0642499, 36.8477239], [11.0642151, 36.8476595], [11.0642097, 36.8475972], [11.0641748, 36.8475135], [11.0641082, 36.8474496], [11.0640568, 36.8473547], [11.0640595, 36.8472581], [11.0640809, 36.8471036], [11.0641082, 36.8470246], [11.0641239, 36.8469319], [11.0641185, 36.8468245], [11.0640787, 36.8466726], [11.0639978, 36.8465155], [11.0638583, 36.8461871], [11.0637993, 36.8460196], [11.0637783, 36.8458977], [11.0637944, 36.8457775], [11.0638292, 36.8456723], [11.0639499, 36.8454169], [11.0639741, 36.845316], [11.0639714, 36.8452216], [11.0638024, 36.8448867], [11.0637618, 36.8447919], [11.0637644, 36.8447382], [11.0637836, 36.844685], [11.0638668, 36.8446292], [11.0640022, 36.8445442], [11.0640787, 36.844451], [11.0641185, 36.8443454], [11.0641243, 36.8442042], [11.0639043, 36.843674], [11.0638829, 36.8435559], [11.063915, 36.8434679]]}}, {"type": "Feature", "properties": {"nom": "Oued", "type": "oued", "waterway": "stream", "osm_id": 208042352}, "geometry": {"type": "LineString", "coordinates": [[11.0458945, 36.8593432], [11.0458998, 36.8592358], [11.0459427, 36.8591328], [11.0460393, 36.8589654], [11.0460715, 36.8588624], [11.0461251, 36.8586736], [11.0462324, 36.8585491], [11.0464312, 36.8583002], [11.0465921, 36.8580212], [11.0467383, 36.8578617], [11.0468174, 36.8577808], [11.0469462, 36.857725], [11.0471017, 36.8576392], [11.047209, 36.8575619], [11.0473265, 36.8575152], [11.0474773, 36.857313], [11.0475698, 36.8571664], [11.0476114, 36.8570855], [11.0475899, 36.8569825], [11.0475255, 36.8568709], [11.0474933, 36.8567721], [11.0474732, 36.8566985], [11.047488, 36.856609], [11.0476167, 36.8564373], [11.0476932, 36.8563637], [11.047783, 36.8563343], [11.047944, 36.8563343], [11.0483621, 36.8563773], [11.0485016, 36.8563601], [11.0486464, 36.8563172], [11.048684, 36.8562399], [11.0487644, 36.8561541], [11.0489163, 36.8560719], [11.0493223, 36.8559351], [11.0495852, 36.8558278], [11.0496228, 36.8557677], [11.0496657, 36.8556476], [11.0496818, 36.8555617], [11.0496871, 36.855493], [11.0497156, 36.8554366], [11.0497531, 36.8553679], [11.049737, 36.8553121], [11.0497193, 36.8552355], [11.0497531, 36.8551447], [11.0498105, 36.8550724], [11.0499232, 36.8549479], [11.0500642, 36.8548829], [11.0501699, 36.8548277], [11.050304, 36.8547848], [11.050406, 36.854802], [11.0504612, 36.8548829], [11.0505186, 36.8549565], [11.0505846, 36.854973], [11.0506366, 36.8549522], [11.0506849, 36.8548921], [11.0506688, 36.8548277], [11.0506259, 36.8547204], [11.0506527, 36.854626], [11.0507187, 36.8545094], [11.0507831, 36.8543721], [11.0507707, 36.8543083], [11.0507171, 36.8542611], [11.0506259, 36.8542311], [11.0505454, 36.8542139], [11.050465, 36.8541667], [11.0504129, 36.8541017], [11.0504274, 36.8540036], [11.0504864, 36.8537546], [11.0505079, 36.853613], [11.0504972, 36.8534885], [11.0504757, 36.8533597], [11.0504972, 36.8532824], [11.0505454, 36.8532266], [11.0506098, 36.8531794], [11.0506527, 36.853115], [11.0507064, 36.8529906], [11.0507371, 36.852966], [11.0507815, 36.8529305], [11.0508673, 36.852909], [11.0510765, 36.852879], [11.0512535, 36.8528317], [11.0513608, 36.8528103], [11.0514483, 36.8527452], [11.0514681, 36.8526815], [11.0515073, 36.8525735], [11.0515539, 36.8525227], [11.051672, 36.8524797], [11.0517846, 36.8524282], [11.0518865, 36.8523596], [11.0519509, 36.8522651], [11.0520153, 36.8521149], [11.0520421, 36.8520033], [11.0521172, 36.851896], [11.0522191, 36.8517629], [11.0522513, 36.8516255], [11.0522781, 36.8514882], [11.0523103, 36.8513594], [11.0523801, 36.8512821], [11.0524498, 36.8512349], [11.0526268, 36.8511061], [11.0527502, 36.8509859], [11.052895, 36.8507971], [11.052997, 36.8507112], [11.0530828, 36.8506554], [11.0532437, 36.8505738], [11.0533939, 36.8505009], [11.0535012, 36.8504794], [11.05363, 36.850488], [11.0538285, 36.8504837], [11.0540591, 36.8504365], [11.0542201, 36.8504236], [11.0543017, 36.8503886], [11.0543381, 36.850312], [11.0542737, 36.8502562], [11.0542002, 36.8501912], [11.054161, 36.850136], [11.0541771, 36.8500802], [11.0542576, 36.8500459], [11.0543381, 36.8500115], [11.0543917, 36.8499643], [11.0544185, 36.8498999], [11.0545097, 36.849711], [11.054617, 36.8496252], [11.0547189, 36.8496166], [11.0548101, 36.8496552], [11.0549872, 36.8496896], [11.0550891, 36.8496724], [11.0551213, 36.8496252], [11.0551106, 36.8495608], [11.0550998, 36.8494621], [11.0551106, 36.8493633], [11.0551803, 36.8492903], [11.0552785, 36.8492382], [11.0554056, 36.8492345], [11.0555504, 36.8492689], [11.0557382, 36.8493848], [11.0558133, 36.8494105], [11.0559098, 36.8494062], [11.0560171, 36.8493419], [11.056162, 36.8492775], [11.0562639, 36.8492517], [11.0563926, 36.8491659], [11.0564999, 36.8491143], [11.0566877, 36.84908], [11.0568395, 36.8490708], [11.0570632, 36.8490714], [11.0571437, 36.8490542], [11.0572295, 36.8490113], [11.0573368, 36.8489984], [11.0574226, 36.8490027], [11.057487, 36.8489598], [11.0575852, 36.8488862], [11.0576962, 36.8486894], [11.0577659, 36.8486121], [11.0579017, 36.8485428], [11.0581162, 36.8484183], [11.0582005, 36.8483159], [11.0582112, 36.8482172], [11.058238, 36.8480927], [11.0583024, 36.8479167], [11.0584204, 36.8477407], [11.0584472, 36.8476248], [11.0585062, 36.8475604], [11.0585706, 36.8475647], [11.0586741, 36.8476112], [11.0589048, 36.8477186], [11.0591194, 36.8477572], [11.0593179, 36.8477744], [11.0594718, 36.8477621], [11.0596006, 36.8476977], [11.0596826, 36.8476327], [11.0596864, 36.847569], [11.0596596, 36.8475174], [11.0596542, 36.8474144], [11.0596918, 36.8472685], [11.0597561, 36.8471654], [11.0598581, 36.8470324], [11.0599439, 36.8468606], [11.0599707, 36.8467362], [11.0600029, 36.8465644], [11.0600512, 36.8463927], [11.0600726, 36.8463069], [11.0601156, 36.8461867], [11.0601799, 36.8461137], [11.0602888, 36.8460787], [11.0604052, 36.8460751], [11.0604964, 36.846045], [11.0605876, 36.845972], [11.0607003, 36.8458432], [11.0608372, 36.8456949], [11.0610545, 36.8454845], [11.0612999, 36.8453096], [11.0614635, 36.845198], [11.0615788, 36.8450692], [11.0616674, 36.8449833], [11.0617183, 36.8448846], [11.0617076, 36.844803], [11.0617049, 36.8446957], [11.061713, 36.8445948], [11.0617961, 36.8445132], [11.0620777, 36.8443179], [11.0623406, 36.8441526], [11.0626946, 36.8439315], [11.0629897, 36.8437534], [11.0631801, 36.843674], [11.0633002, 36.8436381], [11.0635583, 36.8435817], [11.063692, 36.8435426], [11.0638024, 36.843513], [11.063915, 36.8434679]]}}, {"type": "Feature", "properties": {"nom": "Oued", "type": "oued", "waterway": "stream", "osm_id": 208042365}, "geometry": {"type": "LineString", "coordinates": [[11.063915, 36.8434679], [11.0643335, 36.8430579], [11.0645105, 36.8429248], [11.0646205, 36.8427359], [11.0647515, 36.8424801], [11.0647948, 36.8423968], [11.0648109, 36.8423667], [11.0648726, 36.8423238], [11.0650899, 36.8422895], [11.0652343, 36.8422053], [11.0653335, 36.8420379], [11.0653604, 36.8419091], [11.0653313, 36.8415124], [11.065342, 36.8412999], [11.0654037, 36.8411625], [11.0655217, 36.8410015], [11.0658033, 36.8406967], [11.0663183, 36.8401214], [11.0664256, 36.8400184], [11.0672598, 36.8396449], [11.067418, 36.8395762], [11.0676996, 36.839501], [11.0681985, 36.8393529], [11.06833, 36.8392757], [11.0683918, 36.8391875], [11.0685392, 36.8386617], [11.0685767, 36.8385115], [11.0686679, 36.8383827], [11.0688342, 36.8382324], [11.0689227, 36.8381809], [11.0690461, 36.8381873], [11.0692687, 36.8382259], [11.0694404, 36.8382667], [11.0695906, 36.8383483], [11.0697059, 36.8384363], [11.0697703, 36.8385308], [11.0697784, 36.8385887], [11.0696872, 36.838754], [11.0696764, 36.8388098], [11.0696791, 36.8388742], [11.0698561, 36.839295], [11.0699071, 36.8393272], [11.0701083, 36.8393465], [11.0702263, 36.8393293], [11.0702907, 36.83931], [11.0703819, 36.839252], [11.0704596, 36.8391898], [11.0705428, 36.8391597], [11.0707225, 36.8391726], [11.0708995, 36.8392113], [11.0711409, 36.8393057], [11.0714977, 36.8394817], [11.0717391, 36.8396019], [11.0720636, 36.8398209], [11.0723667, 36.8400055], [11.0725786, 36.8400978], [11.072769, 36.8401493], [11.0729644, 36.8401747], [11.0731247, 36.8401806], [11.0732667, 36.8401652], [11.0734204, 36.8401253], [11.0735143, 36.8400716], [11.0737718, 36.8396616], [11.0740028, 36.8393272], [11.0741933, 36.8391469], [11.0742657, 36.8390889], [11.0744293, 36.8390374], [11.0745768, 36.8389837], [11.0747968, 36.8388785], [11.0750194, 36.8387411], [11.0752098, 36.8386338], [11.0752903, 36.8385565], [11.0753493, 36.8384471], [11.0754325, 36.8382968], [11.0755183, 36.8381959], [11.0756819, 36.8380649], [11.0758589, 36.8379168], [11.0760145, 36.8377451], [11.0761057, 36.8376807], [11.0761643, 36.837618], [11.0762555, 36.8374291], [11.0763708, 36.8372488], [11.0764593, 36.8371479], [11.076567, 36.8370882], [11.076669, 36.8370324], [11.0768004, 36.8369358], [11.0769023, 36.8368392], [11.0769533, 36.8367705], [11.0770011, 36.8366391], [11.0770015, 36.8365601], [11.076964, 36.8364635], [11.0768778, 36.836227], [11.0768808, 36.836148], [11.0769077, 36.8360964], [11.076972, 36.8360556], [11.0770713, 36.8360234], [11.0772403, 36.8360041], [11.077361, 36.8359676], [11.0775299, 36.8358861], [11.0778357, 36.8356993], [11.0788576, 36.8349631], [11.0789408, 36.8349137], [11.0794531, 36.8345895], [11.0795278, 36.8345203], [11.079568, 36.8344452], [11.079678, 36.8338398], [11.0797052, 36.833617], [11.079737, 36.8334491], [11.079791, 36.8333315], [11.0800673, 36.8330009], [11.0801715, 36.8328415], [11.0802068, 36.8327025], [11.0802466, 36.8325345], [11.0802577, 36.8323676], [11.0802198, 36.8322254], [11.0801666, 36.8321293], [11.0800727, 36.8319962], [11.0800455, 36.8318518], [11.0800807, 36.8316978], [11.0801639, 36.8315303], [11.0803248, 36.8313436], [11.080526, 36.8311632], [11.0806654, 36.8310623], [11.0808049, 36.8309872], [11.0809122, 36.8309142], [11.0809842, 36.8308321], [11.0809815, 36.8307441], [11.0809306, 36.8306174], [11.0808049, 36.8304848], [11.0806919, 36.8303834], [11.0806677, 36.8303147], [11.0806869, 36.8302379], [11.0807325, 36.83018], [11.0807915, 36.8301478], [11.0809632, 36.8299417], [11.0810946, 36.8297484], [11.0811643, 36.8296389], [11.0812689, 36.8295273], [11.0813843, 36.8294092], [11.0814621, 36.8292804], [11.0815559, 36.8291301], [11.0816123, 36.8290614], [11.0817464, 36.8289391], [11.082028, 36.8286621], [11.082195, 36.8285048], [11.0823935, 36.8282772], [11.0825624, 36.8281012], [11.0827497, 36.8279386]]}}, {"type": "Feature", "properties": {"nom": "Oued", "type": "oued", "waterway": "stream", "osm_id": 208042369}, "geometry": {"type": "LineString", "coordinates": [[11.0645919, 36.852697], [11.0645051, 36.8525922]]}}, {"type": "Feature", "properties": {"nom": "Oued", "type": "oued", "waterway": "stream", "osm_id": 208042370}, "geometry": {"type": "LineString", "coordinates": [[11.0632204, 36.854322], [11.0636871, 36.8533992], [11.0638292, 36.8530622], [11.0640304, 36.8529678], [11.0642342, 36.8528819], [11.064304, 36.8528519], [11.0644565, 36.8527828], [11.0645919, 36.852697]]}}, {"type": "Feature", "properties": {"nom": "واد الشيوة", "type": "oued", "waterway": "stream", "osm_id": 208046124}, "geometry": {"type": "LineString", "coordinates": [[11.0726672, 36.8536033], [11.0727208, 36.8534445], [11.0727608, 36.853328], [11.0728359, 36.8532421], [11.0729354, 36.8531397], [11.0730856, 36.8529552], [11.0732329, 36.8527699], [11.0733455, 36.8526841], [11.0734343, 36.8525603], [11.0735065, 36.8524222], [11.0736382, 36.8522812], [11.0736942, 36.852169], [11.073724, 36.8520494], [11.07396, 36.8519335], [11.0740858, 36.8519114], [11.0741556, 36.8519114], [11.0743165, 36.8518428], [11.0745233, 36.8517833], [11.0746091, 36.8517919], [11.0746813, 36.8518685], [11.0746866, 36.8519458], [11.0747081, 36.8520359], [11.0747617, 36.8520917], [11.0748583, 36.8520359], [11.0749256, 36.8520452], [11.0750246, 36.8521003], [11.0751104, 36.8521261], [11.0751938, 36.8520623], [11.0752123, 36.8520145], [11.0751241, 36.8519893], [11.0750436, 36.8519507], [11.0750085, 36.8518771], [11.0750836, 36.8518084], [11.0752177, 36.8517483], [11.0753279, 36.8517661], [11.0754299, 36.8518305], [11.0755157, 36.8518348], [11.0755986, 36.8517612], [11.0756927, 36.8516545], [11.0757702, 36.8516024], [11.0757971, 36.8514994], [11.0757434, 36.851435], [11.0757035, 36.8513712], [11.0757488, 36.8512976], [11.0757678, 36.8512124], [11.0757488, 36.8511345], [11.075781, 36.8510486], [11.0759419, 36.85098], [11.0761165, 36.8508947], [11.0762369, 36.850804], [11.0763525, 36.8506329], [11.0764354, 36.8503876], [11.0764998, 36.8501858], [11.0765534, 36.8500141], [11.0766476, 36.8498943], [11.0768139, 36.8498642], [11.076926, 36.8498617], [11.0770714, 36.8498728], [11.0771733, 36.8498428], [11.0772586, 36.8497801], [11.0773611, 36.8497655], [11.0774678, 36.8498016], [11.0775864, 36.8498943], [11.0777468, 36.8500462], [11.07786, 36.8500917], [11.0779828, 36.8501278], [11.0781497, 36.8501089], [11.0782725, 36.8500591], [11.078316, 36.8499844], [11.0783637, 36.8498273], [11.0784286, 36.8497054], [11.0784871, 36.8496299], [11.0785783, 36.849574], [11.0787129, 36.8495337], [11.0788733, 36.8494753], [11.0790128, 36.8493895], [11.0790825, 36.8492736], [11.0791421, 36.8491302], [11.079185, 36.84904], [11.0792703, 36.8489774], [11.0793996, 36.8488941], [11.0796571, 36.8487782], [11.0798019, 36.8487395], [11.0799092, 36.8487438], [11.0800326, 36.8487181], [11.0802627, 36.8486425], [11.0803968, 36.8486468], [11.0805797, 36.8486236], [11.0808045, 36.8486125], [11.0808694, 36.8485678], [11.0808855, 36.8485034], [11.0808635, 36.8483764], [11.0808313, 36.8482905], [11.0807509, 36.8482476], [11.0807241, 36.8481746], [11.0807675, 36.8480828], [11.0808152, 36.8479814], [11.0808367, 36.8478956], [11.0809123, 36.8478424], [11.0809976, 36.8478183], [11.0811055, 36.847735], [11.081143, 36.8476535], [11.0811698, 36.8475719], [11.0812712, 36.8475307], [11.0817277, 36.8474689], [11.0820067, 36.8474861], [11.0821086, 36.8474603], [11.0821998, 36.8473702], [11.0823334, 36.8471658], [11.082409, 36.8470868], [11.0825378, 36.8469967], [11.0827357, 36.8469125], [11.0828752, 36.8468009], [11.082961, 36.8466421], [11.0831384, 36.8461939]]}}, {"type": "Feature", "properties": {"nom": "Oued", "type": "oued", "waterway": "stream", "osm_id": 208046739}, "geometry": {"type": "LineString", "coordinates": [[11.0832179, 36.8458823], [11.0832279, 36.8457942]]}}, {"type": "Feature", "properties": {"nom": "واد الشيوة", "type": "oued", "waterway": "stream", "osm_id": 208046740}, "geometry": {"type": "LineString", "coordinates": [[11.0752851, 36.8556891], [11.0752797, 36.8555861], [11.0751349, 36.855393], [11.0750008, 36.8552427], [11.0749686, 36.8550882], [11.0750276, 36.8548607], [11.0751129, 36.8547423], [11.0752314, 36.854689], [11.0754728, 36.8547148], [11.0756928, 36.8547792], [11.075902, 36.8549165], [11.07602, 36.8549552], [11.0761702, 36.8549552], [11.0762614, 36.8549208], [11.0764486, 36.8546135], [11.0764974, 36.8544572], [11.0765082, 36.8542941], [11.0766101, 36.8541396], [11.0767549, 36.8540237], [11.0768944, 36.853925], [11.0771251, 36.8538778], [11.077227, 36.8539035], [11.0773289, 36.8540237], [11.0774464, 36.8541027], [11.0775649, 36.8541611], [11.0776771, 36.8541757], [11.078037, 36.8540409], [11.0783589, 36.8539035], [11.0784871, 36.8538881], [11.0785574, 36.8539336], [11.0786056, 36.8540323], [11.0786909, 36.8541156], [11.0788363, 36.8541696], [11.0790664, 36.8541542], [11.0791791, 36.8541241], [11.0792542, 36.8540297], [11.0793347, 36.8539095], [11.0794259, 36.8537292], [11.0794902, 36.853652], [11.0795117, 36.853549], [11.0794098, 36.8533258], [11.0794479, 36.8532382], [11.0795391, 36.8532124], [11.0796512, 36.8531583], [11.0797858, 36.8530407], [11.0801125, 36.852772], [11.0803378, 36.852596], [11.0807294, 36.8522698], [11.0808796, 36.8521625], [11.0812015, 36.8520294], [11.0814107, 36.8519178], [11.0816467, 36.851789], [11.0819257, 36.8515014], [11.0819579, 36.8514156], [11.0818989, 36.8513383], [11.0816896, 36.8511452], [11.0815877, 36.851025], [11.0815775, 36.8508988], [11.0816419, 36.8507528], [11.0816647, 36.8506908], [11.0816955, 36.8506069], [11.0816687, 36.8504008], [11.0817009, 36.8501862], [11.0817385, 36.8500359], [11.0818618, 36.8498685], [11.0821193, 36.8497269], [11.0824412, 36.8495337], [11.0825646, 36.8494264], [11.082586, 36.8493276], [11.0825855, 36.8492135], [11.0825968, 36.8490873], [11.0826611, 36.8489456], [11.082688, 36.848834], [11.0827196, 36.8487413], [11.0828859, 36.8484537], [11.0829556, 36.8483721], [11.0830415, 36.8482476], [11.0830683, 36.8481317], [11.083079, 36.8480029], [11.0830415, 36.8478784], [11.0830522, 36.8477282], [11.0831112, 36.8475049], [11.0831434, 36.8474148], [11.0831541, 36.8471444], [11.0830367, 36.8469194], [11.0829884, 36.8468121], [11.082961, 36.8466421]]}}, {"type": "Feature", "properties": {"nom": "Oued Chioua", "type": "oued", "waterway": "stream", "osm_id": 208046746}, "geometry": {"type": "LineString", "coordinates": [[11.0832279, 36.8457942], [11.0831193, 36.8456483], [11.082961, 36.8454852], [11.082902, 36.8453757], [11.0828966, 36.8452233], [11.0828886, 36.8451181], [11.0828189, 36.8449206], [11.0829288, 36.8447511], [11.0829986, 36.8446609], [11.0830844, 36.8446244], [11.0832641, 36.8445235], [11.083484, 36.8443475], [11.0837228, 36.8441823], [11.0839159, 36.8440642], [11.0839963, 36.8440213], [11.0841653, 36.8439397], [11.0842726, 36.8439118], [11.0844631, 36.8438903], [11.0845274, 36.843871], [11.0846052, 36.8438281], [11.0848359, 36.843665], [11.0849727, 36.8436006], [11.0852087, 36.8435211], [11.0854662, 36.8434095], [11.0856888, 36.8433215], [11.0859034, 36.8432249], [11.0861046, 36.8430897], [11.086244, 36.8429759], [11.0863808, 36.8428149], [11.0865176, 36.8426239], [11.0866598, 36.8423942], [11.0867885, 36.8421903], [11.0868261, 36.8420873], [11.0868475, 36.8419864], [11.0868422, 36.8418898], [11.0868019, 36.841791], [11.0867483, 36.841703], [11.0866517, 36.8416], [11.0865739, 36.8415313], [11.086523, 36.8414411], [11.0862521, 36.8408938], [11.0860965, 36.8405997], [11.0860884, 36.8405641], [11.0860674, 36.8404713], [11.0859896, 36.8403897], [11.085598, 36.8400441], [11.0852574, 36.8396878], [11.0851421, 36.839574], [11.0851179, 36.8395139], [11.0851662, 36.8393508], [11.085185, 36.8392091], [11.085244, 36.8383827], [11.0852467, 36.8381208], [11.085193, 36.8373651], [11.0851501, 36.8372041], [11.0850428, 36.8369122], [11.0845815, 36.8358989], [11.0843937, 36.8355706], [11.0843937, 36.8354654], [11.0844447, 36.8352743], [11.0844581, 36.8351563], [11.0844313, 36.835094], [11.084324, 36.8349759], [11.0839726, 36.8346196], [11.0837178, 36.8343834], [11.083699, 36.8343147], [11.0837178, 36.8341001], [11.0837285, 36.8338489], [11.08375, 36.8337952], [11.0837929, 36.8337458], [11.0838787, 36.8337008], [11.0841201, 36.8335161], [11.0842542, 36.8333959], [11.0842757, 36.8333423], [11.0842784, 36.8332821], [11.0842381, 36.8332285], [11.084147, 36.8331576], [11.0840316, 36.833046], [11.0840128, 36.8329666], [11.0840343, 36.8329], [11.0841094, 36.8328249], [11.0842274, 36.8327669], [11.0843454, 36.8326467], [11.0844608, 36.8324363], [11.0845757, 36.8322511], [11.0847102, 36.832037], [11.0848416, 36.8318824], [11.0851206, 36.8315389], [11.085539, 36.8310409], [11.085649, 36.8310151], [11.0858367, 36.8309593], [11.0860567, 36.8308648], [11.0863088, 36.8307167], [11.0864015, 36.8306185]]}}, {"type": "Feature", "properties": {"nom": "Oued", "type": "oued", "waterway": "stream", "osm_id": 208046749}, "geometry": {"type": "LineString", "coordinates": [[11.0831384, 36.8461939], [11.0831465, 36.846093]]}}, {"type": "Feature", "properties": {"nom": "واد الشيوة", "type": "oued", "waterway": "stream", "osm_id": 208046752}, "geometry": {"type": "LineString", "coordinates": [[11.0831465, 36.846093], [11.0832179, 36.8458823]]}}, {"type": "Feature", "properties": {"nom": "Oued", "type": "oued", "waterway": "stream", "osm_id": 208048264}, "geometry": {"type": "LineString", "coordinates": [[11.1004174, 36.8384063], [11.1004711, 36.8382622], [11.1004919, 36.8382062], [11.1004656, 36.8381229], [11.1002189, 36.8377365], [11.1001277, 36.8375433], [11.1000574, 36.8373604], [11.100058, 36.837041], [11.1000637, 36.836901], [11.1000655, 36.836858], [11.1000681, 36.8367937], [11.1000842, 36.8366863], [11.1001111, 36.8365447], [11.1000823, 36.83644]]}}, {"type": "Feature", "properties": {"nom": "Oued", "type": "oued", "waterway": "stream", "osm_id": 208048265}, "geometry": {"type": "LineString", "coordinates": [[11.1015963, 36.8379516], [11.1014259, 36.8378138]]}}, {"type": "Feature", "properties": {"nom": "Oued", "type": "oued", "waterway": "stream", "osm_id": 208048266}, "geometry": {"type": "LineString", "coordinates": [[11.1002774, 36.8388287], [11.1004174, 36.8384063]]}}, {"type": "Feature", "properties": {"nom": "Oued", "type": "oued", "waterway": "stream", "osm_id": 208048268}, "geometry": {"type": "LineString", "coordinates": [[11.1017283, 36.8379807], [11.1015963, 36.8379516]]}}, {"type": "Feature", "properties": {"nom": "Oued", "type": "oued", "waterway": "stream", "osm_id": 208048269}, "geometry": {"type": "LineString", "coordinates": [[11.1014259, 36.8378138], [11.1013347, 36.8377365], [11.1012669, 36.8376928], [11.1012108, 36.8376566], [11.1010075, 36.8375948], [11.1008465, 36.8375819], [11.1006368, 36.8375236], [11.1004817, 36.8374274], [11.1003637, 36.8373243], [11.1002886, 36.837187], [11.1002189, 36.8370968], [11.1001331, 36.8370066], [11.1000637, 36.836901]]}}, {"type": "Feature", "properties": {"nom": "Cours d'eau", "type": "water", "waterway": "", "osm_id": 208048270}, "geometry": {"type": "LineString", "coordinates": [[11.0998273, 36.836998], [11.0996765, 36.8370813], [11.0995483, 36.8371097], [11.0993659, 36.8375862], [11.099602, 36.8376721], [11.0997844, 36.8378009], [11.0999453, 36.8379769], [11.1000472, 36.8381272], [11.1001867, 36.8381959], [11.1004222, 36.838232], [11.1004711, 36.8382622], [11.1006046, 36.8382749], [11.1007017, 36.8382088], [11.1008197, 36.8381401], [11.1008948, 36.8379812], [11.1009372, 36.8378284], [11.1010552, 36.8377812], [11.1011947, 36.8377253], [11.1012669, 36.8376928], [11.1012483, 36.8376223], [11.1012596, 36.8375261], [11.1013615, 36.837466], [11.1015332, 36.8375304], [11.1015654, 36.8374875], [11.1014956, 36.8373243], [11.1013937, 36.8372084], [11.1012167, 36.8371526], [11.1010504, 36.8371612], [11.1007119, 36.8372316], [11.1004442, 36.8371827], [11.100294, 36.8370882], [11.1002296, 36.8369637], [11.1001491, 36.8368821], [11.1000655, 36.836858], [11.0999668, 36.8368864], [11.0998809, 36.8369422], [11.0998273, 36.836998]]}}, {"type": "Feature", "properties": {"nom": "Oued", "type": "oued", "waterway": "stream", "osm_id": 208190178}, "geometry": {"type": "LineString", "coordinates": [[11.1074742, 36.849984], [11.1087466, 36.8486766], [11.1091363, 36.8482762], [11.1094125, 36.848001], [11.1097013, 36.8478402], [11.1098896, 36.8477659], [11.1099766, 36.8477528], [11.1101306, 36.8477297], [11.1105148, 36.847784], [11.1112228, 36.8479427], [11.1116246, 36.8479949], [11.1121192, 36.8479829], [11.1127193, 36.8478462], [11.1133872, 36.8476956], [11.1139546, 36.8475509], [11.1144392, 36.8475167], [11.1151397, 36.8475147], [11.1156218, 36.8475469], [11.1156935, 36.8475545], [11.1162646, 36.8476152], [11.1176907, 36.8478241], [11.1187829, 36.8479547], [11.1193755, 36.8480914], [11.1200057, 36.848224], [11.1205832, 36.8484711], [11.1212033, 36.8488187], [11.1226245, 36.8496063]]}}, {"type": "Feature", "properties": {"nom": "Oued", "type": "oued", "waterway": "stream", "osm_id": 208198021}, "geometry": {"type": "LineString", "coordinates": [[11.1228957, 36.8497187], [11.1237292, 36.8501247], [11.1239627, 36.8502071], [11.1248114, 36.8503678]]}}, {"type": "Feature", "properties": {"nom": "Oued", "type": "oued", "waterway": "stream", "osm_id": 208198023}, "geometry": {"type": "LineString", "coordinates": [[11.1226245, 36.8496063], [11.1228957, 36.8497187]]}}, {"type": "Feature", "properties": {"nom": "Oued", "type": "oued", "waterway": "stream", "osm_id": 208214632}, "geometry": {"type": "LineString", "coordinates": [[11.1049503, 36.8526762], [11.1054247, 36.8520617], [11.1060095, 36.8513963], [11.1068356, 36.8505593], [11.1074742, 36.849984]]}}, {"type": "Feature", "properties": {"nom": "Oued", "type": "oued", "waterway": "stream", "osm_id": 208214633}, "geometry": {"type": "MultiLineString", "coordinates": [[[11.0907209, 36.859041], [11.0910081, 36.8591273], [11.0918903, 36.8593887], [11.0921239, 36.8594406], [11.0925019, 36.8594831], [11.0926521, 36.8594917], [11.0932075, 36.8594063], [11.0934567, 36.8593501], [11.0936123, 36.8592814], [11.0940629, 36.8590024], [11.0941374, 36.8589818], [11.0942322, 36.8589556], [11.0953426, 36.8589256], [11.096493, 36.8588565], [11.0966217, 36.8588565], [11.0967076, 36.8588736], [11.0984325, 36.8599085], [11.0985344, 36.8599685], [11.0986334, 36.8599853], [11.0987407, 36.8599595], [11.0989099, 36.8598827], [11.0993147, 36.8597836], [11.0997492, 36.8596848], [11.0998887, 36.859629], [11.1001867, 36.8594578], [11.100253545739081, 36.85941465811182]], [[11.104377823614731, 36.85414037390049], [11.1044675, 36.853745], [11.1045479, 36.8534059], [11.1045962, 36.8532771], [11.1046124, 36.853243], [11.1046455, 36.8531737], [11.104725, 36.8530067], [11.1048725, 36.8527762], [11.1049503, 36.8526762]]]}}, {"type": "Feature", "properties": {"nom": "Rivière", "type": "riviere", "waterway": "river", "osm_id": 208412750}, "geometry": {"type": "LineString", "coordinates": [[11.0372808, 36.8382266], [11.037317, 36.8381071], [11.0373063, 36.8378795], [11.0371561, 36.8374158], [11.0371454, 36.8372913], [11.0371829, 36.8371711], [11.0372741, 36.8369607], [11.0374353, 36.836789], [11.0375048, 36.836643], [11.0376014, 36.8363854], [11.0376818, 36.8362523], [11.0377998, 36.8361064], [11.0379822, 36.8359174], [11.0380466, 36.8358316], [11.0381485, 36.8357328], [11.0383148, 36.8357199], [11.038402, 36.8357536], [11.0385294, 36.8358144], [11.0387064, 36.8358788], [11.0389009, 36.8359039], [11.039377, 36.8358745], [11.0396345, 36.8358445], [11.0398343, 36.8358567], [11.0400314, 36.8359003], [11.040128, 36.8360076], [11.0402152, 36.8360885], [11.0403386, 36.8361701], [11.0404727, 36.8361873], [11.0405786, 36.8361579], [11.040702, 36.8360291], [11.0407623, 36.8359125], [11.0408643, 36.8357494], [11.0409863, 36.8356598], [11.0410936, 36.8356169], [11.0412116, 36.8356255], [11.0413149, 36.8356635], [11.0417172, 36.8358009], [11.0418661, 36.8358101], [11.0420055, 36.8357972], [11.042259, 36.8357279], [11.042774, 36.8354617], [11.0430516, 36.8352262], [11.0431817, 36.8350581], [11.0432769, 36.8348312], [11.0433949, 36.8345521], [11.0435505, 36.8342559], [11.043863, 36.8337357], [11.043926, 36.8336161], [11.0439904, 36.8334358], [11.0440118, 36.8332898], [11.0440118, 36.8331438], [11.0440011, 36.8328046], [11.0439636, 36.8325857], [11.0439206, 36.832328], [11.0438415, 36.8320354], [11.0437973, 36.8318343], [11.0437181, 36.8315245], [11.0436001, 36.8310479], [11.0435183, 36.8307136], [11.0434875, 36.8305369], [11.0435237, 36.8303658], [11.0436256, 36.8300867], [11.0436953, 36.8299236], [11.0437597, 36.8297432], [11.0438791, 36.8296095], [11.0440816, 36.8293525], [11.0443713, 36.8289961], [11.044618, 36.8286182], [11.044838, 36.8283091], [11.0450472, 36.82803], [11.0451974, 36.8279098], [11.0453422, 36.8278496], [11.0455675, 36.8277809], [11.0459216, 36.8276521], [11.0463185, 36.8274804], [11.0466082, 36.827343], [11.0468657, 36.827154], [11.0470374, 36.8269179], [11.0471728, 36.8266553], [11.0472519, 36.8264412], [11.0472788, 36.8262308], [11.0472587, 36.8260885], [11.0471768, 36.8259002], [11.0471125, 36.8257928], [11.0469891, 36.825707], [11.0468027, 36.8256462], [11.0466257, 36.825629], [11.0464151, 36.8256297], [11.0462287, 36.8255689], [11.0459162, 36.8253892], [11.0456761, 36.8252683], [11.0453489, 36.8251223], [11.0450646, 36.8249591], [11.0448983, 36.8248432], [11.0448004, 36.8247107], [11.0447414, 36.8245604], [11.0447307, 36.8243758], [11.044795, 36.8242513], [11.044956, 36.8241353], [11.0451437, 36.824058], [11.0462394, 36.8234992], [11.0466042, 36.8233403], [11.047032, 36.8231906], [11.0474773, 36.8230575], [11.0480137, 36.8229544], [11.0485247, 36.8227949], [11.0489951, 36.8226023], [11.0496871, 36.8223661], [11.0501216, 36.8222201], [11.050363, 36.8221257], [11.0505293, 36.8220612], [11.0508351, 36.8219711], [11.0513823, 36.8218079], [11.0518919, 36.8216189], [11.0522567, 36.8214429], [11.0525265, 36.8212919], [11.0526858, 36.8211723], [11.0528698, 36.8209742], [11.0529487, 36.8208159], [11.0529648, 36.820657], [11.0529433, 36.8204165], [11.0528468, 36.8200258], [11.0528253, 36.8197939], [11.0528253, 36.8195834], [11.0528682, 36.8193945], [11.0529541, 36.8192227], [11.0530452, 36.8190724], [11.0531863, 36.8189301], [11.0533848, 36.8188098], [11.0536101, 36.8187282], [11.0538124, 36.8187074], [11.0539948, 36.8187117], [11.0542163, 36.8187454], [11.0547565, 36.8189049], [11.055014, 36.8189221], [11.0552017, 36.8189049], [11.0554179, 36.8188528], [11.0556057, 36.8187583], [11.0557221, 36.8186516], [11.0559152, 36.8183595], [11.0562156, 36.8178099], [11.0567698, 36.8169933], [11.0571222, 36.8165258], [11.0574977, 36.8162552], [11.0578464, 36.8161307], [11.058297, 36.8159718], [11.0586064, 36.8159142], [11.0588176, 36.8158764], [11.0589948, 36.8158219], [11.059214, 36.8157132], [11.0593592, 36.8156712], [11.0594343, 36.8155853], [11.0595469, 36.8155338], [11.0596442, 36.8154742]]}}, {"type": "Feature", "properties": {"nom": "Oued", "type": "oued", "waterway": "stream", "osm_id": 208412753}, "geometry": {"type": "LineString", "coordinates": [[11.0531633, 36.854656], [11.0529755, 36.8546346], [11.0528307, 36.8546174], [11.0526553, 36.8546125], [11.0524498, 36.8545831], [11.0522728, 36.8545358], [11.0521617, 36.8544794], [11.051967, 36.8543513], [11.0518758, 36.854274], [11.0517969, 36.854166], [11.0516988, 36.8540293], [11.0515593, 36.8539134], [11.0514735, 36.8538147], [11.0513356, 36.8537239], [11.0511409, 36.8536173], [11.0510604, 36.8534971], [11.050996, 36.8533769], [11.0509639, 36.8532782], [11.0508995, 36.8531837], [11.0508351, 36.8530893], [11.0507371, 36.852966]]}}, {"type": "Feature", "properties": {"nom": "Cours d'eau", "type": "water", "waterway": "", "osm_id": 208415112}, "geometry": {"type": "LineString", "coordinates": [[11.0506742, 36.8122183], [11.050819, 36.8122183], [11.050937, 36.8121495], [11.0510068, 36.8120594], [11.0509585, 36.8119004], [11.0507922, 36.8117158], [11.0505524, 36.8115176], [11.0503469, 36.8113464], [11.0501608, 36.8112513], [11.0499553, 36.8111703], [11.0497156, 36.8110838], [11.0495637, 36.8109642], [11.0494098, 36.8107316], [11.0492542, 36.8104396], [11.0490649, 36.8102383], [11.0487108, 36.809942], [11.0482242, 36.8095677], [11.0480995, 36.8094137], [11.0478005, 36.8092112], [11.0474035, 36.8090008], [11.0468563, 36.8087173], [11.0465023, 36.8084897], [11.0462273, 36.8082927], [11.0459658, 36.8081332], [11.0457821, 36.8078976], [11.0455675, 36.80767], [11.0453368, 36.8073736], [11.0448648, 36.806841], [11.0439595, 36.8060501], [11.0435559, 36.8056556], [11.0429658, 36.8051616], [11.0425862, 36.8047229], [11.0422626, 36.8044232], [11.0422429, 36.804405], [11.0419304, 36.8041007], [11.041791, 36.8038559], [11.0417427, 36.8037657], [11.0416475, 36.8038424], [11.0415187, 36.8038166], [11.0412545, 36.8037141], [11.0411003, 36.8035846], [11.0410681, 36.8034601], [11.0410668, 36.8032202], [11.0409326, 36.8030892], [11.0406926, 36.8029296], [11.039951, 36.8025609], [11.0396948, 36.8024271], [11.0394319, 36.8023412], [11.0393515, 36.8023798], [11.0393233, 36.8025093], [11.0393676, 36.8027535], [11.0393944, 36.8030456], [11.0394413, 36.8033126], [11.03955, 36.8034837], [11.0397256, 36.8036304], [11.0398772, 36.8038059], [11.0399241, 36.8040213], [11.0400314, 36.8042038], [11.0400904, 36.804294], [11.0401495, 36.8044744], [11.040128, 36.8045904], [11.0401655, 36.8047235], [11.0402635, 36.8047701], [11.0404016, 36.8048438], [11.0404566, 36.8049591], [11.0404552, 36.8051273], [11.0405531, 36.8051996], [11.0407181, 36.8052432], [11.0408016, 36.8052482], [11.0408629, 36.8052518], [11.0410185, 36.8052175], [11.0411633, 36.8051745], [11.0413189, 36.8051144], [11.0413347, 36.8051087], [11.0414369, 36.8050714], [11.0415549, 36.8050714], [11.0415777, 36.8051266], [11.0415295, 36.8052082], [11.041331, 36.8053285], [11.0410849, 36.8055697], [11.041005, 36.8056822], [11.0409823, 36.8057232], [11.0409714, 36.8057885], [11.0409756, 36.805866], [11.0409956, 36.8059399], [11.0410399, 36.8060292], [11.0412116, 36.8061495], [11.0413779, 36.8061581], [11.0415174, 36.8061109], [11.0416998, 36.8061409], [11.0418553, 36.8062483], [11.0419211, 36.8064195], [11.0418728, 36.8066428], [11.041846, 36.8068533], [11.0418983, 36.8069828], [11.0421665, 36.8071546], [11.042483, 36.8073865], [11.0427955, 36.8075448], [11.0429725, 36.8076221], [11.0433091, 36.8078246], [11.0435183, 36.8079921], [11.0437812, 36.8081639], [11.0440615, 36.8084038], [11.0442385, 36.8086314], [11.0445657, 36.8088376], [11.0449292, 36.8089713], [11.0452255, 36.809091], [11.0455259, 36.8092026], [11.0459752, 36.8093536], [11.0462823, 36.8094603], [11.0467812, 36.8096708], [11.0470213, 36.8098089], [11.047268, 36.8099764], [11.0474021, 36.8101696], [11.0474518, 36.8103751], [11.0474826, 36.8105948], [11.0475805, 36.8107402], [11.047838, 36.8108991], [11.0481368, 36.8109814], [11.0484426, 36.8110501], [11.0488519, 36.8111783], [11.0492059, 36.81132], [11.0493545, 36.8114366], [11.0494098, 36.8115734], [11.0494742, 36.8116679], [11.0496244, 36.8117194], [11.0498159, 36.8117244], [11.0500589, 36.8118139], [11.0501501, 36.8119385], [11.0502772, 36.8120293], [11.050422, 36.8121023], [11.0505309, 36.8121661], [11.0506742, 36.8122183]]}}, {"type": "Feature", "properties": {"nom": "Cours d'eau", "type": "water", "waterway": "", "osm_id": 355553998}, "geometry": {"type": "MultiLineString", "coordinates": [[[11.0466888, 36.8233902], [11.0460292, 36.8236858], [11.0456191, 36.8239047], [11.0452617, 36.8240468], [11.0448611, 36.8242235], [11.0448347, 36.8241644], [11.0458061, 36.8236551], [11.0461827, 36.8234881], [11.0464466, 36.8233671], [11.0467584, 36.8232289], [11.0469647, 36.8231425], [11.0473461, 36.8230349], [11.0475619, 36.8229677], [11.0477994, 36.8229236], [11.0480344, 36.8228717], [11.0484494, 36.8227316], [11.0486701, 36.8226529], [11.0487924, 36.8225895], [11.0488692, 36.8225165], [11.0490011, 36.8224609], [11.0490563, 36.8224109], [11.0493657, 36.8223111], [11.0499701, 36.8221652], [11.0503011, 36.8220711], [11.0504906, 36.8220116], [11.0507473, 36.8219559], [11.0510687, 36.8218426], [11.0515268, 36.8216717], [11.0517427, 36.8215853], [11.0521241, 36.8214374], [11.0522488, 36.8213491], [11.0524311, 36.8212262], [11.0526086, 36.821088], [11.0527357, 36.8209689], [11.052834, 36.8208653], [11.05287, 36.8207616], [11.0528844, 36.8206195], [11.0528796, 36.8204774], [11.052858, 36.8203199], [11.0527885, 36.8201395], [11.0527141, 36.8199206], [11.0527021, 36.8197804], [11.0527045, 36.8196402], [11.0527645, 36.819429], [11.0528388, 36.8192965], [11.0529036, 36.8191467], [11.0529468, 36.8190238], [11.0530787, 36.8188683], [11.0532202, 36.818755], [11.0533809, 36.8186609], [11.0535752, 36.8185861], [11.0537743, 36.8185534], [11.053995, 36.8185438], [11.0542396, 36.8186014], [11.0544555, 36.8186878], [11.054669, 36.8187742], [11.0549448, 36.8188069], [11.0551559, 36.81878], [11.0553838, 36.8186686], [11.0555181, 36.8185611], [11.0556116, 36.818442], [11.0556356, 36.8183307], [11.0556764, 36.8182327], [11.055734, 36.8180676], [11.0557531, 36.8179774], [11.0558539, 36.8177565], [11.0560002, 36.8174819], [11.0561657, 36.8171958], [11.0562856, 36.8169693], [11.0563696, 36.8167753], [11.0564967, 36.8165007], [11.0565639, 36.8162914], [11.0566214, 36.8161512], [11.0566958, 36.8160533], [11.0567534, 36.815917], [11.0568421, 36.8158037], [11.0569716, 36.8157134], [11.057058, 36.8156942], [11.0571851, 36.8156904], [11.0573338, 36.8156462], [11.0575113, 36.8155598], [11.0576312, 36.8154638], [11.0577248, 36.8154504], [11.0578519, 36.8154504], [11.0580654, 36.8155099], [11.0582765, 36.8155829], [11.0583844, 36.8156366], [11.0585283, 36.8156366], [11.0586602, 36.8157115], [11.0588018, 36.8157576], [11.0589457, 36.8157365], [11.0589984, 36.8156462], [11.0589936, 36.8155387], [11.0590008, 36.8154619], [11.0590248, 36.8153831], [11.0591088, 36.8153716], [11.0592599, 36.815387], [11.0593922, 36.8153286]], [[11.0593922, 36.8153286], [11.0596442, 36.8154742]], [[11.0596442, 36.8154742], [11.0598065, 36.8155934]], [[11.0598065, 36.8155934], [11.0600455, 36.8157053]], [[11.0600455, 36.8157053], [11.0601431, 36.8157543]], [[11.0601431, 36.8157543], [11.0600202, 36.8157365], [11.0598523, 36.8156769], [11.0597228, 36.8156347], [11.0595693, 36.8156443], [11.0594254, 36.8157096], [11.0593055, 36.8157269], [11.0592455, 36.8157749], [11.0592431, 36.8158382], [11.0592743, 36.8158901], [11.0591639, 36.8159323], [11.0590632, 36.8159592], [11.0589025, 36.8159899], [11.0588114, 36.8160418], [11.0586506, 36.8161071], [11.0585115, 36.8161858], [11.0584204, 36.8162703], [11.0583388, 36.8163413], [11.0582405, 36.8163989], [11.0581134, 36.8164527], [11.0579311, 36.8165583], [11.057732, 36.8166774], [11.0575617, 36.8167696], [11.0573866, 36.8168886], [11.0572427, 36.8170326], [11.0571515, 36.8171555], [11.0570604, 36.8172323], [11.057022, 36.8173072], [11.0568997, 36.8174339], [11.056751, 36.817578], [11.0566022, 36.8177604], [11.0564535, 36.8179582], [11.0562137, 36.8182135], [11.0560937, 36.8183633], [11.055969, 36.8185745], [11.0559114, 36.8187224], [11.0558515, 36.8188357], [11.0557627, 36.8189086], [11.0555565, 36.8190008], [11.0552806, 36.8190738], [11.0550815, 36.8190853], [11.0548585, 36.8190872], [11.0546522, 36.8190507], [11.0544819, 36.8190027], [11.0543068, 36.8189336], [11.0540741, 36.8188626], [11.0538511, 36.8188414], [11.0536712, 36.8188664], [11.0534577, 36.818949], [11.053273, 36.8190795], [11.0531339, 36.8192562], [11.0530523, 36.8193752], [11.0529708, 36.8195327], [11.0529444, 36.8197074], [11.0529444, 36.8199052], [11.0529636, 36.8200972], [11.0530163, 36.8203219], [11.0530811, 36.8205792], [11.0530691, 36.8208557], [11.0530307, 36.8209958], [11.0529636, 36.8211072], [11.0527837, 36.8212742], [11.0526302, 36.8214221], [11.0525774, 36.8214586], [11.0524311, 36.8215162], [11.0523495, 36.8215776], [11.0523183, 36.8216429], [11.0522104, 36.8216141], [11.052148, 36.821641], [11.0520209, 36.8217159], [11.0518218, 36.8217965], [11.0515148, 36.8219155], [11.0512869, 36.8220096], [11.0510879, 36.8220615], [11.0508792, 36.8221172], [11.0506585, 36.822169], [11.0505074, 36.8222016], [11.0504091, 36.822242], [11.0503275, 36.8222938], [11.050162, 36.8223668], [11.0500157, 36.8223994], [11.0497734, 36.8224551], [11.0496343, 36.8224954], [11.049488, 36.8225396], [11.0493921, 36.8225895], [11.0491018, 36.8226721], [11.0487109, 36.822793], [11.0484326, 36.8228756], [11.0480033, 36.8229965], [11.0477706, 36.8230407], [11.0475763, 36.8231041], [11.0472405, 36.8232116], [11.0469023, 36.8233114], [11.0466888, 36.8233902]]]}}, {"type": "Feature", "properties": {"nom": "Cours d'eau", "type": "boatyard", "waterway": "boatyard", "osm_id": 1432370067}, "geometry": {"type": "MultiLineString", "coordinates": [[[11.1135596, 36.8339488], [11.1134553, 36.8338717]], [[11.1134553, 36.8338717], [11.113425, 36.8338983]], [[11.113425, 36.8338983], [11.1129962, 36.8335957]], [[11.1129962, 36.8335957], [11.1130538, 36.8335422]], [[11.1130538, 36.8335422], [11.1129937, 36.8334882]], [[11.1129937, 36.8334882], [11.1130165, 36.833466]], [[11.1130165, 36.833466], [11.1128057, 36.8333099]], [[11.1128057, 36.8333099], [11.1128602, 36.8332679]], [[11.1128602, 36.8332679], [11.1130685, 36.8334228]], [[11.1130685, 36.8334228], [11.1131285, 36.8333779]], [[11.1131285, 36.8333779], [11.1129223, 36.8332216]], [[11.1129223, 36.8332216], [11.1131571, 36.8330387]], [[11.1131571, 36.8330387], [11.1135719, 36.8333898]], [[11.1135719, 36.8333898], [11.1143503, 36.8328119]], [[11.1143503, 36.8328119], [11.1146208, 36.8330485], [11.1137036, 36.8337512], [11.113755, 36.8337951], [11.1135596, 36.8339488]]]}}]}