{"type":"FeatureCollection","features":[{"type":"Feature","geometry":{"type":"Polygon","coordinates":[[[11.0753012,36.847456],[11.0758525,36.8477761],[11.0760731,36.8479042],[11.0766154,36.8470697],[11.0762399,36.8470568],[11.0759288,36.8470911],[11.0756767,36.8471641],[11.0755104,36.8472714],[11.0753012,36.847456]]]},"properties":{"nom":"nan","usage_sol":"commercial"}},{"type":"Feature","geometry":{"type":"Polygon","coordinates":[[[11.0807271,36.8470332],[11.0814004,36.8475011],[11.081631,36.847338],[11.0820226,36.8474539],[11.0822962,36.8470375],[11.081969,36.8468464],[11.0818,36.84684],[11.0817786,36.846488],[11.0814272,36.8465502],[11.0810168,36.8465996],[11.0810191,36.8466464],[11.0807271,36.8470332]]]},"properties":{"nom":"nan","usage_sol":"commercial"}},{"type":"Feature","geometry":{"type":"Polygon","coordinates":[[[11.1149187,36.8344974],[11.1161191,36.8356996],[11.1164192,36.8355169],[11.1166177,36.8354654],[11.116902,36.8355233],[11.1171488,36.8356006],[11.1175243,36.8350875],[11.1171904,36.8342567],[11.1168296,36.8339916],[11.1165855,36.8341709],[11.1161483,36.8339176],[11.1156494,36.8337973],[11.1155636,36.8340185],[11.1154215,36.8341945],[11.1149187,36.8344974]]]},"properties":{"nom":"nan","usage_sol":"commercial"}},{"type":"Feature","geometry":{"type":"Polygon","coordinates":[[[11.1002135,36.8576379],[11.0999155,36.8577448],[11.1002588,36.858865],[11.1006373,36.8585822],[11.1004466,36.8583371],[11.1006331,36.8581984],[11.1002135,36.8576379]]]},"properties":{"nom":"nan","usage_sol":"construction"}},{"type":"Feature","geometry":{"type":"Polygon","coordinates":[[[11.0904479,36.8324839],[11.0887482,36.8337757],[11.0893709,36.8341554],[11.08817,36.8355675],[11.088941,36.8359828],[11.0890448,36.8366236],[11.0880811,36.8362202],[11.0871173,36.837561],[11.0879031,36.8380001],[11.0876511,36.8384035],[11.0874139,36.8383442],[11.0858423,36.8398155],[11.0861685,36.8400647],[11.0858275,36.8407173],[11.0862129,36.8412987],[11.0857088,36.8415361],[11.0853827,36.8419276],[11.0849675,36.8417378],[11.0841373,36.8414767],[11.0853975,36.8396494],[11.0839,36.838273],[11.0828622,36.8393291],[11.0825508,36.839246],[11.0821209,36.8397088],[11.0822988,36.8398867],[11.0815871,36.8404326],[11.081261,36.8402664],[11.0802083,36.8413106],[11.0792891,36.840575],[11.078014,36.8393528],[11.079378,36.8380119],[11.0776433,36.8371338],[11.0773468,36.8374542],[11.0780881,36.8380357],[11.0773171,36.8385459],[11.0760717,36.8375254],[11.0751673,36.8384866],[11.0739664,36.8391273],[11.0735809,36.8401597],[11.0744112,36.8405156],[11.0738478,36.8413818],[11.0750635,36.8420463],[11.0749301,36.8422717],[11.0753452,36.8426158],[11.0746484,36.8435057],[11.0746336,36.844182],[11.0750635,36.8442769],[11.0749449,36.844538],[11.07579,36.8450007],[11.075449,36.8455939],[11.0760124,36.8459024],[11.0755825,36.8465787],[11.0754046,36.8465075],[11.0750487,36.8468991],[11.0759086,36.8473736],[11.0778509,36.8482516],[11.0781178,36.8480025],[11.0794225,36.8485838],[11.0798821,36.8482991],[11.0813054,36.8489753],[11.081513,36.8488092],[11.0818985,36.8490228],[11.0817206,36.8494974],[11.0822247,36.8499482],[11.0819133,36.8508024],[11.0827881,36.8510397],[11.0825953,36.8514193],[11.0821357,36.8518583],[11.081943,36.8517753],[11.0809051,36.8523447],[11.0796745,36.8533531],[11.0796301,36.85397],[11.0819726,36.8554767],[11.0827288,36.8548598],[11.0839742,36.8556309],[11.0829363,36.8563546],[11.0845376,36.8573629],[11.0849675,36.8571257],[11.0856347,36.8574934],[11.0855161,36.8577307],[11.086035,36.8580154],[11.0852196,36.8587865],[11.0847155,36.8595101],[11.0840186,36.8590831],[11.0837221,36.8593915],[11.0843152,36.8598779],[11.0839742,36.8604591],[11.0858126,36.8614081],[11.0863167,36.8610641],[11.0866726,36.8613132],[11.0859461,36.8620012],[11.0871322,36.8631044],[11.0876956,36.8630688],[11.0879773,36.8632349],[11.0878587,36.8634721],[11.0881255,36.8636145],[11.0879099,36.8640392],[11.087534,36.8639588],[11.0873743,36.864365],[11.0881001,36.8646739],[11.0880777,36.8649635],[11.0882621,36.8650669],[11.088152,36.866031],[11.0877029,36.8658819],[11.0867818,36.8669193],[11.0875911,36.8672645],[11.0880856,36.8667989],[11.0881924,36.8676448],[11.0890324,36.8676498],[11.0900421,36.8680068],[11.0903559,36.8676325],[11.0897821,36.8673841],[11.0898576,36.8671633],[11.0891995,36.8668837],[11.0890746,36.8663962],[11.0894515,36.8656844],[11.0890532,36.8654624],[11.089166,36.8652916],[11.0894961,36.8654183],[11.0900058,36.8647409],[11.0890151,36.8642906],[11.0891041,36.8639881],[11.0907841,36.8647129],[11.0909128,36.8645351],[11.0911529,36.8646139],[11.091131,36.8648479],[11.0921055,36.8652417],[11.0928367,36.8644134],[11.0933539,36.863857],[11.0929925,36.8636034],[11.0923507,36.864156],[11.0918647,36.8638987],[11.0916092,36.8641194],[11.090312,36.8633962],[11.0899075,36.8638532],[11.0891998,36.8635775],[11.0893709,36.8630807],[11.0895637,36.8631044],[11.0897416,36.8627248],[11.0896082,36.8626062],[11.0900974,36.8613607],[11.0906164,36.8615267],[11.0908832,36.8611709],[11.0919656,36.8615861],[11.0923955,36.8611234],[11.0911501,36.8602693],[11.0914763,36.8596762],[11.0909129,36.8593915],[11.0909722,36.8593084],[11.0923659,36.8597118],[11.0929886,36.859],[11.0912687,36.8580984],[11.0913725,36.85779],[11.0915801,36.8579324],[11.0922621,36.8574341],[11.0943971,36.8585136],[11.0941895,36.8587034],[11.0947974,36.8588221],[11.0952273,36.8585255],[11.0956791,36.8588727],[11.0964073,36.8588109],[11.0958649,36.858312],[11.0965469,36.8572918],[11.0972734,36.8578137],[11.0974958,36.8576832],[11.0979101,36.8580715],[11.0976092,36.8582561],[11.0979344,36.8585665],[11.0986313,36.8581954],[11.0992884,36.8589242],[11.0976241,36.8600035],[11.0966522,36.8613537],[11.0972802,36.8617685],[11.0965452,36.8624943],[11.0967677,36.8626216],[11.0966268,36.8630402],[11.0973269,36.8634587],[11.0978591,36.8628871],[11.0974292,36.8625621],[11.0978127,36.8621731],[11.0983665,36.8624911],[11.0985198,36.8623767],[11.0988226,36.8625164],[11.0989704,36.8623549],[11.0981358,36.8618451],[11.099607,36.8605512],[11.100078,36.8608899],[11.1006109,36.8605888],[11.1005327,36.8604167],[11.1008059,36.8601039],[11.1019921,36.8592124],[11.1015666,36.8586949],[11.1024588,36.8581347],[11.1027567,36.8578481],[11.1027776,36.8573602],[11.1016768,36.8565918],[11.1013803,36.85658],[11.1011579,36.8567579],[11.1009651,36.8566749],[11.1007576,36.8562597],[11.1002535,36.8559394],[11.100379,36.8557694],[11.1027591,36.856924],[11.1031446,36.8570189],[11.1032929,36.8569003],[11.1040787,36.8559987],[11.1043455,36.8550852],[11.1047458,36.8551564],[11.1054278,36.8543971],[11.105843,36.8545039],[11.1064953,36.8541717],[11.1063619,36.8538751],[11.1065843,36.8534836],[11.1071477,36.8537565],[11.1070143,36.854231],[11.1086748,36.8552513],[11.1088972,36.8552513],[11.1105578,36.8534243],[11.1106912,36.8533413],[11.1111805,36.8531752],[11.1119959,36.8531633],[11.112752,36.8536497],[11.1128855,36.8535904],[11.1136416,36.8539107],[11.1141457,36.8535311],[11.1143385,36.853104],[11.1138195,36.8526295],[11.1142792,36.851799],[11.115228,36.8521549],[11.115228,36.8523329],[11.1161324,36.8527006],[11.1156728,36.8530091],[11.1159694,36.8535311],[11.1165031,36.8533413],[11.1167848,36.8534836],[11.117022,36.8533531],[11.1173927,36.8535904],[11.1186826,36.8531989],[11.1186084,36.8530684],[11.1189791,36.8528549],[11.1186677,36.8525227],[11.1172296,36.8529854],[11.1170813,36.8528074],[11.1173334,36.8526057],[11.1170665,36.8522142],[11.1175854,36.8517515],[11.1175113,36.851621],[11.117793,36.851016],[11.1169924,36.8506719],[11.116088,36.8515973],[11.1154208,36.8513007],[11.1155097,36.8507787],[11.1147091,36.8506482],[11.1141605,36.8503872],[11.1139826,36.8505295],[11.1135082,36.8503753],[11.1132858,36.8504702],[11.1130931,36.8503872],[11.1133154,36.8501736],[11.1126186,36.8498177],[11.1120849,36.850399],[11.1116104,36.8500906],[11.1131079,36.8487025],[11.1125445,36.8475635],[11.1120552,36.8475397],[11.1118476,36.8478364],[11.1109581,36.8477652],[11.1106615,36.8476465],[11.1109581,36.8473736],[11.1105726,36.8471601],[11.1101723,36.8475042],[11.1096237,36.8473736],[11.1103057,36.846733],[11.1093568,36.8460567],[11.1102167,36.845238],[11.1108691,36.8455821],[11.1114029,36.8450363],[11.1118773,36.8452143],[11.112411,36.8447041],[11.1121886,36.8444668],[11.1125445,36.844099],[11.1118921,36.8435176],[11.1124852,36.842865],[11.1134785,36.8433396],[11.1141605,36.8434701],[11.1147536,36.8423904],[11.1161324,36.842948],[11.1160138,36.8436718],[11.1166514,36.8439447],[11.1165476,36.8444074],[11.1165328,36.8449176],[11.1170369,36.8450244],[11.1173779,36.8443956],[11.1177782,36.8446329],[11.1174816,36.8451431],[11.1178078,36.8453092],[11.1180747,36.8450126],[11.1184602,36.8450956],[11.1183416,36.8453922],[11.1187271,36.8455939],[11.1189643,36.8453092],[11.1198539,36.8459024],[11.1200762,36.845677],[11.1205359,36.845855],[11.1210696,36.8454872],[11.1219888,36.8446566],[11.1223291,36.8440754],[11.1217055,36.843614],[11.1215643,36.8433691],[11.1218526,36.8428464],[11.1217761,36.8425686],[11.1214054,36.8422061],[11.1216937,36.8415939],[11.1212877,36.8407557],[11.121223,36.8398093],[11.1204228,36.838924],[11.1198344,36.8383448],[11.1197403,36.8379916],[11.1196402,36.837662],[11.1194284,36.8373323],[11.119452,36.8370215],[11.1191048,36.8364376],[11.11864,36.8360138],[11.1176633,36.8349872],[11.1171134,36.8355357],[11.1166836,36.8352974],[11.1163774,36.8353469],[11.1160965,36.8355829],[11.1148886,36.8343868],[11.1129238,36.8355736],[11.1126186,36.8352462],[11.1122013,36.8352105],[11.1119664,36.8351593],[11.1116656,36.835007],[11.1114695,36.8349558],[11.1112056,36.8349728],[11.110961,36.8350086],[11.1108368,36.835094],[11.1108057,36.8352494],[11.1108989,36.8357434],[11.1109008,36.8358272],[11.1108737,36.8359127],[11.110829,36.8359841],[11.1104467,36.8364346],[11.1103846,36.8365822],[11.1103341,36.8366816],[11.1091798,36.8371083],[11.1083973,36.8372688],[11.1068078,36.8374175],[11.1060937,36.8373901],[11.105184,36.8373236],[11.104421,36.8371788],[11.1033499,36.8368969],[11.1019512,36.8365446],[11.1009241,36.8364389],[11.1002247,36.8365133],[11.0996769,36.836572],[11.0986743,36.8364585],[11.097476,36.8360358],[11.0957349,36.8346148],[11.0954072,36.8342703],[11.0944417,36.8335784],[11.0940121,36.8332962],[11.0932298,36.8328627],[11.0924803,36.8324085],[11.0921791,36.8322702],[11.0919713,36.832231],[11.0916165,36.8323013],[11.0910736,36.8326967],[11.0904479,36.8324839]]]},"properties":{"nom":"قليبية","usage_sol":"residential"}},{"type":"Feature","geometry":{"type":"Polygon","coordinates":[[[11.0668271,36.8364901],[11.0663675,36.8369445],[11.0667257,36.837242],[11.0663742,36.8376801],[11.0678467,36.8383975],[11.0686822,36.8375216],[11.0692823,36.8377382],[11.0690588,36.8380302],[11.0705062,36.8389155],[11.0706709,36.8393769],[11.0722596,36.840121],[11.0727773,36.8402905],[11.0731068,36.8402999],[11.0735809,36.8401597],[11.0739664,36.8391273],[11.0732245,36.8385953],[11.0728009,36.838972],[11.0723066,36.8386894],[11.072542,36.8384069],[11.0712358,36.8376535],[11.071024,36.8378418],[11.0707062,36.8375875],[11.0711181,36.837126],[11.0694236,36.8361465],[11.0691058,36.8364008],[11.0677408,36.8357981],[11.0668271,36.8364901]]]},"properties":{"nom":"nan","usage_sol":"residential"}}]}