{"type": "FeatureCollection", "features": [{"type": "Feature", "properties": {"nom": "village_green", "type": "village_green", "icon": "🌿", "landuse": "village_green", "natural": "", "leisure": "", "osm_id": 153244212}, "geometry": {"type": "Polygon", "coordinates": [[[11.0936893, 36.8455768], [11.0937537, 36.8454868], [11.0936096, 36.8455846], [11.0936893, 36.8455768]]]}}, {"type": "Feature", "properties": {"nom": "village_green", "type": "village_green", "icon": "🌿", "landuse": "village_green", "natural": "", "leisure": "", "osm_id": 153244213}, "geometry": {"type": "Polygon", "coordinates": [[[11.0934175, 36.8457271], [11.0934182, 36.8456619], [11.0932546, 36.8457397], [11.0934175, 36.8457271]]]}}, {"type": "Feature", "properties": {"nom": "village_green", "type": "village_green", "icon": "🌿", "landuse": "village_green", "natural": "", "leisure": "", "osm_id": 153244215}, "geometry": {"type": "Polygon", "coordinates": [[[11.0941639, 36.8457392], [11.0937244, 36.8456605], [11.0937023, 36.8457395], [11.0941639, 36.8457392]]]}}, {"type": "Feature", "properties": {"nom": "terrain_sport", "type": "terrain_sport", "icon": "⚽", "landuse": "", "natural": "", "leisure": "pitch", "osm_id": 197647380}, "geometry": {"type": "Polygon", "coordinates": [[[11.0980231, 36.8417327], [11.0982863, 36.8414767], [11.0981231, 36.8413674], [11.0978632, 36.8416154], [11.0980231, 36.8417327]]]}}, {"type": "Feature", "properties": {"nom": "terrain_sport", "type": "terrain_sport", "icon": "⚽", "landuse": "", "natural": "", "leisure": "pitch", "osm_id": 197647381}, "geometry": {"type": "Polygon", "coordinates": [[[11.0983396, 36.8419434], [11.0986129, 36.8416794], [11.0984696, 36.8415914], [11.0981897, 36.8418421], [11.0983396, 36.8419434]]]}}, {"type": "Feature", "properties": {"nom": "terrain_sport", "type": "terrain_sport", "icon": "⚽", "landuse": "", "natural": "", "leisure": "pitch", "osm_id": 197647382}, "geometry": {"type": "Polygon", "coordinates": [[[11.0985529, 36.8420634], [11.0988328, 36.8418261], [11.0986828, 36.8417061], [11.0983996, 36.8419407], [11.0985529, 36.8420634]]]}}, {"type": "Feature", "properties": {"nom": "terrain_sport", "type": "terrain_sport", "icon": "⚽", "landuse": "", "natural": "", "leisure": "pitch", "osm_id": 197647383}, "geometry": {"type": "Polygon", "coordinates": [[[11.0981897, 36.8418421], [11.0984696, 36.8415914], [11.0982863, 36.8414767], [11.0980231, 36.8417327], [11.0981897, 36.8418421]]]}}, {"type": "Feature", "properties": {"nom": "terrain_sport", "type": "terrain_sport", "icon": "⚽", "landuse": "", "natural": "", "leisure": "pitch", "osm_id": 197647384}, "geometry": {"type": "Polygon", "coordinates": [[[11.0986928, 36.8421701], [11.0989694, 36.8419247], [11.0988328, 36.8418261], [11.0985529, 36.8420634], [11.0986928, 36.8421701]]]}}, {"type": "Feature", "properties": {"nom": "agriculture", "type": "agriculture", "icon": "🌾", "landuse": "farmland", "natural": "", "leisure": "", "osm_id": 207769704}, "geometry": {"type": "Polygon", "coordinates": [[[11.0948529, 36.8363607], [11.0937908, 36.8359399], [11.0933563, 36.836511], [11.0941025, 36.8367933], [11.0945364, 36.8369575], [11.0948529, 36.8363607]]]}}, {"type": "Feature", "properties": {"nom": "agriculture", "type": "agriculture", "icon": "🌾", "landuse": "farmland", "natural": "", "leisure": "", "osm_id": 207769711}, "geometry": {"type": "Polygon", "coordinates": [[[11.0929217, 36.8363349], [11.0931202, 36.8360601], [11.0931685, 36.836073], [11.0932812, 36.8358712], [11.0928144, 36.8357381], [11.0925615, 36.8361806], [11.0929217, 36.8363349]]]}}, {"type": "Feature", "properties": {"nom": "agriculture", "type": "agriculture", "icon": "🌾", "landuse": "farmland", "natural": "", "leisure": "", "osm_id": 207769712}, "geometry": {"type": "Polygon", "coordinates": [[[11.093603, 36.8358669], [11.0933294, 36.8357897], [11.0932812, 36.8358712], [11.0931685, 36.836073], [11.0931202, 36.8360601], [11.0929217, 36.8363349], [11.0932168, 36.8364466], [11.093603, 36.8358669]]]}}, {"type": "Feature", "properties": {"nom": "agriculture", "type": "agriculture", "icon": "🌾", "landuse": "farmland", "natural": "", "leisure": "", "osm_id": 207769713}, "geometry": {"type": "Polygon", "coordinates": [[[11.0941025, 36.8367933], [11.0933563, 36.836511], [11.0930129, 36.8369961], [11.093249, 36.8371077], [11.0933294, 36.8369704], [11.0935869, 36.8370734], [11.0935065, 36.8372194], [11.0937905, 36.8373482], [11.0941025, 36.8367933]]]}}, {"type": "Feature", "properties": {"nom": "agriculture", "type": "agriculture", "icon": "🌾", "landuse": "farmland", "natural": "", "leisure": "", "osm_id": 207770541}, "geometry": {"type": "Polygon", "coordinates": [[[11.0915431, 36.835794], [11.0924872, 36.836146], [11.0927707, 36.8356594], [11.0921485, 36.8355879], [11.0916083, 36.8355289], [11.0915431, 36.835794]]]}}, {"type": "Feature", "properties": {"nom": "agriculture", "type": "agriculture", "icon": "🌾", "landuse": "grass", "natural": "", "leisure": "", "osm_id": 207770543}, "geometry": {"type": "Polygon", "coordinates": [[[11.099638, 36.8395678], [11.1000028, 36.83919], [11.0997721, 36.8390698], [11.0997989, 36.8390354], [11.0996112, 36.8389367], [11.0997077, 36.8388122], [11.099182, 36.8385632], [11.0987421, 36.8391084], [11.099638, 36.8395678]]]}}, {"type": "Feature", "properties": {"nom": "agriculture", "type": "agriculture", "icon": "🌾", "landuse": "farmland", "natural": "", "leisure": "", "osm_id": 207770548}, "geometry": {"type": "Polygon", "coordinates": [[[11.0925945, 36.8350641], [11.0923317, 36.8349224], [11.0925999, 36.8345531], [11.0929532, 36.8341169], [11.0932348, 36.8337709], [11.0917173, 36.8329579], [11.0916879, 36.8329473], [11.0918649, 36.8327498], [11.0914787, 36.8325395], [11.0908135, 36.8332908], [11.0907331, 36.8332565], [11.0906419, 36.8332908], [11.0903575, 36.8335356], [11.090674, 36.8337159], [11.0898801, 36.8347635], [11.090658, 36.8350555], [11.0909852, 36.8351413], [11.0913446, 36.8352272], [11.0917791, 36.8353174], [11.0918113, 36.8352873], [11.0920312, 36.8353346], [11.0923799, 36.8353818], [11.0925945, 36.8350641]]]}}, {"type": "Feature", "properties": {"nom": "terrain_sport", "type": "terrain_sport", "icon": "⚽", "landuse": "", "natural": "", "leisure": "pitch", "osm_id": 207939880}, "geometry": {"type": "Polygon", "coordinates": [[[11.0976571, 36.8432173], [11.0984749, 36.8424992], [11.0980408, 36.8421826], [11.097223, 36.8429007], [11.0976571, 36.8432173]]]}}, {"type": "Feature", "properties": {"nom": "village_green", "type": "village_green", "icon": "🌿", "landuse": "village_green", "natural": "", "leisure": "", "osm_id": 207939881}, "geometry": {"type": "Polygon", "coordinates": [[[11.0985154, 36.8446681], [11.0986677, 36.8445228], [11.098896, 36.8443049], [11.0986475, 36.8441367], [11.0985809, 36.8441996], [11.0986039, 36.8442538], [11.0983169, 36.8445436], [11.0985154, 36.8446681]]]}}, {"type": "Feature", "properties": {"nom": "agriculture", "type": "agriculture", "icon": "🌾", "landuse": "farmland", "natural": "", "leisure": "", "osm_id": 207943540}, "geometry": {"type": "Polygon", "coordinates": [[[11.1005163, 36.8484844], [11.1006611, 36.8482612], [11.1000925, 36.8480745], [11.0999611, 36.8482676], [11.1005163, 36.8484844]]]}}, {"type": "Feature", "properties": {"nom": "agriculture", "type": "agriculture", "icon": "🌾", "landuse": "farmland", "natural": "", "leisure": "", "osm_id": 207943548}, "geometry": {"type": "Polygon", "coordinates": [[[11.1032414, 36.848126], [11.1032548, 36.8479671], [11.1033702, 36.8477503], [11.1031395, 36.8476688], [11.1030939, 36.8477418], [11.1029705, 36.8476795], [11.1029303, 36.8477117], [11.1027962, 36.8479779], [11.1027291, 36.8481603], [11.1032414, 36.848126]]]}}, {"type": "Feature", "properties": {"nom": "agriculture", "type": "agriculture", "icon": "🌾", "landuse": "farmland", "natural": "", "leisure": "", "osm_id": 207943551}, "geometry": {"type": "Polygon", "coordinates": [[[11.1006611, 36.8482612], [11.1005163, 36.8484844], [11.1003902, 36.8486604], [11.1009937, 36.8488471], [11.1012378, 36.8484629], [11.1006611, 36.8482612]]]}}, {"type": "Feature", "properties": {"nom": "parc", "type": "parc", "icon": "🌳", "landuse": "", "natural": "", "leisure": "park", "osm_id": 207949523}, "geometry": {"type": "Polygon", "coordinates": [[[11.0920325, 36.8493322], [11.0921532, 36.8489716], [11.0919922, 36.8488987], [11.0919252, 36.8489909], [11.0918554, 36.8490704], [11.0917642, 36.849021], [11.0918125, 36.8489652], [11.0917401, 36.8489137], [11.0917508, 36.8488922], [11.0914477, 36.848757], [11.09126, 36.8490081], [11.0920325, 36.8493322]]]}}, {"type": "Feature", "properties": {"nom": "parc", "type": "parc", "icon": "🌳", "landuse": "", "natural": "", "leisure": "park", "osm_id": 207949875}, "geometry": {"type": "Polygon", "coordinates": [[[11.0876762, 36.846098], [11.0876565, 36.84618], [11.0875903, 36.8461698], [11.0875699, 36.8462544], [11.0874232, 36.8462318], [11.0874416, 36.8461553], [11.0873885, 36.8461471], [11.0873628, 36.8462952], [11.0879722, 36.8463425], [11.0880363, 36.8463198], [11.0880844, 36.8462738], [11.0881084, 36.8462118], [11.0880928, 36.8461504], [11.0876994, 36.8459807], [11.0876762, 36.846098]]]}}, {"type": "Feature", "properties": {"nom": "Svenska Garden", "type": "parc", "icon": "🌳", "landuse": "", "natural": "", "leisure": "park", "osm_id": 207950670}, "geometry": {"type": "Polygon", "coordinates": [[[11.0949704, 36.8442248], [11.0952031, 36.8440021], [11.0945704, 36.8437852], [11.0943436, 36.8440018], [11.0949704, 36.8442248]]]}}, {"type": "Feature", "properties": {"nom": "agriculture", "type": "agriculture", "icon": "🌾", "landuse": "farmland", "natural": "", "leisure": "", "osm_id": 207952586}, "geometry": {"type": "Polygon", "coordinates": [[[11.0927218, 36.8390333], [11.0916489, 36.8404565], [11.0924455, 36.8408944], [11.0927272, 36.8407828], [11.0930785, 36.8404136], [11.0928103, 36.8402483], [11.0933468, 36.8396065], [11.0935077, 36.8393854], [11.0927218, 36.8390333]]]}}, {"type": "Feature", "properties": {"nom": "terrain_sport", "type": "terrain_sport", "icon": "⚽", "landuse": "", "natural": "", "leisure": "pitch", "osm_id": 207958153}, "geometry": {"type": "Polygon", "coordinates": [[[11.1252959, 36.8567861], [11.1251415, 36.8566636], [11.1248451, 36.8569028], [11.1249996, 36.8570253], [11.1252959, 36.8567861]]]}}, {"type": "Feature", "properties": {"nom": "foret", "type": "foret", "icon": "🌲", "landuse": "", "natural": "wood", "leisure": "", "osm_id": 207978353}, "geometry": {"type": "Polygon", "coordinates": [[[11.1021114, 36.8391492], [11.1022251, 36.8391017], [11.1024129, 36.8390245], [11.1025577, 36.8390159], [11.1027176, 36.8390848], [11.1032497, 36.8393593], [11.1036574, 36.8395783], [11.1038666, 36.839428], [11.1039567, 36.8394111], [11.104343, 36.8392823], [11.1046123, 36.8392477], [11.1049824, 36.8391704], [11.1051916, 36.8391447], [11.1053461, 36.8391191], [11.1055296, 36.839106], [11.1055725, 36.8390674], [11.105588, 36.8390158], [11.1055067, 36.8389152], [11.1053457, 36.8388551], [11.1051741, 36.8388551], [11.1048307, 36.8389753], [11.1045411, 36.8390526], [11.1041548, 36.8391471], [11.10379, 36.839293], [11.1036812, 36.8392583], [11.1035933, 36.8392303], [11.1034575, 36.8392673], [11.1032321, 36.8391814], [11.1030386, 36.8389927], [11.1028844, 36.8388914], [11.1027398, 36.8388242], [11.1025947, 36.8387883], [11.1023871, 36.8387935], [11.1021768, 36.8388111], [11.1019899, 36.8388437], [11.1020427, 36.8389128], [11.1019193, 36.8390159], [11.1018174, 36.8390459], [11.1018013, 36.839106], [11.1019086, 36.8391533], [11.1021114, 36.8391492]]]}}, {"type": "Feature", "properties": {"nom": "foret", "type": "foret", "icon": "🌲", "landuse": "", "natural": "wood", "leisure": "", "osm_id": 207979662}, "geometry": {"type": "Polygon", "coordinates": [[[11.1143503, 36.8393317], [11.1146946, 36.8394881], [11.1148528, 36.8395633], [11.1145631, 36.8392413], [11.1143771, 36.8391492], [11.1143003, 36.8391361], [11.11426, 36.8391726], [11.1143503, 36.8393317]]]}}, {"type": "Feature", "properties": {"nom": "foret", "type": "foret", "icon": "🌲", "landuse": "", "natural": "wood", "leisure": "", "osm_id": 207979663}, "geometry": {"type": "Polygon", "coordinates": [[[11.1156189, 36.8403184], [11.1158637, 36.8404799], [11.1165077, 36.8408127], [11.1165713, 36.840705], [11.1160349, 36.840415], [11.1159265, 36.8403241], [11.1156165, 36.8400677], [11.1157058, 36.8400226], [11.1157611, 36.8400336], [11.1160679, 36.8399218], [11.1161003, 36.8399387], [11.1161167, 36.839972], [11.116665, 36.8403427], [11.1171557, 36.8407379], [11.1173795, 36.8408147], [11.117425, 36.8407697], [11.1171837, 36.8404284], [11.1172641, 36.8403167], [11.117635, 36.8405279], [11.1179845, 36.8401697], [11.1180442, 36.8399195], [11.1181364, 36.8398101], [11.1182449, 36.8397502], [11.1184443, 36.8397307], [11.1185972, 36.8398058], [11.1187206, 36.839486], [11.1187983, 36.8391404], [11.1187742, 36.8389214], [11.1187608, 36.838681], [11.1186481, 36.8383849], [11.1184738, 36.8380028], [11.1182056, 36.8375928], [11.1180634, 36.8373695], [11.1180151, 36.8373781], [11.1178381, 36.8372343], [11.1177433, 36.8371592], [11.1176745, 36.837099], [11.1177013, 36.8370132], [11.1172551, 36.8366505], [11.117012, 36.8364743], [11.1169118, 36.8364186], [11.1168698, 36.8364421], [11.1171166, 36.8366289], [11.1174027, 36.8368973], [11.117628, 36.8371442], [11.117712, 36.8372708], [11.1177567, 36.8373954], [11.1177889, 36.8378075], [11.117931, 36.8379836], [11.1179776, 36.8381767], [11.118042, 36.8384427], [11.1180437, 36.8385589], [11.1181081, 36.8386233], [11.1182636, 36.8386877], [11.1183924, 36.8388701], [11.1184112, 36.8391449], [11.1184487, 36.839351], [11.1184094, 36.8394538], [11.1183504, 36.8395053], [11.1182753, 36.8395118], [11.1181537, 36.839469], [11.1179159, 36.8393551], [11.1178167, 36.8393379], [11.1175726, 36.8393593], [11.1175099, 36.8393188], [11.1174706, 36.839252], [11.1174116, 36.8391576], [11.1173195, 36.8390934], [11.1171944, 36.8390481], [11.117122, 36.839018], [11.1170951, 36.8389858], [11.1171461, 36.8388828], [11.117122, 36.8388549], [11.1170353, 36.8388297], [11.1169822, 36.838883], [11.1169232, 36.8389553], [11.1168421, 36.8391277], [11.1167086, 36.8393502], [11.1165834, 36.8395025], [11.1164919, 36.8395568], [11.1163795, 36.8395873], [11.1162272, 36.8395879], [11.1160082, 36.8395535], [11.1158782, 36.83956], [11.1155852, 36.8396122], [11.1154193, 36.8396231], [11.1152765, 36.8396014], [11.115119, 36.8395217], [11.1149581, 36.8394371], [11.1147717, 36.8393156], [11.1147009, 36.8392902], [11.1149779, 36.8396], [11.1152167, 36.8398769], [11.1153678, 36.8400613], [11.1154928, 36.840228], [11.1156189, 36.8403184]]]}}, {"type": "Feature", "properties": {"nom": "foret", "type": "foret", "icon": "🌲", "landuse": "", "natural": "wood", "leisure": "", "osm_id": 207979813}, "geometry": {"type": "Polygon", "coordinates": [[[11.1147428, 36.839179], [11.1149538, 36.8392909], [11.1152766, 36.839471], [11.1154027, 36.839516], [11.1155197, 36.8395291], [11.1156485, 36.8395206], [11.1158023, 36.8394796], [11.1159793, 36.8394602], [11.1161161, 36.8394753], [11.1162851, 36.8394924], [11.1163754, 36.8394926], [11.1164719, 36.839469], [11.1165399, 36.8394237], [11.1166411, 36.8393338], [11.1166893, 36.8392437], [11.116734, 36.8391859], [11.1165989, 36.8389772], [11.1167026, 36.8389302], [11.1168028, 36.8389558], [11.1168448, 36.8389474], [11.1170013, 36.8387712], [11.1169369, 36.8387411], [11.116894, 36.8386789], [11.1169691, 36.8385951], [11.1167904, 36.838496], [11.1166892, 36.8385681], [11.1166472, 36.8385651], [11.1165238, 36.8384728], [11.1163575, 36.8385243], [11.116311, 36.8384945], [11.1163838, 36.8383828], [11.1163024, 36.838305], [11.1161945, 36.8383364], [11.1161282, 36.8383128], [11.1158732, 36.8384173], [11.1157125, 36.8385434], [11.115605, 36.8385604], [11.1154971, 36.8385323], [11.1154544, 36.8384816], [11.1154029, 36.8383353], [11.1149211, 36.8379779], [11.1148331, 36.8379465], [11.1147578, 36.8378384], [11.1147786, 36.8377471], [11.1148127, 36.8376464], [11.1147421, 36.8375641], [11.1144906, 36.8375088], [11.1143158, 36.837466], [11.1141743, 36.837394], [11.1142062, 36.8373028], [11.11437, 36.837157], [11.1146248, 36.8369702], [11.1148743, 36.8368135], [11.1152757, 36.8366397], [11.1155716, 36.8365237], [11.1157585, 36.8364766], [11.1158418, 36.8364835], [11.1161644, 36.8365409], [11.1165346, 36.8366783], [11.1168672, 36.8368479], [11.1169852, 36.8369273], [11.1170978, 36.8369616], [11.1172507, 36.8370561], [11.1173705, 36.8371807], [11.1174375, 36.8373567], [11.1174706, 36.8375434], [11.1174965, 36.8377603], [11.1175162, 36.8378869], [11.1175672, 36.8380071], [11.1175063, 36.8382507], [11.1174159, 36.8382731], [11.1173744, 36.8383463], [11.1174162, 36.8384083], [11.1175436, 36.8384467], [11.1174779, 36.8386656], [11.1175895, 36.8386744], [11.1176407, 36.8386223], [11.1176957, 36.838559], [11.1177147, 36.8384336], [11.1177218, 36.8381768], [11.1176825, 36.8374897], [11.1176396, 36.8373201], [11.1175806, 36.8372042], [11.1174841, 36.8370776], [11.117366, 36.8369595], [11.1171917, 36.8367792], [11.1169825, 36.8366096], [11.1168457, 36.836513], [11.1167116, 36.8366031], [11.1163834, 36.8363886], [11.1163683, 36.8363563], [11.1161886, 36.8363734], [11.1160732, 36.8363498], [11.1160106, 36.8362984], [11.1156762, 36.8362854], [11.115643, 36.8361732], [11.1155199, 36.8361913], [11.1147068, 36.8365304], [11.1146169, 36.8366131], [11.1146034, 36.8367749], [11.1144183, 36.8369187], [11.1143362, 36.8368716], [11.1137166, 36.8371873], [11.1133867, 36.8375269], [11.113104, 36.838027], [11.1133828, 36.8382412], [11.1141733, 36.8388487], [11.1143798, 36.8389903], [11.1144907, 36.8390674], [11.1147428, 36.839179]]]}}, {"type": "Feature", "properties": {"nom": "verger", "type": "verger", "icon": "🌳", "landuse": "orchard", "natural": "", "leisure": "", "osm_id": 208042353}, "geometry": {"type": "Polygon", "coordinates": [[[11.0688959, 36.8387948], [11.0693975, 36.8383247], [11.0691507, 36.838271], [11.0690247, 36.838256], [11.0689308, 36.8382646], [11.0688342, 36.8383118], [11.068617, 36.8385394], [11.0685955, 36.8386166], [11.0688959, 36.8387948]]]}}, {"type": "Feature", "properties": {"nom": "verger", "type": "verger", "icon": "🌳", "landuse": "orchard", "natural": "", "leisure": "", "osm_id": 208042357}, "geometry": {"type": "Polygon", "coordinates": [[[11.0648941, 36.8464429], [11.0642316, 36.8460029], [11.0639446, 36.8462047], [11.064143, 36.8466661], [11.0641963, 36.846816], [11.0642637, 36.8468829], [11.0648941, 36.8464429]]]}}, {"type": "Feature", "properties": {"nom": "verger", "type": "verger", "icon": "🌳", "landuse": "orchard", "natural": "", "leisure": "", "osm_id": 208042360}, "geometry": {"type": "Polygon", "coordinates": [[[11.0803758, 36.8359719], [11.0807084, 36.8356371], [11.0799037, 36.8350747], [11.0795496, 36.835401], [11.0803758, 36.8359719]]]}}, {"type": "Feature", "properties": {"nom": "verger", "type": "verger", "icon": "🌳", "landuse": "orchard", "natural": "", "leisure": "", "osm_id": 208042363}, "geometry": {"type": "Polygon", "coordinates": [[[11.0691722, 36.8400162], [11.0690729, 36.8399604], [11.0687457, 36.8403082], [11.0688557, 36.8403704], [11.0691722, 36.8400162]]]}}, {"type": "Feature", "properties": {"nom": "verger", "type": "verger", "icon": "🌳", "landuse": "orchard", "natural": "", "leisure": "", "osm_id": 208042367}, "geometry": {"type": "Polygon", "coordinates": [[[11.0687725, 36.8404005], [11.068161, 36.8399905], [11.0676272, 36.8396127], [11.0673215, 36.8399111], [11.0680752, 36.8404863], [11.0684748, 36.8407311], [11.0687725, 36.8404005]]]}}, {"type": "Feature", "properties": {"nom": "verger", "type": "verger", "icon": "🌳", "landuse": "orchard", "natural": "", "leisure": "", "osm_id": 208042368}, "geometry": {"type": "Polygon", "coordinates": [[[11.0689496, 36.8393229], [11.0694109, 36.8395697], [11.0691373, 36.8399196], [11.0692308, 36.8399793], [11.0697703, 36.8392799], [11.0697006, 36.8391833], [11.0693814, 36.8390052], [11.0695316, 36.8388334], [11.0694484, 36.8387712], [11.0689496, 36.8393229]]]}}, {"type": "Feature", "properties": {"nom": "verger", "type": "verger", "icon": "🌳", "landuse": "orchard", "natural": "", "leisure": "", "osm_id": 208042953}, "geometry": {"type": "Polygon", "coordinates": [[[11.0696734, 36.8509563], [11.0686386, 36.8503235], [11.0679889, 36.850703], [11.0683703, 36.850976], [11.0688907, 36.8513066], [11.0691965, 36.8514482], [11.0696734, 36.8509563]]]}}, {"type": "Feature", "properties": {"nom": "verger", "type": "verger", "icon": "🌳", "landuse": "orchard", "natural": "", "leisure": "", "osm_id": 208042954}, "geometry": {"type": "Polygon", "coordinates": [[[11.0667819, 36.8518921], [11.0668683, 36.8519333], [11.0673135, 36.851474], [11.0669649, 36.8512851], [11.0658705, 36.8519461], [11.0664123, 36.8522981], [11.0667819, 36.8518921]]]}}, {"type": "Feature", "properties": {"nom": "verger", "type": "verger", "icon": "🌳", "landuse": "orchard", "natural": "", "leisure": "", "osm_id": 208042957}, "geometry": {"type": "Polygon", "coordinates": [[[11.0706121, 36.8509048], [11.0709179, 36.8506815], [11.0707301, 36.8504626], [11.0713529, 36.8500746], [11.0717982, 36.8505382], [11.0715514, 36.850667], [11.0717928, 36.8508601], [11.0722858, 36.8505013], [11.071251, 36.8493706], [11.0705429, 36.8495423], [11.0706234, 36.8497312], [11.0707843, 36.8499072], [11.070103, 36.8501647], [11.0699904, 36.8502377], [11.0706121, 36.8509048]]]}}, {"type": "Feature", "properties": {"nom": "verger", "type": "verger", "icon": "🌳", "landuse": "orchard", "natural": "", "leisure": "", "osm_id": 208042958}, "geometry": {"type": "Polygon", "coordinates": [[[11.0672599, 36.850315], [11.0677373, 36.850624], [11.0683221, 36.8500359], [11.0679031, 36.8497543], [11.0685903, 36.8490572], [11.0684288, 36.8489344], [11.067453, 36.8496153], [11.0671472, 36.8499072], [11.0669166, 36.8500617], [11.0672599, 36.850315]]]}}, {"type": "Feature", "properties": {"nom": "verger", "type": "verger", "icon": "🌳", "landuse": "orchard", "natural": "", "leisure": "", "osm_id": 208043771}, "geometry": {"type": "Polygon", "coordinates": [[[11.0727316, 36.845125], [11.0725224, 36.8449189], [11.0723962, 36.8445674], [11.0718197, 36.8452452], [11.0723615, 36.8455629], [11.0727316, 36.845125]]]}}, {"type": "Feature", "properties": {"nom": "verger", "type": "verger", "icon": "🌳", "landuse": "orchard", "natural": "", "leisure": "", "osm_id": 208043784}, "geometry": {"type": "Polygon", "coordinates": [[[11.0734183, 36.8452237], [11.0739547, 36.844627], [11.0735899, 36.8444553], [11.07315, 36.845052], [11.0734183, 36.8452237]]]}}, {"type": "Feature", "properties": {"nom": "verger", "type": "verger", "icon": "🌳", "landuse": "orchard", "natural": "", "leisure": "", "osm_id": 208043790}, "geometry": {"type": "Polygon", "coordinates": [[[11.0709447, 36.8450237], [11.0709077, 36.8449919], [11.0707945, 36.845058], [11.0706336, 36.8449979], [11.0698992, 36.8455972], [11.0701674, 36.8457432], [11.0709447, 36.8450237]]]}}, {"type": "Feature", "properties": {"nom": "agriculture", "type": "agriculture", "icon": "🌾", "landuse": "farmland", "natural": "", "leisure": "", "osm_id": 208043794}, "geometry": {"type": "Polygon", "coordinates": [[[11.0747052, 36.8437658], [11.0750378, 36.8432936], [11.0756486, 36.8425583], [11.0750732, 36.842245], [11.0752333, 36.8420555], [11.0749635, 36.8418923], [11.0751274, 36.8416386], [11.0744981, 36.8413737], [11.074366, 36.8415588], [11.0740787, 36.841398], [11.074217, 36.8412158], [11.0731286, 36.8407031], [11.0728169, 36.840516], [11.0723829, 36.8408319], [11.0723395, 36.8409023], [11.0710257, 36.842034], [11.070382, 36.8425792], [11.0712961, 36.8429112], [11.0722429, 36.843255], [11.0727859, 36.8433346], [11.0731661, 36.8426479], [11.073382, 36.8427078], [11.0730315, 36.8433666], [11.07337, 36.8434035], [11.0738635, 36.8427681], [11.0740083, 36.8428411], [11.0740673, 36.8428798], [11.0736328, 36.843455], [11.0747052, 36.8437658]]]}}, {"type": "Feature", "properties": {"nom": "verger", "type": "verger", "icon": "🌳", "landuse": "orchard", "natural": "", "leisure": "", "osm_id": 208044910}, "geometry": {"type": "Polygon", "coordinates": [[[11.0710311, 36.8446785], [11.071347, 36.8443926], [11.0712403, 36.8441677], [11.0711056, 36.8441908], [11.0707307, 36.8443136], [11.0706556, 36.8444381], [11.0710311, 36.8446785]]]}}, {"type": "Feature", "properties": {"nom": "verger", "type": "verger", "icon": "🌳", "landuse": "orchard", "natural": "", "leisure": "", "osm_id": 208044914}, "geometry": {"type": "Polygon", "coordinates": [[[11.0711813, 36.8431373], [11.0712961, 36.8429112], [11.070382, 36.8425792], [11.070205, 36.8429527], [11.0711813, 36.8431373]]]}}, {"type": "Feature", "properties": {"nom": "verger", "type": "verger", "icon": "🌳", "landuse": "orchard", "natural": "", "leisure": "", "osm_id": 208044915}, "geometry": {"type": "Polygon", "coordinates": [[[11.0681021, 36.8455242], [11.0683381, 36.8453482], [11.0682625, 36.8452383], [11.0685098, 36.845052], [11.0687453, 36.844955], [11.0700494, 36.8440389], [11.0701245, 36.8439573], [11.0698633, 36.8438536], [11.0697061, 36.8439659], [11.0695505, 36.8438457], [11.0692447, 36.8440689], [11.06888, 36.8436353], [11.0677583, 36.8444484], [11.0674578, 36.8442681], [11.0681021, 36.8437427], [11.0679841, 36.8436697], [11.0677159, 36.8438629], [11.0674691, 36.843704], [11.0675281, 36.8436568], [11.0672915, 36.8434997], [11.0673988, 36.8434138], [11.0671955, 36.8432618], [11.0665995, 36.8437401], [11.0672057, 36.8441264], [11.0668522, 36.8445369], [11.0681021, 36.8455242]]]}}, {"type": "Feature", "properties": {"nom": "agriculture", "type": "agriculture", "icon": "🌾", "landuse": "farmland", "natural": "", "leisure": "", "osm_id": 208045539}, "geometry": {"type": "Polygon", "coordinates": [[[11.0646099, 36.8467134], [11.0643148, 36.8469924], [11.0641593, 36.8472328], [11.064148, 36.8473247], [11.0643524, 36.8475161], [11.0643577, 36.8477866], [11.064508, 36.8479969], [11.0651463, 36.8484605], [11.0652477, 36.8485953], [11.0656238, 36.8488297], [11.0661436, 36.8482734], [11.0664177, 36.8484777], [11.0666585, 36.8486726], [11.0675335, 36.8480398], [11.0660883, 36.84701], [11.0659102, 36.8471508], [11.0654412, 36.8468164], [11.0649156, 36.846503], [11.0646099, 36.8467134]]]}}, {"type": "Feature", "properties": {"nom": "agriculture", "type": "agriculture", "icon": "🌾", "landuse": "farmland", "natural": "", "leisure": "", "osm_id": 208045540}, "geometry": {"type": "Polygon", "coordinates": [[[11.0669166, 36.8500617], [11.0671472, 36.8499072], [11.067453, 36.8496153], [11.0684288, 36.8489344], [11.0682791, 36.8488082], [11.0684293, 36.8486709], [11.067571, 36.8480699], [11.0665995, 36.8487842], [11.0659832, 36.8492633], [11.0659403, 36.8493105], [11.0669166, 36.8500617]]]}}, {"type": "Feature", "properties": {"nom": "agriculture", "type": "agriculture", "icon": "🌾", "landuse": "farmland", "natural": "", "leisure": "", "osm_id": 208045542}, "geometry": {"type": "Polygon", "coordinates": [[[11.0685903, 36.8490572], [11.0679031, 36.8497543], [11.0683221, 36.8500359], [11.0677373, 36.850624], [11.0678339, 36.8506798], [11.0694486, 36.849714], [11.0685903, 36.8490572]]]}}, {"type": "Feature", "properties": {"nom": "agriculture", "type": "agriculture", "icon": "🌾", "landuse": "farmland", "natural": "", "leisure": "", "osm_id": 208045544}, "geometry": {"type": "Polygon", "coordinates": [[[11.0664874, 36.8488082], [11.0662514, 36.8486108], [11.0664177, 36.8484777], [11.0661436, 36.8482734], [11.0656238, 36.8488297], [11.0660851, 36.8491173], [11.0664874, 36.8488082]]]}}, {"type": "Feature", "properties": {"nom": "agriculture", "type": "agriculture", "icon": "🌾", "landuse": "farmland", "natural": "", "leisure": "", "osm_id": 208045545}, "geometry": {"type": "Polygon", "coordinates": [[[11.0682791, 36.8488082], [11.0684288, 36.8489344], [11.0694486, 36.849714], [11.069609, 36.849647], [11.0691374, 36.8492075], [11.0684293, 36.8486709], [11.0682791, 36.8488082]]]}}, {"type": "Feature", "properties": {"nom": "verger", "type": "verger", "icon": "🌳", "landuse": "orchard", "natural": "", "leisure": "", "osm_id": 208046122}, "geometry": {"type": "Polygon", "coordinates": [[[11.0801774, 36.8561742], [11.081481, 36.856994], [11.0816843, 36.8567854], [11.0805387, 36.8560943], [11.0803652, 36.8559896], [11.0801774, 36.8561742]]]}}, {"type": "Feature", "properties": {"nom": "verger", "type": "verger", "icon": "🌳", "landuse": "orchard", "natural": "", "leisure": "", "osm_id": 208046123}, "geometry": {"type": "Polygon", "coordinates": [[[11.0776937, 36.8552342], [11.0781867, 36.8547551], [11.077683, 36.8543156], [11.0775542, 36.8544143], [11.0771733, 36.8548779], [11.0776937, 36.8552342]]]}}, {"type": "Feature", "properties": {"nom": "verger", "type": "verger", "icon": "🌳", "landuse": "orchard", "natural": "", "leisure": "", "osm_id": 208046125}, "geometry": {"type": "Polygon", "coordinates": [[[11.076926, 36.8559141], [11.0766423, 36.8556891], [11.0760629, 36.855247], [11.0758054, 36.8554488], [11.0767174, 36.8561227], [11.076926, 36.8559141]]]}}, {"type": "Feature", "properties": {"nom": "verger", "type": "verger", "icon": "🌳", "landuse": "orchard", "natural": "", "leisure": "", "osm_id": 208046126}, "geometry": {"type": "Polygon", "coordinates": [[[11.0816312, 36.859183], [11.081776, 36.8589555], [11.0811157, 36.8585624], [11.0806549, 36.8582903], [11.0804564, 36.8584662], [11.0816312, 36.859183]]]}}, {"type": "Feature", "properties": {"nom": "verger", "type": "verger", "icon": "🌳", "landuse": "orchard", "natural": "", "leisure": "", "osm_id": 208046128}, "geometry": {"type": "Polygon", "coordinates": [[[11.0845113, 36.8572103], [11.084013, 36.8568352], [11.0839373, 36.8568798], [11.083666, 36.8571645], [11.0841685, 36.8575262], [11.0845113, 36.8572103]]]}}, {"type": "Feature", "properties": {"nom": "verger", "type": "verger", "icon": "🌳", "landuse": "orchard", "natural": "", "leisure": "", "osm_id": 208046129}, "geometry": {"type": "Polygon", "coordinates": [[[11.0802954, 36.8482416], [11.0805207, 36.8483317], [11.0806704, 36.8481789], [11.0806549, 36.8481085], [11.0806919, 36.8480373], [11.0802901, 36.8478381], [11.080215, 36.8479368], [11.080113, 36.8479282], [11.079995, 36.8480699], [11.0802954, 36.8482416]]]}}, {"type": "Feature", "properties": {"nom": "verger", "type": "verger", "icon": "🌳", "landuse": "orchard", "natural": "", "leisure": "", "osm_id": 208046130}, "geometry": {"type": "Polygon", "coordinates": [[[11.078552, 36.85717], [11.0789651, 36.8575091], [11.0787022, 36.8577366], [11.0794908, 36.8583675], [11.0799736, 36.8579125], [11.0797799, 36.8577898], [11.0795391, 36.8579984], [11.0792923, 36.8578138], [11.0796088, 36.8575177], [11.0788103, 36.8569337], [11.078552, 36.85717]]]}}, {"type": "Feature", "properties": {"nom": "verger", "type": "verger", "icon": "🌳", "landuse": "orchard", "natural": "", "leisure": "", "osm_id": 208046131}, "geometry": {"type": "Polygon", "coordinates": [[[11.0775054, 36.848913], [11.0783798, 36.8479686], [11.0783214, 36.8479131], [11.0788465, 36.8473762], [11.0793025, 36.8468868], [11.0792333, 36.8468507], [11.0788363, 36.846928], [11.0778224, 36.8481128], [11.0772914, 36.8487181], [11.0775054, 36.848913]]]}}, {"type": "Feature", "properties": {"nom": "verger", "type": "verger", "icon": "🌳", "landuse": "orchard", "natural": "", "leisure": "", "osm_id": 208046132}, "geometry": {"type": "Polygon", "coordinates": [[[11.0836101, 36.8572232], [11.083666, 36.8571645], [11.0839373, 36.8568798], [11.0832888, 36.8563545], [11.0827684, 36.8566764], [11.0836101, 36.8572232]]]}}, {"type": "Feature", "properties": {"nom": "vegetation", "type": "vegetation", "icon": "🌿", "landuse": "", "natural": "scrub", "leisure": "", "osm_id": 208047807}, "geometry": {"type": "Polygon", "coordinates": [[[11.0952514, 36.8363025], [11.0962272, 36.8367808], [11.0966308, 36.8363631], [11.0962545, 36.8361138], [11.0947096, 36.8350147], [11.0948062, 36.8354483], [11.0950369, 36.8361093], [11.0952514, 36.8363025]]]}}, {"type": "Feature", "properties": {"nom": "vegetation", "type": "vegetation", "icon": "🌿", "landuse": "", "natural": "scrub", "leisure": "", "osm_id": 208047812}, "geometry": {"type": "Polygon", "coordinates": [[[11.0972631, 36.8373372], [11.0982233, 36.8377966], [11.0991294, 36.8382749], [11.1001634, 36.8388023], [11.1003046, 36.8386338], [11.1004222, 36.838232], [11.1001867, 36.8381959], [11.1000472, 36.8381272], [11.0999453, 36.8379769], [11.0997844, 36.8378009], [11.099602, 36.8376721], [11.0993659, 36.8375862], [11.0992586, 36.8375778], [11.0985451, 36.8374319], [11.0986095, 36.8371142], [11.0984056, 36.8370841], [11.0982448, 36.8371655], [11.0978854, 36.837144], [11.0976654, 36.8370968], [11.0974669, 36.8369766], [11.0975651, 36.8366713], [11.0971802, 36.8365411], [11.0970488, 36.8367918], [11.096866, 36.836702], [11.0967711, 36.8366376], [11.0966059, 36.8365496], [11.09632, 36.8368471], [11.0972631, 36.8373372]]]}}, {"type": "Feature", "properties": {"nom": "vegetation", "type": "vegetation", "icon": "🌿", "landuse": "", "natural": "scrub", "leisure": "", "osm_id": 208050413}, "geometry": {"type": "Polygon", "coordinates": [[[11.0954477, 36.8401078], [11.0956945, 36.8397729], [11.095335, 36.8395926], [11.0951741, 36.8396012], [11.0950936, 36.8396913], [11.0947825, 36.8397128], [11.0947396, 36.8395453], [11.0943319, 36.839584], [11.0942192, 36.8397385], [11.0946859, 36.8403095], [11.0954477, 36.8401078]]]}}, {"type": "Feature", "properties": {"nom": "vegetation", "type": "vegetation", "icon": "🌿", "landuse": "", "natural": "scrub", "leisure": "", "osm_id": 208050414}, "geometry": {"type": "Polygon", "coordinates": [[[11.0953297, 36.8405027], [11.0952438, 36.8402494], [11.0947879, 36.8403611], [11.0948791, 36.8406015], [11.0953297, 36.8405027]]]}}, {"type": "Feature", "properties": {"nom": "vegetation", "type": "vegetation", "icon": "🌿", "landuse": "greenfield", "natural": "scrub", "leisure": "", "osm_id": 208052433}, "geometry": {"type": "Polygon", "coordinates": [[[11.1052128, 36.8403168], [11.1064697, 36.8401659], [11.1059882, 36.8396263], [11.1050894, 36.8401408], [11.1052128, 36.8403168]]]}}, {"type": "Feature", "properties": {"nom": "village_green", "type": "village_green", "icon": "🌿", "landuse": "village_green", "natural": "", "leisure": "", "osm_id": 208052441}, "geometry": {"type": "Polygon", "coordinates": [[[11.1052128, 36.8403168], [11.1050894, 36.8401408], [11.1045959, 36.8403898], [11.1052128, 36.8403168]]]}}, {"type": "Feature", "properties": {"nom": "verger", "type": "verger", "icon": "🌳", "landuse": "orchard", "natural": "", "leisure": "", "osm_id": 208053829}, "geometry": {"type": "Polygon", "coordinates": [[[11.0868078, 36.8572135], [11.0873, 36.8565237], [11.0863786, 36.8558236], [11.0858588, 36.8563073], [11.0857885, 36.8566374], [11.0868078, 36.8572135]]]}}, {"type": "Feature", "properties": {"nom": "verger", "type": "verger", "icon": "🌳", "landuse": "orchard", "natural": "", "leisure": "", "osm_id": 208122188}, "geometry": {"type": "Polygon", "coordinates": [[[11.0892742, 36.8539544], [11.088904, 36.8537526], [11.0887002, 36.8537977], [11.0885795, 36.8539715], [11.0890489, 36.8542162], [11.0892742, 36.8539544]]]}}, {"type": "Feature", "properties": {"nom": "agriculture", "type": "agriculture", "icon": "🌾", "landuse": "farmland", "natural": "", "leisure": "", "osm_id": 208123415}, "geometry": {"type": "Polygon", "coordinates": [[[11.0838647, 36.8553247], [11.0828812, 36.8561059], [11.0831386, 36.8562602], [11.083526, 36.8560536], [11.0837824, 36.8559169], [11.0842936, 36.855634], [11.0838647, 36.8553247]]]}}, {"type": "Feature", "properties": {"nom": "verger", "type": "verger", "icon": "🌳", "landuse": "vineyard", "natural": "", "leisure": "", "osm_id": 208123416}, "geometry": {"type": "Polygon", "coordinates": [[[11.0793084, 36.8551185], [11.0804014, 36.8559546], [11.0805687, 36.8560581], [11.0807246, 36.8558696], [11.0811592, 36.8554576], [11.0809768, 36.8552344], [11.0802633, 36.8547407], [11.0793084, 36.8551185]]]}}, {"type": "Feature", "properties": {"nom": "agriculture", "type": "agriculture", "icon": "🌾", "landuse": "farmland", "natural": "", "leisure": "", "osm_id": 208123417}, "geometry": {"type": "Polygon", "coordinates": [[[11.0807246, 36.8558696], [11.0805687, 36.8560581], [11.0805387, 36.8560943], [11.0816843, 36.8567854], [11.0821999, 36.8562731], [11.0811592, 36.8554576], [11.0807246, 36.8558696]]]}}, {"type": "Feature", "properties": {"nom": "verger", "type": "verger", "icon": "🌳", "landuse": "orchard", "natural": "", "leisure": "", "osm_id": 208123418}, "geometry": {"type": "Polygon", "coordinates": [[[11.0842735, 36.8566138], [11.0836697, 36.8561572], [11.0834766, 36.8562645], [11.0840613, 36.8567837], [11.0842735, 36.8566138]]]}}, {"type": "Feature", "properties": {"nom": "verger", "type": "verger", "icon": "🌳", "landuse": "vineyard", "natural": "", "leisure": "", "osm_id": 208123419}, "geometry": {"type": "Polygon", "coordinates": [[[11.0828812, 36.8561059], [11.0838647, 36.8553247], [11.0834951, 36.8550455], [11.0832419, 36.8549092], [11.0825786, 36.8554549], [11.0820067, 36.8559254], [11.0825378, 36.8563761], [11.0828812, 36.8561059]]]}}, {"type": "Feature", "properties": {"nom": "parc", "type": "parc", "icon": "🌳", "landuse": "", "natural": "", "leisure": "park", "osm_id": 208124342}, "geometry": {"type": "Polygon", "coordinates": [[[11.0941585, 36.8504731], [11.0943409, 36.8500868], [11.0939949, 36.849973], [11.0938313, 36.8503594], [11.0941585, 36.8504731]]]}}, {"type": "Feature", "properties": {"nom": "agriculture", "type": "agriculture", "icon": "🌾", "landuse": "farmland", "natural": "", "leisure": "", "osm_id": 208141956}, "geometry": {"type": "Polygon", "coordinates": [[[11.1035087, 36.8467361], [11.1036765, 36.8468581], [11.1037244, 36.8469976], [11.1039705, 36.8471753], [11.1043342, 36.846757], [11.1038137, 36.8464154], [11.1035087, 36.8467361]]]}}, {"type": "Feature", "properties": {"nom": "agriculture", "type": "agriculture", "icon": "🌾", "landuse": "farmland", "natural": "", "leisure": "", "osm_id": 208150322}, "geometry": {"type": "Polygon", "coordinates": [[[11.0888589, 36.860741], [11.0884433, 36.8613273], [11.0886208, 36.8613941], [11.0885339, 36.8615181], [11.0888703, 36.8616814], [11.0886902, 36.8619125], [11.0888826, 36.8619959], [11.0893543, 36.8622072], [11.0895997, 36.8615544], [11.0888098, 36.8611976], [11.0891078, 36.8608534], [11.0893805, 36.8605384], [11.0899134, 36.8599124], [11.0896456, 36.8597738], [11.0888589, 36.860741]]]}}, {"type": "Feature", "properties": {"nom": "agriculture", "type": "agriculture", "icon": "🌾", "landuse": "farmland", "natural": "", "leisure": "", "osm_id": 208150326}, "geometry": {"type": "Polygon", "coordinates": [[[11.0840765, 36.8399325], [11.0842276, 36.8397571], [11.0845376, 36.8399506], [11.0839177, 36.8406857], [11.084375, 36.8409065], [11.0841974, 36.8411364], [11.0840576, 36.8410607], [11.0829955, 36.842437], [11.0832147, 36.8425338], [11.0835246, 36.842074], [11.0839971, 36.8422918], [11.084273, 36.8419349], [11.0847152, 36.8422011], [11.0850138, 36.8418684], [11.0853691, 36.8421073], [11.0860532, 36.8414721], [11.0856828, 36.841209], [11.086125, 36.8408278], [11.0859738, 36.8404921], [11.0850969, 36.8396845], [11.0842721, 36.8388681], [11.0837627, 36.8384745], [11.0830539, 36.8393038], [11.083638, 36.8396845], [11.0840765, 36.8399325]]]}}, {"type": "Feature", "properties": {"nom": "agriculture", "type": "agriculture", "icon": "🌾", "landuse": "farmland", "natural": "", "leisure": "", "osm_id": 208150329}, "geometry": {"type": "Polygon", "coordinates": [[[11.0831783, 36.8402765], [11.0828977, 36.8406123], [11.0833307, 36.8408733], [11.0835899, 36.8405396], [11.0831783, 36.8402765]]]}}, {"type": "Feature", "properties": {"nom": "verger", "type": "verger", "icon": "🌳", "landuse": "orchard", "natural": "", "leisure": "", "osm_id": 208150330}, "geometry": {"type": "Polygon", "coordinates": [[[11.0900004, 36.8563288], [11.0898076, 36.8562441], [11.0893641, 36.8567121], [11.0888703, 36.857233], [11.0892634, 36.8574689], [11.0902838, 36.856483], [11.0900004, 36.8563288]]]}}, {"type": "Feature", "properties": {"nom": "agriculture", "type": "agriculture", "icon": "🌾", "landuse": "farmland", "natural": "", "leisure": "", "osm_id": 208150331}, "geometry": {"type": "Polygon", "coordinates": [[[11.0868331, 36.8584517], [11.0872186, 36.85798], [11.0870334, 36.8578741], [11.0870977, 36.8577683], [11.0866706, 36.8575294], [11.0865912, 36.8577864], [11.0865005, 36.8579286], [11.0862775, 36.8581403], [11.0868331, 36.8584517]]]}}, {"type": "Feature", "properties": {"nom": "parc", "type": "parc", "icon": "🌳", "landuse": "", "natural": "", "leisure": "garden", "osm_id": 208150334}, "geometry": {"type": "Polygon", "coordinates": [[[11.0888157, 36.8600459], [11.0890077, 36.860165], [11.0895769, 36.8595778], [11.0893849, 36.8594586], [11.0888157, 36.8600459]]]}}, {"type": "Feature", "properties": {"nom": "agriculture", "type": "agriculture", "icon": "🌾", "landuse": "grass", "natural": "", "leisure": "", "osm_id": 208158077}, "geometry": {"type": "Polygon", "coordinates": [[[11.1083556, 36.8374936], [11.1086077, 36.8374638], [11.1086894, 36.8374723], [11.1090001, 36.8374354], [11.1090303, 36.837549], [11.1091231, 36.8376709], [11.1095218, 36.837452], [11.1092865, 36.8371861], [11.108922, 36.8372762], [11.1084554, 36.8373458], [11.1078753, 36.837333], [11.1078701, 36.8374538], [11.1079011, 36.8374538], [11.1083556, 36.8374936]]]}}, {"type": "Feature", "properties": {"nom": "agriculture", "type": "agriculture", "icon": "🌾", "landuse": "farmland", "natural": "", "leisure": "", "osm_id": 208187070}, "geometry": {"type": "Polygon", "coordinates": [[[11.1106525, 36.8422552], [11.1110548, 36.8418946], [11.1100624, 36.8410593], [11.1106364, 36.8406515], [11.1102448, 36.8403166], [11.1097834, 36.8396555], [11.1091504, 36.83978], [11.1085121, 36.8399603], [11.1081688, 36.8401492], [11.1093436, 36.8412334], [11.1096279, 36.8410336], [11.1099068, 36.8413279], [11.1103306, 36.8417057], [11.1101131, 36.8418913], [11.1106525, 36.8422552]]]}}, {"type": "Feature", "properties": {"nom": "agriculture", "type": "agriculture", "icon": "🌾", "landuse": "farmland", "natural": "", "leisure": "", "osm_id": 208187519}, "geometry": {"type": "Polygon", "coordinates": [[[11.1191484, 36.8405008], [11.1194609, 36.8399669], [11.1193108, 36.8397543], [11.1195144, 36.8395783], [11.1193321, 36.8394107], [11.119257, 36.8393678], [11.1191819, 36.839385], [11.1188869, 36.8399517], [11.1187688, 36.8399946], [11.1186127, 36.8403636], [11.1191484, 36.8405008]]]}}, {"type": "Feature", "properties": {"nom": "agriculture", "type": "agriculture", "icon": "🌾", "landuse": "farmland", "natural": "", "leisure": "", "osm_id": 208187522}, "geometry": {"type": "Polygon", "coordinates": [[[11.1184738, 36.8406858], [11.1184416, 36.8408275], [11.1184523, 36.8411194], [11.1184899, 36.8414009], [11.1185757, 36.8416003], [11.1187581, 36.8418879], [11.1192785, 36.8424889], [11.1193965, 36.8423687], [11.1196432, 36.8424932], [11.1201019, 36.8428667], [11.1202709, 36.8427723], [11.1197585, 36.8423019], [11.1194886, 36.8419939], [11.1189969, 36.8413608], [11.1189539, 36.8412717], [11.1189595, 36.8410251], [11.1189942, 36.8408796], [11.1190347, 36.8407226], [11.1184953, 36.8406], [11.1184738, 36.8406858]]]}}, {"type": "Feature", "properties": {"nom": "agriculture", "type": "agriculture", "icon": "🌾", "landuse": "farmland", "natural": "", "leisure": "", "osm_id": 208187528}, "geometry": {"type": "Polygon", "coordinates": [[[11.120126, 36.8413665], [11.1199919, 36.841096], [11.119434, 36.8412592], [11.1195842, 36.8415425], [11.120126, 36.8413665]]]}}, {"type": "Feature", "properties": {"nom": "vegetation", "type": "vegetation", "icon": "🌿", "landuse": "", "natural": "scrub", "leisure": "", "osm_id": 208188123}, "geometry": {"type": "Polygon", "coordinates": [[[11.1170861, 36.8386912], [11.1170655, 36.8386019], [11.1169797, 36.8385504], [11.1168886, 36.8384836], [11.1168379, 36.8384622], [11.1167904, 36.838496], [11.1169691, 36.8385951], [11.116894, 36.8386789], [11.1169369, 36.8387411], [11.1170013, 36.8387712], [11.1170861, 36.8386912]]]}}, {"type": "Feature", "properties": {"nom": "vegetation", "type": "vegetation", "icon": "🌿", "landuse": "", "natural": "scrub", "leisure": "", "osm_id": 208188125}, "geometry": {"type": "Polygon", "coordinates": [[[11.1168135, 36.8390353], [11.1168448, 36.8389474], [11.1168028, 36.8389558], [11.1167026, 36.8389302], [11.1165989, 36.8389772], [11.116734, 36.8391859], [11.1167438, 36.8391469], [11.1168135, 36.8390353]]]}}, {"type": "Feature", "properties": {"nom": "foret", "type": "foret", "icon": "🌲", "landuse": "", "natural": "wood", "leisure": "", "osm_id": 208188126}, "geometry": {"type": "Polygon", "coordinates": [[[11.1169797, 36.8385504], [11.1171299, 36.8384538], [11.1170924, 36.8382804], [11.1170499, 36.8382163], [11.1169735, 36.8381737], [11.116817, 36.8381596], [11.1166392, 36.8382797], [11.1165694, 36.8383441], [11.1166012, 36.8383733], [11.1167422, 36.8383733], [11.1168379, 36.8384622], [11.1168886, 36.8384836], [11.1169797, 36.8385504]]]}}, {"type": "Feature", "properties": {"nom": "vegetation", "type": "vegetation", "icon": "🌿", "landuse": "", "natural": "scrub", "leisure": "", "osm_id": 208188407}, "geometry": {"type": "Polygon", "coordinates": [[[11.115915, 36.8401062], [11.1161167, 36.839972], [11.1161003, 36.8399387], [11.1160679, 36.8399218], [11.1157611, 36.8400336], [11.1157058, 36.8400226], [11.1156165, 36.8400677], [11.1159265, 36.8403241], [11.1160349, 36.840415], [11.1165713, 36.840705], [11.1166146, 36.8406687], [11.115915, 36.8401062]]]}}, {"type": "Feature", "properties": {"nom": "vegetation", "type": "vegetation", "icon": "🌿", "landuse": "", "natural": "scrub", "leisure": "", "osm_id": 208188475}, "geometry": {"type": "Polygon", "coordinates": [[[11.1172251, 36.8386702], [11.1171693, 36.8386902], [11.1171166, 36.8387541], [11.117409, 36.8389473], [11.1176262, 36.8390911], [11.1175163, 36.839207], [11.1174116, 36.8391576], [11.1174706, 36.839252], [11.1175099, 36.8393188], [11.1175726, 36.8393593], [11.1178167, 36.8393379], [11.1179159, 36.8393551], [11.1181537, 36.839469], [11.1182753, 36.8395118], [11.1183504, 36.8395053], [11.1184094, 36.8394538], [11.1184487, 36.839351], [11.1184112, 36.8391449], [11.1183924, 36.8388701], [11.1182636, 36.8386877], [11.1181081, 36.8386233], [11.1180437, 36.8385589], [11.118042, 36.8384427], [11.1179776, 36.8381767], [11.117931, 36.8379836], [11.1177889, 36.8378075], [11.1178078, 36.838439], [11.1177948, 36.8385439], [11.1177637, 36.8386239], [11.1177193, 36.8386858], [11.1176557, 36.8387326], [11.1175833, 36.8387455], [11.1175055, 36.8387369], [11.1174117, 36.8387176], [11.1172926, 36.8386769], [11.1172251, 36.8386702]]]}}, {"type": "Feature", "properties": {"nom": "foret", "type": "foret", "icon": "🌲", "landuse": "", "natural": "wood", "leisure": "", "osm_id": 208188710}, "geometry": {"type": "Polygon", "coordinates": [[[11.1131845, 36.8357316], [11.1133696, 36.8359462], [11.1135761, 36.8359398], [11.1139409, 36.8356908], [11.1135412, 36.8354997], [11.1131845, 36.8357316]]]}}, {"type": "Feature", "properties": {"nom": "Cap-Bon Kelibia Beach Hotel & Spa", "type": "parc", "icon": "🌳", "landuse": "", "natural": "", "leisure": "garden", "osm_id": 208190133}, "geometry": {"type": "Polygon", "coordinates": [[[11.1259122, 36.8550306], [11.1252327, 36.8556162], [11.125185, 36.8558252], [11.1251097, 36.8559879], [11.1245497, 36.8567855], [11.1245196, 36.8568638], [11.1245121, 36.8569542], [11.1245347, 36.8570808], [11.1246477, 36.8574263], [11.1246904, 36.8574665], [11.1247431, 36.8574906], [11.1248209, 36.8574946], [11.1248988, 36.8574484], [11.1249621, 36.8574973], [11.1250092, 36.8575348], [11.1249389, 36.8576011], [11.1249138, 36.8576614], [11.1249339, 36.8577076], [11.1249766, 36.8577498], [11.1253633, 36.8578482], [11.1254637, 36.8578462], [11.1270003, 36.8569844], [11.1279594, 36.8570105], [11.128213, 36.8561767], [11.1283135, 36.855797], [11.1282708, 36.8557227], [11.1276632, 36.8554977], [11.1277058, 36.8554512], [11.12762, 36.855419], [11.1274966, 36.8553439], [11.1274162, 36.8554061], [11.1268905, 36.8549597], [11.1264627, 36.8545562], [11.1259122, 36.8550306]]]}}, {"type": "Feature", "properties": {"nom": "vegetation", "type": "vegetation", "icon": "🌿", "landuse": "", "natural": "scrub", "leisure": "", "osm_id": 208190182}, "geometry": {"type": "Polygon", "coordinates": [[[11.1287983, 36.8572112], [11.1289048, 36.8571572], [11.1290717, 36.8569782], [11.1293131, 36.856106], [11.1291676, 36.8559781], [11.1286846, 36.8558389], [11.1287521, 36.8556201], [11.1287131, 36.8555491], [11.1282708, 36.8557227], [11.1283135, 36.855797], [11.128213, 36.8561767], [11.1284964, 36.8562268], [11.1285487, 36.85606], [11.1287055, 36.8560915], [11.1286532, 36.8562583], [11.1283651, 36.8572168], [11.128364843270168, 36.85728900526526], [11.128772462780098, 36.85728212112732], [11.1287983, 36.8572112]]]}}, {"type": "Feature", "properties": {"nom": "terrain_sport", "type": "terrain_sport", "icon": "⚽", "landuse": "", "natural": "", "leisure": "pitch", "osm_id": 208190188}, "geometry": {"type": "Polygon", "coordinates": [[[11.1249748, 36.8572663], [11.1251228, 36.8571452], [11.124801, 36.8568935], [11.124653, 36.8570146], [11.1249748, 36.8572663]]]}}, {"type": "Feature", "properties": {"nom": "terrain_sport", "type": "terrain_sport", "icon": "⚽", "landuse": "", "natural": "", "leisure": "pitch", "osm_id": 208190190}, "geometry": {"type": "Polygon", "coordinates": [[[11.1254493, 36.8569078], [11.1252959, 36.8567861], [11.1249996, 36.8570253], [11.1251529, 36.857147], [11.1254493, 36.8569078]]]}}, {"type": "Feature", "properties": {"nom": "foret", "type": "foret", "icon": "🌲", "landuse": "", "natural": "wood", "leisure": "", "osm_id": 208193290}, "geometry": {"type": "Polygon", "coordinates": [[[11.1135739, 36.8351699], [11.1137134, 36.8350755], [11.11378, 36.8349827], [11.1131468, 36.8352488], [11.1130846, 36.8352564], [11.1131367, 36.8353073], [11.1132199, 36.8353481], [11.1132815, 36.8353395], [11.1135739, 36.8351699]]]}}, {"type": "Feature", "properties": {"nom": "verger", "type": "verger", "icon": "🌳", "landuse": "orchard", "natural": "", "leisure": "", "osm_id": 208195712}, "geometry": {"type": "Polygon", "coordinates": [[[11.1134344, 36.8410367], [11.1136007, 36.8408779], [11.1132064, 36.8405602], [11.1129919, 36.8407663], [11.1134344, 36.8410367]]]}}, {"type": "Feature", "properties": {"nom": "verger", "type": "verger", "icon": "🌳", "landuse": "orchard", "natural": "", "leisure": "", "osm_id": 208197640}, "geometry": {"type": "Polygon", "coordinates": [[[11.1238629, 36.8491676], [11.1238575, 36.849116], [11.1236215, 36.8489787], [11.1233666, 36.8492641], [11.1236456, 36.8494165], [11.1238629, 36.8491676]]]}}, {"type": "Feature", "properties": {"nom": "verger", "type": "verger", "icon": "🌳", "landuse": "orchard", "natural": "", "leisure": "", "osm_id": 208197641}, "geometry": {"type": "Polygon", "coordinates": [[[11.1238414, 36.8495496], [11.1240855, 36.8492513], [11.1239675, 36.8491847], [11.1239138, 36.8492062], [11.1236805, 36.8494659], [11.1238414, 36.8495496]]]}}, {"type": "Feature", "properties": {"nom": "terrain_sport", "type": "terrain_sport", "icon": "⚽", "landuse": "", "natural": "", "leisure": "pitch", "osm_id": 208197646}, "geometry": {"type": "Polygon", "coordinates": [[[11.1234359, 36.8495449], [11.1235549, 36.8494143], [11.1232327, 36.8492263], [11.1231137, 36.8493569], [11.1234359, 36.8495449]]]}}, {"type": "Feature", "properties": {"nom": "agriculture", "type": "agriculture", "icon": "🌾", "landuse": "grass", "natural": "", "leisure": "", "osm_id": 208197654}, "geometry": {"type": "Polygon", "coordinates": [[[11.1241203, 36.8486889], [11.1244616, 36.8484564], [11.1243692, 36.8484071], [11.1242994, 36.848347], [11.1242876, 36.8483188], [11.1239487, 36.8485236], [11.1241203, 36.8486889]]]}}, {"type": "Feature", "properties": {"nom": "terrain_sport", "type": "terrain_sport", "icon": "⚽", "landuse": "", "natural": "", "leisure": "pitch", "osm_id": 208198656}, "geometry": {"type": "Polygon", "coordinates": [[[11.1097249, 36.8372952], [11.1102265, 36.8369989], [11.1100334, 36.8368143], [11.1099675, 36.8368358], [11.109902, 36.8368572], [11.1095098, 36.8370755], [11.1097249, 36.8372952]]]}}, {"type": "Feature", "properties": {"nom": "village_green", "type": "village_green", "icon": "🌿", "landuse": "village_green", "natural": "", "leisure": "", "osm_id": 208198975}, "geometry": {"type": "Polygon", "coordinates": [[[11.1006535, 36.8387798], [11.1004982, 36.8389477], [11.1008174, 36.8390722], [11.1009505, 36.8389045], [11.1006535, 36.8387798]]]}}, {"type": "Feature", "properties": {"nom": "vegetation", "type": "vegetation", "icon": "🌿", "landuse": "", "natural": "scrub", "leisure": "", "osm_id": 208206332}, "geometry": {"type": "Polygon", "coordinates": [[[11.1232848, 36.8558581], [11.1233374, 36.8558052], [11.1233579, 36.8557503], [11.1233575, 36.8557098], [11.1233217, 36.8556363], [11.1232598, 36.8555901], [11.1231671, 36.8555668], [11.1230792, 36.8555774], [11.1230009, 36.8556204], [11.1229595, 36.8556754], [11.1229473, 36.8557319], [11.1229532, 36.8557703], [11.1229822, 36.855823], [11.1230061, 36.8558465], [11.1230973, 36.8558899], [11.1231691, 36.8558956], [11.1232154, 36.8558884], [11.1232848, 36.8558581]]]}}, {"type": "Feature", "properties": {"nom": "agriculture", "type": "agriculture", "icon": "🌾", "landuse": "farmland", "natural": "", "leisure": "", "osm_id": 208213817}, "geometry": {"type": "Polygon", "coordinates": [[[11.0945272, 36.860372], [11.0948086, 36.8601141], [11.094377, 36.8597926], [11.0940873, 36.8595694], [11.0937821, 36.8598466], [11.0939103, 36.8599428], [11.0945272, 36.860372]]]}}, {"type": "Feature", "properties": {"nom": "verger", "type": "verger", "icon": "🌳", "landuse": "orchard", "natural": "", "leisure": "", "osm_id": 208213820}, "geometry": {"type": "Polygon", "coordinates": [[[11.093784, 36.8586075], [11.0933562, 36.8581946], [11.0932904, 36.8581311], [11.0926604, 36.8577753], [11.0923302, 36.8580109], [11.0927754, 36.8582813], [11.0932183, 36.8585607], [11.0935723, 36.858814], [11.093784, 36.8586075]]]}}, {"type": "Feature", "properties": {"nom": "verger", "type": "verger", "icon": "🌳", "landuse": "orchard", "natural": "", "leisure": "", "osm_id": 208213829}, "geometry": {"type": "Polygon", "coordinates": [[[11.0934665, 36.8572478], [11.0932955, 36.8574556], [11.0943164, 36.8580405], [11.0944585, 36.8578482], [11.0934665, 36.8572478]]]}}, {"type": "Feature", "properties": {"nom": "verger", "type": "verger", "icon": "🌳", "landuse": "orchard", "natural": "", "leisure": "", "osm_id": 208213835}, "geometry": {"type": "Polygon", "coordinates": [[[11.0923624, 36.8587706], [11.0927754, 36.8582813], [11.0923302, 36.8580109], [11.092022, 36.8581616], [11.0918074, 36.8581701], [11.0916918, 36.8580882], [11.0918021, 36.8579684], [11.0915331, 36.8577642], [11.091212, 36.857448], [11.0910081, 36.8581573], [11.0923624, 36.8587706]]]}}, {"type": "Feature", "properties": {"nom": "verger", "type": "verger", "icon": "🌳", "landuse": "orchard", "natural": "", "leisure": "", "osm_id": 208213836}, "geometry": {"type": "Polygon", "coordinates": [[[11.0956937, 36.8604016], [11.0956272, 36.8603519], [11.0952055, 36.8600368], [11.0949832, 36.8602218], [11.0948086, 36.8601141], [11.0945272, 36.860372], [11.0952299, 36.8608398], [11.0956937, 36.8604016]]]}}, {"type": "Feature", "properties": {"nom": "verger", "type": "verger", "icon": "🌳", "landuse": "orchard", "natural": "", "leisure": "", "osm_id": 208213846}, "geometry": {"type": "Polygon", "coordinates": [[[11.0960185, 36.8595994], [11.0963803, 36.8591226], [11.0961687, 36.8590028], [11.0952031, 36.8590243], [11.0946881, 36.8594621], [11.0948491, 36.8595823], [11.0947549, 36.8596805], [11.0952055, 36.8600368], [11.0956272, 36.8603519], [11.0962116, 36.8597282], [11.0960185, 36.8595994]]]}}, {"type": "Feature", "properties": {"nom": "agriculture", "type": "agriculture", "icon": "🌾", "landuse": "farmland", "natural": "", "leisure": "", "osm_id": 208213955}, "geometry": {"type": "Polygon", "coordinates": [[[11.0936557, 36.8578901], [11.0929148, 36.8575046], [11.0928159, 36.8576164], [11.0926604, 36.8577753], [11.0932904, 36.8581311], [11.0933562, 36.8581946], [11.0933846, 36.8581487], [11.0936557, 36.8578901]]]}}, {"type": "Feature", "properties": {"nom": "agriculture", "type": "agriculture", "icon": "🌾", "landuse": "farmland", "natural": "", "leisure": "", "osm_id": 208213956}, "geometry": {"type": "Polygon", "coordinates": [[[11.0941863, 36.8581955], [11.0936557, 36.8578901], [11.0933846, 36.8581487], [11.0933562, 36.8581946], [11.093784, 36.8586075], [11.0941517, 36.8588612], [11.0943824, 36.8586938], [11.0945487, 36.8585436], [11.0945862, 36.858462], [11.0941863, 36.8581955]]]}}, {"type": "Feature", "properties": {"nom": "agriculture", "type": "agriculture", "icon": "🌾", "landuse": "farmland", "natural": "", "leisure": "", "osm_id": 208213957}, "geometry": {"type": "Polygon", "coordinates": [[[11.0929148, 36.8575046], [11.092107, 36.8570842], [11.0916291, 36.8574005], [11.0918371, 36.8575724], [11.0915331, 36.8577642], [11.0918021, 36.8579684], [11.0916918, 36.8580882], [11.0918074, 36.8581701], [11.092022, 36.8581616], [11.0923302, 36.8580109], [11.0926604, 36.8577753], [11.0928159, 36.8576164], [11.0929148, 36.8575046]]]}}, {"type": "Feature", "properties": {"nom": "agriculture", "type": "agriculture", "icon": "🌾", "landuse": "farmland", "natural": "", "leisure": "", "osm_id": 208213958}, "geometry": {"type": "Polygon", "coordinates": [[[11.0934514, 36.8592685], [11.0941517, 36.8588612], [11.093784, 36.8586075], [11.0935723, 36.858814], [11.0932183, 36.8585607], [11.0927754, 36.8582813], [11.0923624, 36.8587706], [11.0931378, 36.859196], [11.0932987, 36.8592947], [11.0934514, 36.8592685]]]}}, {"type": "Feature", "properties": {"nom": "verger", "type": "verger", "icon": "🌳", "landuse": "orchard", "natural": "", "leisure": "", "osm_id": 208214623}, "geometry": {"type": "Polygon", "coordinates": [[[11.0925531, 36.8634193], [11.0927594, 36.8631485], [11.092242, 36.8628485], [11.0920327, 36.8631446], [11.0925531, 36.8634193]]]}}, {"type": "Feature", "properties": {"nom": "verger", "type": "verger", "icon": "🌳", "landuse": "orchard", "natural": "", "leisure": "", "osm_id": 208214626}, "geometry": {"type": "Polygon", "coordinates": [[[11.0983842, 36.8577109], [11.0979926, 36.8573246], [11.0976785, 36.8575688], [11.098057, 36.8579512], [11.0983842, 36.8577109]]]}}, {"type": "Feature", "properties": {"nom": "verger", "type": "verger", "icon": "🌳", "landuse": "orchard", "natural": "", "leisure": "", "osm_id": 208214629}, "geometry": {"type": "Polygon", "coordinates": [[[11.0985881, 36.8578783], [11.0989582, 36.8582345], [11.0991299, 36.8581143], [11.0987329, 36.8577581], [11.0985881, 36.8578783]]]}}, {"type": "Feature", "properties": {"nom": "verger", "type": "verger", "icon": "🌳", "landuse": "orchard", "natural": "", "leisure": "", "osm_id": 208214646}, "geometry": {"type": "Polygon", "coordinates": [[[11.0990279, 36.8562217], [11.0984218, 36.8558998], [11.0980487, 36.8563198], [11.0985666, 36.8566636], [11.0990279, 36.8562217]]]}}, {"type": "Feature", "properties": {"nom": "verger", "type": "verger", "icon": "🌳", "landuse": "orchard", "natural": "", "leisure": "", "osm_id": 208215086}, "geometry": {"type": "Polygon", "coordinates": [[[11.0812527, 36.8483056], [11.08136, 36.8482112], [11.0814243, 36.8482627], [11.0815316, 36.848164], [11.0814351, 36.8480781], [11.0815584, 36.8479279], [11.0817033, 36.8479922], [11.0818589, 36.8478549], [11.0818642, 36.8477433], [11.0813117, 36.847739], [11.0812527, 36.8477132], [11.0810274, 36.8479279], [11.0812419, 36.8480609], [11.0811132, 36.8482155], [11.0812527, 36.8483056]]]}}, {"type": "Feature", "properties": {"nom": "agriculture", "type": "agriculture", "icon": "🌾", "landuse": "farmland", "natural": "", "leisure": "", "osm_id": 208215087}, "geometry": {"type": "Polygon", "coordinates": [[[11.0840207, 36.8534954], [11.0845089, 36.853109], [11.0844284, 36.8530618], [11.0841816, 36.8529674], [11.0838651, 36.8532765], [11.0838276, 36.853358], [11.0840207, 36.8534954]]]}}, {"type": "Feature", "properties": {"nom": "verger", "type": "verger", "icon": "🌳", "landuse": "orchard", "natural": "", "leisure": "", "osm_id": 208215090}, "geometry": {"type": "Polygon", "coordinates": [[[11.0815829, 36.850092], [11.0808182, 36.849499], [11.0807377, 36.8495548], [11.080625, 36.8495119], [11.0803568, 36.8498767], [11.0806948, 36.85013], [11.0811054, 36.8502766], [11.0815453, 36.8504698], [11.0815829, 36.850092]]]}}, {"type": "Feature", "properties": {"nom": "verger", "type": "verger", "icon": "🌳", "landuse": "orchard", "natural": "", "leisure": "", "osm_id": 208215091}, "geometry": {"type": "Polygon", "coordinates": [[[11.0816443, 36.8494003], [11.0822397, 36.8489152], [11.0822236, 36.8488637], [11.081934, 36.8487048], [11.081317, 36.8492243], [11.0816443, 36.8494003]]]}}, {"type": "Feature", "properties": {"nom": "verger", "type": "verger", "icon": "🌳", "landuse": "orchard", "natural": "", "leisure": "", "osm_id": 208215093}, "geometry": {"type": "Polygon", "coordinates": [[[11.0828405, 36.8483443], [11.08298, 36.8481468], [11.0825777, 36.8480223], [11.0823524, 36.8479751], [11.082288, 36.8481682], [11.0828405, 36.8483443]]]}}, {"type": "Feature", "properties": {"nom": "vegetation", "type": "vegetation", "icon": "🌿", "landuse": "", "natural": "scrub", "leisure": "", "osm_id": 208215094}, "geometry": {"type": "Polygon", "coordinates": [[[11.0908496, 36.8557832], [11.091091, 36.8554398], [11.090737, 36.8552037], [11.0904312, 36.85556], [11.0908496, 36.8557832]]]}}, {"type": "Feature", "properties": {"nom": "verger", "type": "verger", "icon": "🌳", "landuse": "orchard", "natural": "", "leisure": "", "osm_id": 208215097}, "geometry": {"type": "Polygon", "coordinates": [[[11.080848, 36.8507914], [11.0807088, 36.851035], [11.0811752, 36.8513669], [11.0816926, 36.8516539], [11.0818886, 36.8514099], [11.081438, 36.8509806], [11.080848, 36.8507914]]]}}, {"type": "Feature", "properties": {"nom": "verger", "type": "verger", "icon": "🌳", "landuse": "orchard", "natural": "", "leisure": "", "osm_id": 208215210}, "geometry": {"type": "Polygon", "coordinates": [[[11.07477, 36.8489802], [11.0752636, 36.848684], [11.0755479, 36.8484605], [11.0754138, 36.8483575], [11.0755211, 36.8482502], [11.0754299, 36.8481858], [11.0749441, 36.8478162], [11.0747647, 36.8479068], [11.0749198, 36.8480201], [11.0745984, 36.8482802], [11.074518, 36.8483575], [11.0748076, 36.8486065], [11.074475, 36.8488426], [11.0744199, 36.8487903], [11.0742121, 36.8489072], [11.0739142, 36.8486319], [11.0733509, 36.8489624], [11.0728657, 36.8493065], [11.0731631, 36.8495162], [11.0736918, 36.8491519], [11.0740619, 36.8494395], [11.07477, 36.8489802]]]}}, {"type": "Feature", "properties": {"nom": "verger", "type": "verger", "icon": "🌳", "landuse": "orchard", "natural": "", "leisure": "", "osm_id": 208215211}, "geometry": {"type": "Polygon", "coordinates": [[[11.0759609, 36.8508819], [11.0760843, 36.8508132], [11.0762667, 36.8505213], [11.0757327, 36.8501128], [11.0752767, 36.8497909], [11.0746115, 36.8502073], [11.075623, 36.8510063], [11.0759609, 36.8508819]]]}}, {"type": "Feature", "properties": {"nom": "parc", "type": "parc", "icon": "🌳", "landuse": "", "natural": "", "leisure": "garden", "osm_id": 208316628}, "geometry": {"type": "Polygon", "coordinates": [[[11.1245797, 36.8490915], [11.1245201, 36.8490604], [11.1241593, 36.8488277], [11.1240425, 36.8487301], [11.1238764, 36.8485494], [11.1233827, 36.8488477], [11.1227712, 36.8492341], [11.1227605, 36.8492513], [11.1239999, 36.8498364], [11.124343, 36.8493929], [11.1245797, 36.8490915]]]}}, {"type": "Feature", "properties": {"nom": "verger", "type": "verger", "icon": "🌳", "landuse": "orchard", "natural": "", "leisure": "", "osm_id": 208376100}, "geometry": {"type": "Polygon", "coordinates": [[[11.0559152, 36.8585491], [11.0567252, 36.857755], [11.0571115, 36.8572185], [11.0565697, 36.8569052], [11.0557167, 36.8576735], [11.0551803, 36.8573859], [11.0546599, 36.8579267], [11.0559152, 36.8585491]]]}}, {"type": "Feature", "properties": {"nom": "verger", "type": "verger", "icon": "🌳", "landuse": "orchard", "natural": "", "leisure": "", "osm_id": 208376101}, "geometry": {"type": "Polygon", "coordinates": [[[11.0580175, 36.8635315], [11.058297, 36.8627596], [11.0576908, 36.8625321], [11.0576694, 36.8623819], [11.0580878, 36.8620815], [11.0585969, 36.8622353], [11.0590105, 36.8616909], [11.0595147, 36.8618755], [11.0600512, 36.8609913], [11.0592733, 36.8607166], [11.0585706, 36.8605106], [11.0581575, 36.8608625], [11.0579429, 36.8608454], [11.0569613, 36.8621587], [11.0567574, 36.8625193], [11.0565697, 36.8629613], [11.0580175, 36.8635315]]]}}, {"type": "Feature", "properties": {"nom": "verger", "type": "verger", "icon": "🌳", "landuse": "orchard", "natural": "", "leisure": "", "osm_id": 208376107}, "geometry": {"type": "Polygon", "coordinates": [[[11.0561561, 36.8618834], [11.0576635, 36.8602481], [11.0570525, 36.8600084], [11.0563658, 36.8597037], [11.0558723, 36.8594633], [11.053962, 36.8585227], [11.0528414, 36.8597638], [11.0531842, 36.859952], [11.0530345, 36.8601501], [11.0531901, 36.8602402], [11.0530506, 36.8603947], [11.0526483, 36.8601715], [11.0524981, 36.8603217], [11.0529159, 36.8605486], [11.0526053, 36.8609012], [11.0534899, 36.8613598], [11.0541659, 36.8616645], [11.0546647, 36.8618791], [11.0549389, 36.8619785], [11.0550032, 36.8619141], [11.0554431, 36.8621459], [11.0561561, 36.8618834]]]}}, {"type": "Feature", "properties": {"nom": "verger", "type": "verger", "icon": "🌳", "landuse": "orchard", "natural": "", "leisure": "", "osm_id": 208376109}, "geometry": {"type": "Polygon", "coordinates": [[[11.0574977, 36.8638455], [11.056795, 36.8635622], [11.0564731, 36.8640171], [11.0563765, 36.8639785], [11.0561888, 36.864206], [11.0561829, 36.8645015], [11.0566877, 36.8647165], [11.0574977, 36.8638455]]]}}, {"type": "Feature", "properties": {"nom": "verger", "type": "verger", "icon": "🌳", "landuse": "orchard", "natural": "", "leisure": "", "osm_id": 208412742}, "geometry": {"type": "Polygon", "coordinates": [[[11.060357, 36.8424046], [11.0602298, 36.842361], [11.0601316, 36.8423874], [11.0600152, 36.8424898], [11.0599133, 36.8424597], [11.0597991, 36.8425119], [11.0598312, 36.842645], [11.060078, 36.8427566], [11.060357, 36.8424046]]]}}, {"type": "Feature", "properties": {"nom": "verger", "type": "verger", "icon": "🌳", "landuse": "orchard", "natural": "", "leisure": "", "osm_id": 208412743}, "geometry": {"type": "Polygon", "coordinates": [[[11.0594681, 36.8429964], [11.0594037, 36.8429405], [11.0595914, 36.8426701], [11.0592841, 36.8425033], [11.0591339, 36.8424089], [11.0587959, 36.8427995], [11.0593914, 36.8430872], [11.0594681, 36.8429964]]]}}, {"type": "Feature", "properties": {"nom": "verger", "type": "verger", "icon": "🌳", "landuse": "orchard", "natural": "", "leisure": "", "osm_id": 208412751}, "geometry": {"type": "Polygon", "coordinates": [[[11.0539733, 36.851016], [11.0533457, 36.8506082], [11.0531166, 36.8507234], [11.0529541, 36.8509044], [11.0533778, 36.8512349], [11.0536246, 36.8513637], [11.0539733, 36.851016]]]}}, {"type": "Feature", "properties": {"nom": "verger", "type": "verger", "icon": "🌳", "landuse": "orchard", "natural": "", "leisure": "", "osm_id": 208412765}, "geometry": {"type": "Polygon", "coordinates": [[[11.0557439, 36.8528814], [11.0555504, 36.8527888], [11.0548815, 36.8524791], [11.0542415, 36.8531794], [11.0545312, 36.8534713], [11.0546455, 36.8537153], [11.0548262, 36.853849], [11.0557439, 36.8528814]]]}}, {"type": "Feature", "properties": {"nom": "agriculture", "type": "agriculture", "icon": "🌾", "landuse": "farmland", "natural": "", "leisure": "", "osm_id": 208424389}, "geometry": {"type": "Polygon", "coordinates": [[[11.0441513, 36.805926], [11.0445429, 36.8062868], [11.0448487, 36.806566], [11.0451491, 36.806901], [11.0454653, 36.8073047], [11.0459374, 36.8078631], [11.0460983, 36.8080306], [11.046343, 36.8082344], [11.0465758, 36.8083956], [11.0470264, 36.8086791], [11.047772, 36.8090914], [11.0480724, 36.8092589], [11.0482924, 36.8094909], [11.0487162, 36.809843], [11.0491507, 36.8102124], [11.0493867, 36.810483], [11.049465, 36.810588], [11.0499264, 36.8103002], [11.0500626, 36.8101952], [11.0499929, 36.8101007], [11.0499983, 36.8100449], [11.0498159, 36.8098516], [11.0494833, 36.8095596], [11.0492848, 36.8093964], [11.0492043, 36.8093448], [11.0487698, 36.8089798], [11.0484319, 36.8087392], [11.0483085, 36.8086233], [11.0480832, 36.8084944], [11.0477828, 36.8083355], [11.047536, 36.8081981], [11.0473268, 36.8080477], [11.0469298, 36.8077643], [11.046624, 36.8075152], [11.0463558, 36.8072446], [11.0460501, 36.8069654], [11.045814, 36.8067549], [11.0456531, 36.8065917], [11.0453261, 36.8062782], [11.0449721, 36.8059818], [11.0445215, 36.8056081], [11.0442371, 36.8057885], [11.0440869, 36.8058401], [11.0441513, 36.805926]]]}}, {"type": "Feature", "properties": {"nom": "Parc de Suède", "type": "parc", "icon": "🌳", "landuse": "", "natural": "", "leisure": "park", "osm_id": 250694208}, "geometry": {"type": "Polygon", "coordinates": [[[11.0959219, 36.8432923], [11.0962203, 36.842996], [11.0958811, 36.8428078], [11.0956841, 36.8426985], [11.0953381, 36.8430484], [11.0955285, 36.8431471], [11.0955147, 36.8431674], [11.0954565, 36.8432532], [11.0957789, 36.8434342], [11.0959219, 36.8432923]]]}}, {"type": "Feature", "properties": {"nom": "parc", "type": "parc", "icon": "🌳", "landuse": "", "natural": "", "leisure": "garden", "osm_id": 343315124}, "geometry": {"type": "Polygon", "coordinates": [[[11.0967495, 36.8511596], [11.0967951, 36.851151], [11.0968139, 36.8511382], [11.0968085, 36.8511124], [11.0965108, 36.8507218], [11.0964894, 36.8507132], [11.0964625, 36.8507196], [11.0963257, 36.8509128], [11.0967495, 36.8511596]]]}}, {"type": "Feature", "properties": {"nom": "parc", "type": "parc", "icon": "🌳", "landuse": "", "natural": "", "leisure": "garden", "osm_id": 343320881}, "geometry": {"type": "Polygon", "coordinates": [[[11.0850807, 36.8460914], [11.0851987, 36.8462513], [11.0852898, 36.8461601], [11.0850807, 36.8460914]]]}}, {"type": "Feature", "properties": {"nom": "parc", "type": "parc", "icon": "🌳", "landuse": "", "natural": "", "leisure": "garden", "osm_id": 343989563}, "geometry": {"type": "Polygon", "coordinates": [[[11.0908525, 36.857956], [11.0909249, 36.8577306], [11.0909088, 36.8577178], [11.0908847, 36.8577178], [11.090713, 36.8579023], [11.0908525, 36.857956]]]}}, {"type": "Feature", "properties": {"nom": "terrain_sport", "type": "terrain_sport", "icon": "⚽", "landuse": "", "natural": "", "leisure": "pitch", "osm_id": 346656381}, "geometry": {"type": "Polygon", "coordinates": [[[11.092853, 36.8503384], [11.0930514, 36.8500787], [11.0927886, 36.8499735], [11.0927296, 36.8500036], [11.0926813, 36.8500229], [11.092633, 36.8500272], [11.092574, 36.8500229], [11.092507, 36.8502354], [11.092853, 36.8503384]]]}}, {"type": "Feature", "properties": {"nom": "ملعب سيدي بن عيسى", "type": "terrain_sport", "icon": "⚽", "landuse": "", "natural": "", "leisure": "pitch", "osm_id": 365430383}, "geometry": {"type": "Polygon", "coordinates": [[[11.0967646, 36.8500799], [11.0970275, 36.8498094], [11.0970811, 36.8497665], [11.0966466, 36.849642], [11.096534, 36.8497064], [11.0964213, 36.8499296], [11.0967646, 36.8500799]]]}}, {"type": "Feature", "properties": {"nom": "parc", "type": "parc", "icon": "🌳", "landuse": "", "natural": "", "leisure": "park", "osm_id": 490473219}, "geometry": {"type": "Polygon", "coordinates": [[[11.0919115, 36.8465353], [11.0918202, 36.8464451], [11.0915721, 36.8466061], [11.0916634, 36.8466963], [11.0919115, 36.8465353]]]}}, {"type": "Feature", "properties": {"nom": "maison de culture", "type": "agriculture", "icon": "🌾", "landuse": "farmland", "natural": "", "leisure": "", "osm_id": 490473220}, "geometry": {"type": "Polygon", "coordinates": [[[11.091705, 36.8464183], [11.0915696, 36.8462842], [11.0913027, 36.8464591], [11.0914355, 36.84659], [11.091705, 36.8464183]]]}}, {"type": "Feature", "properties": {"nom": "terrain_sport", "type": "terrain_sport", "icon": "⚽", "landuse": "", "natural": "", "leisure": "pitch", "osm_id": 558520530}, "geometry": {"type": "Polygon", "coordinates": [[[11.1135243, 36.8480074], [11.1134975, 36.8478808], [11.1122664, 36.8481233], [11.1120786, 36.8483701], [11.1128484, 36.8487522], [11.1135243, 36.8480074]]]}}, {"type": "Feature", "properties": {"nom": "terrain_sport", "type": "terrain_sport", "icon": "⚽", "landuse": "", "natural": "", "leisure": "pitch", "osm_id": 558520532}, "geometry": {"type": "Polygon", "coordinates": [[[11.1033182, 36.8534832], [11.1036508, 36.8529789], [11.1036374, 36.8528909], [11.1032958, 36.852763], [11.1032609, 36.8528038], [11.1032046, 36.852821], [11.1028586, 36.8532696], [11.1033182, 36.8534832]]]}}, {"type": "Feature", "properties": {"nom": "parc", "type": "parc", "icon": "🌳", "landuse": "", "natural": "", "leisure": "garden", "osm_id": 558520534}, "geometry": {"type": "Polygon", "coordinates": [[[11.0999931, 36.8515701], [11.0998237, 36.8515183], [11.099762, 36.8515997], [11.0999931, 36.8515701]]]}}, {"type": "Feature", "properties": {"nom": "Parc de la station", "type": "parc", "icon": "🌳", "landuse": "", "natural": "", "leisure": "park", "osm_id": 628553196}, "geometry": {"type": "Polygon", "coordinates": [[[11.0869963, 36.8474227], [11.0865089, 36.8471925], [11.0862558, 36.8475089], [11.0866602, 36.8477953], [11.0869963, 36.8474227]]]}}, {"type": "Feature", "properties": {"nom": "Jardin Ezzouhour", "type": "parc", "icon": "🌳", "landuse": "", "natural": "", "leisure": "garden", "osm_id": 674671133}, "geometry": {"type": "Polygon", "coordinates": [[[11.0971769, 36.8461789], [11.0977349, 36.8456135], [11.0971181, 36.84525], [11.096647, 36.8458177], [11.0971769, 36.8461789]]]}}, {"type": "Feature", "properties": {"nom": "Jardin De L'environnement", "type": "parc", "icon": "🌳", "landuse": "", "natural": "", "leisure": "garden", "osm_id": 675044330}, "geometry": {"type": "Polygon", "coordinates": [[[11.093039, 36.8355212], [11.093475, 36.8356259], [11.0938762, 36.835755], [11.0945782, 36.8360167], [11.0946915, 36.8358213], [11.0945346, 36.834893], [11.0943645, 36.8348337], [11.0942293, 36.8350466], [11.0942991, 36.835064], [11.0940593, 36.8354619], [11.093925, 36.8353926], [11.0938406, 36.8355275], [11.0933307, 36.8353232], [11.0934117, 36.8351936], [11.093295, 36.8351468], [11.093039, 36.8355212]]]}}, {"type": "Feature", "properties": {"nom": "Parc et jardin public", "type": "parc", "icon": "🌳", "landuse": "", "natural": "", "leisure": "park", "osm_id": 710995726}, "geometry": {"type": "Polygon", "coordinates": [[[11.0991466, 36.8458372], [11.0990102, 36.845762], [11.0987055, 36.8460812], [11.0988963, 36.8461871], [11.0991466, 36.8458372]]]}}, {"type": "Feature", "properties": {"nom": "Parc et jardin public", "type": "agriculture", "icon": "🌾", "landuse": "grass", "natural": "", "leisure": "", "osm_id": 710995727}, "geometry": {"type": "Polygon", "coordinates": [[[11.0991213, 36.8458433], [11.0990104, 36.8457827], [11.0987278, 36.8460762], [11.0988904, 36.8461678], [11.0991213, 36.8458433]]]}}, {"type": "Feature", "properties": {"nom": "agriculture", "type": "agriculture", "icon": "🌾", "landuse": "grass", "natural": "", "leisure": "", "osm_id": 710995728}, "geometry": {"type": "Polygon", "coordinates": [[[11.0951805, 36.8440063], [11.0945768, 36.8437987], [11.094368, 36.8439998], [11.0949644, 36.8442087], [11.0951805, 36.8440063]]]}}, {"type": "Feature", "properties": {"nom": "agriculture", "type": "agriculture", "icon": "🌾", "landuse": "grass", "natural": "", "leisure": "", "osm_id": 710995730}, "geometry": {"type": "Polygon", "coordinates": [[[11.0946634, 36.8358236], [11.0945077, 36.8349073], [11.0943811, 36.8348637], [11.094276, 36.8350273], [11.0943441, 36.8350507], [11.0940696, 36.8354932], [11.0939333, 36.8354262], [11.0938535, 36.8355571], [11.0932908, 36.8353374], [11.0933765, 36.8352034], [11.0932986, 36.8351722], [11.0930708, 36.8355088], [11.0934855, 36.8356039], [11.0945641, 36.8359903], [11.0946634, 36.8358236]]]}}, {"type": "Feature", "properties": {"nom": "vegetation", "type": "vegetation", "icon": "🌿", "landuse": "", "natural": "scrub", "leisure": "", "osm_id": 1006787078}, "geometry": {"type": "Polygon", "coordinates": [[[11.1148798, 36.8375207], [11.114892, 36.8374735], [11.1148839, 36.8374214], [11.1149164, 36.8373775], [11.1149571, 36.8373384], [11.1150567, 36.8372701], [11.1151115, 36.8372669], [11.1151725, 36.8372799], [11.1152132, 36.8372734], [11.1153677, 36.8371725], [11.1154083, 36.8371448], [11.1154266, 36.8370928], [11.1154734, 36.8370423], [11.1155425, 36.8369968], [11.1156482, 36.8369626], [11.1157356, 36.8369415], [11.1158779, 36.8369285], [11.1159978, 36.8369561], [11.1161747, 36.8371025], [11.1162438, 36.8371546], [11.1163312, 36.8371969], [11.1165202, 36.8372571], [11.1165995, 36.8373694], [11.1166849, 36.8375304], [11.116815, 36.8377647], [11.1168841, 36.8378167], [11.1169552, 36.8378672], [11.1169796, 36.8379664], [11.1169634, 36.8380364], [11.1168699, 36.8381161], [11.116817, 36.8381596], [11.1169735, 36.8381737], [11.1170499, 36.8382163], [11.1170924, 36.8382804], [11.1171299, 36.8384538], [11.1173337, 36.8386105], [11.1174779, 36.8386656], [11.1175436, 36.8384467], [11.1174162, 36.8384083], [11.1173744, 36.8383463], [11.1174159, 36.8382731], [11.1175063, 36.8382507], [11.1175672, 36.8380071], [11.1175162, 36.8378869], [11.1174965, 36.8377603], [11.1174706, 36.8375434], [11.1174375, 36.8373567], [11.1173705, 36.8371807], [11.1172507, 36.8370561], [11.1170978, 36.8369616], [11.1169852, 36.8369273], [11.1168672, 36.8368479], [11.1165346, 36.8366783], [11.1161644, 36.8365409], [11.1158418, 36.8364835], [11.1157585, 36.8364766], [11.1155716, 36.8365237], [11.1152757, 36.8366397], [11.1148743, 36.8368135], [11.1146248, 36.8369702], [11.11437, 36.837157], [11.1142062, 36.8373028], [11.1141743, 36.837394], [11.1143158, 36.837466], [11.1144906, 36.8375088], [11.1147421, 36.8375641], [11.1148127, 36.8376464], [11.1148798, 36.8375207]]]}}, {"type": "Feature", "properties": {"nom": "terrain_sport", "type": "terrain_sport", "icon": "⚽", "landuse": "", "natural": "", "leisure": "pitch", "osm_id": 1165474196}, "geometry": {"type": "Polygon", "coordinates": [[[11.076442, 36.8447099], [11.0765973, 36.8445225], [11.0761911, 36.8443071], [11.0760359, 36.8444945], [11.076442, 36.8447099]]]}}, {"type": "Feature", "properties": {"nom": "agriculture", "type": "agriculture", "icon": "🌾", "landuse": "grass", "natural": "", "leisure": "", "osm_id": 1362846997}, "geometry": {"type": "Polygon", "coordinates": [[[11.0854494, 36.8463242], [11.0854638, 36.8463004], [11.085468, 36.8462741], [11.0854617, 36.8462481], [11.0854454, 36.846225], [11.0854208, 36.8462073], [11.0853904, 36.8461967], [11.0853575, 36.8461943], [11.0853252, 36.8462003], [11.085297, 36.8462142], [11.0852758, 36.8462346], [11.0852655, 36.8462535], [11.0852614, 36.8462738], [11.0852637, 36.8462943], [11.0852722, 36.8463137], [11.0852864, 36.8463309], [11.0853056, 36.8463446], [11.0853283, 36.8463542], [11.0853533, 36.846359], [11.0853791, 36.8463587], [11.0854039, 36.8463534], [11.0854263, 36.8463432], [11.0854494, 36.8463242]]]}}]}